{"version": 0.6, "generator": "Overpass API 0.7.62.1 084b4234", "osm3s": {"timestamp_osm_base": "2024-10-16T20:33:48Z", "copyright": "The data included in this document is from www.openstreetmap.org. The data is made available under ODbL."}, "elements": [{"type": "node", "id": 7537159752, "lat": 26.6331328, "lon": 92.7954425, "tags": {"addr:district": "Sonitpur", "addr:full": "Darrang College W Road, Mahabhairab, Tezpur", "addr:postcode": "784001", "addr:state": "Assam", "amenity": "doctors", "name": "Dr. H.K. Borah", "source": "Local Knowledge"}}, {"type": "node", "id": 7537159794, "lat": 26.6331746, "lon": 92.795314, "tags": {"addr:district": "Sonitpur", "addr:full": "Near Pradipbhawan, Darrang College W Road, Mahabhairab, Tezpur", "addr:postcode": "784001", "addr:state": "Assam", "amenity": "doctors", "name": "Dr. K. C. Borkotoky", "source": "Local Knowledge"}}, {"type": "node", "id": 7537159816, "lat": 26.6312634, "lon": 92.7930585, "tags": {"addr:district": "Sonitpur", "addr:full": "Mahabhairab, Tezpur", "addr:postcode": "784001", "addr:state": "Assam", "amenity": "dentist", "name": "Annagiri Surgical & Dental Clinic", "source": "Local Knowledge"}}]}