{"version": 0.6, "generator": "Overpass API 0.7.62.4 2390de5a", "osm3s": {"timestamp_osm_base": "2024-12-15T03:51:59Z", "copyright": "The data included in this document is from www.openstreetmap.org. The data is made available under ODbL."}, "elements": [{"type": "node", "id": 368045773, "lat": 40.7173245, "lon": -74.0076397, "tags": {"addr:state": "NY", "amenity": "courthouse", "ele": "5", "gnis:feature_id": "2060144", "name": "New York City Supreme Court", "source": "USGS Geonames"}}, {"type": "node", "id": 419359985, "lat": 40.716632, "lon": -74.0082392, "tags": {"amenity": "bicycle_parking", "capacity": "2", "cityracks.housenum": "133", "cityracks.large": "0", "cityracks.rackid": "2322", "cityracks.small": "1", "cityracks.street": "W Broadway"}}, {"type": "node", "id": 419360001, "lat": 40.716761, "lon": -74.0085855, "tags": {"amenity": "bicycle_parking", "bicycle_parking": "stands", "capacity": "2", "check_date": "2023-11-06", "cityracks.housenum": "155", "cityracks.installed": "9/29/2004", "cityracks.large": "0", "cityracks.rackid": "3047", "cityracks.small": "1", "cityracks.street": "Duane St", "covered": "no"}}, {"type": "node", "id": 419360113, "lat": 40.7144963, "lon": -74.0099323, "tags": {"amenity": "bicycle_parking", "capacity": "2", "cityracks.housenum": "65", "cityracks.large": "0", "cityracks.rackid": "4715", "cityracks.small": "1", "cityracks.street": "W Broadway"}}, {"type": "node", "id": 419360669, "lat": 40.7161516, "lon": -74.0092997, "tags": {"amenity": "bicycle_parking", "bicycle_parking": "stands", "capacity": "2", "cityracks.housenum": "121", "cityracks.installed": "9/29/2004", "cityracks.large": "0", "cityracks.rackid": "3042", "cityracks.small": "1", "cityracks.street": "Reade St", "covered": "no"}}, {"type": "node", "id": 419360756, "lat": 40.7161295, "lon": -74.010757, "tags": {"amenity": "bicycle_parking", "capacity": "2", "cityracks.housenum": "164", "cityracks.installed": "9/29/2004", "cityracks.large": "0", "cityracks.rackid": "3083", "cityracks.small": "1", "cityracks.street": "Chambers St"}}, {"type": "node", "id": 419360936, "lat": 40.7160197, "lon": -74.0109302, "tags": {"amenity": "bicycle_parking", "capacity": "2", "cityracks.housenum": "295", "cityracks.installed": "7/8/2001", "cityracks.large": "0", "cityracks.rackid": "2471", "cityracks.small": "1", "cityracks.street": "Greenwich St"}}, {"type": "node", "id": 419361663, "lat": 40.7151058, "lon": -74.0096603, "tags": {"amenity": "bicycle_parking", "capacity": "2", "cityracks.housenum": "82", "cityracks.installed": "9/29/2004", "cityracks.large": "0", "cityracks.rackid": "3090", "cityracks.small": "1", "cityracks.street": "W Broadway"}}, {"type": "node", "id": 419361903, "lat": 40.7156028, "lon": -74.007514, "tags": {"amenity": "bicycle_parking", "bicycle_parking": "stands", "capacity": "2", "check_date": "2023-11-06", "cityracks.housenum": "178", "cityracks.installed": "7/8/2001", "cityracks.large": "0", "cityracks.rackid": "2330", "cityracks.small": "1", "cityracks.street": "Church St", "covered": "no"}}, {"type": "node", "id": 419361911, "lat": 40.7162643, "lon": -74.006991, "tags": {"amenity": "bicycle_parking", "capacity": "2", "cityracks.housenum": "200", "cityracks.installed": "7/8/2001", "cityracks.large": "0", "cityracks.rackid": "2385", "cityracks.small": "1", "cityracks.street": "Church St"}}, {"type": "node", "id": 419361950, "lat": 40.7181446, "lon": -74.0106118, "tags": {"amenity": "bicycle_parking", "capacity": "20", "cityracks.housenum": "334", "cityracks.installed": "8/9/2008", "cityracks.large": "4", "cityracks.rackid": "450", "cityracks.small": "0", "cityracks.street": "Greenwich St"}}, {"type": "node", "id": 419362029, "lat": 40.7155671, "lon": -74.0073336, "tags": {"amenity": "bicycle_parking", "capacity": "2", "cityracks.housenum": "179", "cityracks.installed": "7/8/2001", "cityracks.large": "0", "cityracks.rackid": "2484", "cityracks.small": "1", "cityracks.street": "Church St"}}, {"type": "node", "id": 419362708, "lat": 40.7164124, "lon": -74.0092673, "tags": {"amenity": "bicycle_parking", "capacity": "2", "cityracks.housenum": "19", "cityracks.large": "0", "cityracks.rackid": "2332", "cityracks.small": "1", "cityracks.street": "Hudson St"}}, {"type": "node", "id": 419363323, "lat": 40.7153331, "lon": -74.0113124, "tags": {"access": "yes", "amenity": "bicycle_parking", "bicycle_parking": "stands", "capacity": "12", "cityracks.housenum": "270", "cityracks.large": "0", "cityracks.rackid": "4997", "cityracks.small": "10", "cityracks.street": "Greenwich St"}}, {"type": "node", "id": 419363688, "lat": 40.7194428, "lon": -74.0067821, "tags": {"amenity": "bicycle_parking", "capacity": "2", "cityracks.housenum": "6", "cityracks.large": "0", "cityracks.rackid": "2369", "cityracks.small": "1", "cityracks.street": "Varick St"}}, {"type": "node", "id": 419364003, "lat": 40.7153173, "lon": -74.0077376, "tags": {"amenity": "bicycle_parking", "capacity": "2", "cityracks.housenum": "168", "cityracks.installed": "9/29/2004", "cityracks.large": "0", "cityracks.rackid": "3049", "cityracks.small": "1", "cityracks.street": "Church St"}}, {"type": "node", "id": 419364085, "lat": 40.7168682, "lon": -74.0065185, "tags": {"amenity": "bicycle_parking", "capacity": "2", "cityracks.housenum": "220", "cityracks.installed": "7/8/2001", "cityracks.large": "0", "cityracks.rackid": "2386", "cityracks.small": "1", "cityracks.street": "Church St"}}, {"type": "node", "id": 419364250, "lat": 40.7191956, "lon": -74.0086255, "tags": {"amenity": "bicycle_parking", "capacity": "2", "cityracks.housenum": "100", "cityracks.large": "0", "cityracks.rackid": "2357", "cityracks.small": "1", "cityracks.street": "Hudson St"}}, {"type": "node", "id": 419364306, "lat": 40.7177712, "lon": -74.0073447, "tags": {"amenity": "bicycle_parking", "bicycle_parking": "stands", "capacity": "4", "check_date": "2023-06-25", "cityracks.housenum": "173", "cityracks.installed": "9/29/2004", "cityracks.large": "0", "cityracks.rackid": "3050,3051", "cityracks.small": "2", "cityracks.street": "W Broadway", "covered": "no"}}, {"type": "node", "id": 419364351, "lat": 40.7166815, "lon": -74.0068251, "tags": {"amenity": "bicycle_parking", "capacity": "2", "cityracks.housenum": "49", "cityracks.installed": "7/8/2001", "cityracks.large": "0", "cityracks.rackid": "2391", "cityracks.small": "1", "cityracks.street": "Thomas St"}}, {"type": "node", "id": 419364460, "lat": 40.71476, "lon": -74.0097215, "tags": {"amenity": "bicycle_parking", "capacity": "5", "cityracks.housenum": "73", "cityracks.installed": "7/8/2001", "cityracks.large": "1", "cityracks.rackid": "2475", "cityracks.small": "0", "cityracks.street": "W Broadway"}}, {"type": "node", "id": 419364593, "lat": 40.7146339, "lon": -74.0074886, "tags": {"amenity": "bicycle_parking", "capacity": "2", "cityracks.housenum": "94", "cityracks.installed": "7/8/2001", "cityracks.large": "0", "cityracks.rackid": "2488", "cityracks.small": "1", "cityracks.street": "Chambers St"}}, {"type": "node", "id": 419364640, "lat": 40.7158033, "lon": -74.0081836, "tags": {"amenity": "bicycle_parking", "capacity": "2", "cityracks.housenum": "100", "cityracks.large": "0", "cityracks.rackid": "51", "cityracks.small": "1", "cityracks.street": "Reade St"}}, {"type": "node", "id": 419364719, "lat": 40.7160157, "lon": -74.0104736, "tags": {"amenity": "bicycle_parking", "capacity": "2", "cityracks.housenum": "156", "cityracks.installed": "1/8/2007", "cityracks.large": "0", "cityracks.rackid": "3082", "cityracks.small": "1", "cityracks.street": "Chambers St"}}, {"type": "node", "id": 419364738, "lat": 40.7153859, "lon": -74.0087729, "tags": {"amenity": "bicycle_parking", "capacity": "2", "cityracks.housenum": "125", "cityracks.large": "0", "cityracks.rackid": "2320", "cityracks.small": "1", "cityracks.street": "Chambers St"}}, {"type": "node", "id": 419365380, "lat": 40.7146778, "lon": -74.0075788, "tags": {"amenity": "bicycle_parking", "capacity": "5", "cityracks.housenum": "96", "cityracks.installed": "1/8/2007", "cityracks.large": "1", "cityracks.rackid": "3092", "cityracks.small": "0", "cityracks.street": "Chambers St"}}, {"type": "node", "id": 419365447, "lat": 40.7178978, "lon": -74.0072421, "tags": {"amenity": "bicycle_parking", "bicycle_parking": "stands", "capacity": "2", "check_date": "2023-06-25", "cityracks.housenum": "177", "cityracks.large": "0", "cityracks.rackid": "74", "cityracks.small": "1", "cityracks.street": "West Broadway", "covered": "no"}}, {"type": "node", "id": 419365793, "lat": 40.7171591, "lon": -74.0078244, "tags": {"amenity": "bicycle_parking", "capacity": "2", "cityracks.housenum": "151", "cityracks.large": "0", "cityracks.rackid": "2360", "cityracks.small": "1", "cityracks.street": "W Broadway"}}, {"type": "node", "id": 419365840, "lat": 40.7158031, "lon": -74.008185, "tags": {"amenity": "bicycle_parking", "capacity": "7", "cityracks.housenum": "100", "cityracks.large": "1", "cityracks.rackid": "2311,2358", "cityracks.small": "1", "cityracks.street": "Reade St"}}, {"type": "node", "id": 419366413, "lat": 40.7155973, "lon": -74.0080803, "tags": {"amenity": "bicycle_parking", "capacity": "2", "cityracks.housenum": "99", "cityracks.installed": "7/8/2001", "cityracks.large": "0", "cityracks.rackid": "2367", "cityracks.small": "1", "cityracks.street": "Reade St"}}, {"type": "node", "id": 419366608, "lat": 40.7145511, "lon": -74.0073069, "tags": {"amenity": "bicycle_parking", "capacity": "2", "cityracks.housenum": "90", "cityracks.installed": "12/8/2009", "cityracks.large": "0", "cityracks.rackid": "4746", "cityracks.small": "1", "cityracks.street": "Chambers St"}}, {"type": "node", "id": 419366645, "lat": 40.7161243, "lon": -74.0072002, "tags": {"amenity": "bicycle_parking", "capacity": "2", "cityracks.housenum": "129", "cityracks.installed": "9/29/2004", "cityracks.large": "0", "cityracks.rackid": "3044", "cityracks.small": "1", "cityracks.street": "Duane St"}}, {"type": "node", "id": 419366677, "lat": 40.7191625, "lon": -74.0102525, "tags": {"amenity": "bicycle_parking", "capacity": "2", "cityracks.housenum": "363", "cityracks.installed": "7/8/2001", "cityracks.large": "0", "cityracks.rackid": "2348", "cityracks.small": "1", "cityracks.street": "Greenwich St"}}, {"type": "node", "id": 419366678, "lat": 40.7152189, "lon": -74.0086843, "tags": {"amenity": "bicycle_parking", "bicycle_parking": "stands", "capacity": "2", "cityracks.housenum": "118", "cityracks.installed": "12/8/2009", "cityracks.large": "0", "cityracks.rackid": "4751", "cityracks.small": "1", "cityracks.street": "Chambers", "covered": "no"}}, {"type": "node", "id": 419366767, "lat": 40.715188, "lon": -74.0111573, "tags": {"amenity": "bicycle_parking", "capacity": "5", "cityracks.housenum": "275", "cityracks.installed": "9/29/2004", "cityracks.large": "1", "cityracks.rackid": "3093", "cityracks.small": "0", "cityracks.street": "Greenwich St"}}, {"type": "node", "id": 419366858, "lat": 40.7157624, "lon": -74.0098896, "tags": {"amenity": "bicycle_parking", "bicycle_parking": "stands", "capacity": "2", "cityracks.housenum": "144", "cityracks.installed": "7/8/2001", "cityracks.large": "0", "cityracks.rackid": "2469", "cityracks.small": "1", "cityracks.street": "Chambers St", "covered": "no"}}, {"type": "node", "id": 419366930, "lat": 40.715387, "lon": -74.0087719, "tags": {"amenity": "bicycle_parking", "capacity": "2", "cityracks.housenum": "125", "cityracks.installed": "12/8/2009", "cityracks.large": "0", "cityracks.rackid": "4749", "cityracks.small": "1", "cityracks.street": "Chambers"}}, {"type": "node", "id": 419367191, "lat": 40.7181855, "lon": -74.0089897, "tags": {"amenity": "bicycle_parking", "capacity": "2", "cityracks.housenum": "71", "cityracks.large": "0", "cityracks.rackid": "2361", "cityracks.small": "1", "cityracks.street": "Hudson St"}}, {"type": "node", "id": 419367218, "lat": 40.7186193, "lon": -74.0071319, "tags": {"amenity": "bicycle_parking", "bicycle_parking": "stands", "capacity": "2", "check_date": "2023-06-25", "cityracks.housenum": "196", "cityracks.installed": "6/10/2002", "cityracks.large": "0", "cityracks.rackid": "2333", "cityracks.small": "1", "cityracks.street": "W Broadway", "covered": "no"}}, {"type": "node", "id": 419367236, "lat": 40.7153062, "lon": -74.0103024, "tags": {"amenity": "bicycle_parking", "capacity": "2", "cityracks.housenum": "80", "cityracks.installed": "9/29/2004", "cityracks.large": "0", "cityracks.rackid": "3089", "cityracks.small": "1", "cityracks.street": "Warren St"}}, {"type": "node", "id": 419367400, "lat": 40.7179403, "lon": -74.0104349, "tags": {"amenity": "bicycle_parking", "bicycle_parking": "stands", "capacity": "5", "cityracks.housenum": "333", "cityracks.installed": "8/9/2008", "cityracks.large": "1", "cityracks.rackid": "655", "cityracks.small": "0", "cityracks.street": "Greenwich St"}}, {"type": "node", "id": 419367416, "lat": 40.7172467, "lon": -74.0067901, "tags": {"amenity": "bicycle_parking", "bicycle_parking": "stands", "capacity": "9", "cityracks.housenum": "40", "cityracks.large": "1", "cityracks.rackid": "2372,3058", "cityracks.small": "2", "cityracks.street": "Worth St", "covered": "no"}}, {"type": "node", "id": 419367658, "lat": 40.715143, "lon": -74.0082374, "tags": {"amenity": "bicycle_parking", "bicycle_parking": "stands", "capacity": "2", "check_date": "2023-02-23", "cityracks.housenum": "111", "cityracks.installed": "12/8/2009", "cityracks.large": "0", "cityracks.rackid": "4750", "cityracks.small": "1", "cityracks.street": "Chambers", "covered": "no"}}, {"type": "node", "id": 419367942, "lat": 40.7174775, "lon": -74.0077848, "tags": {"amenity": "bicycle_parking", "capacity": "5", "cityracks.housenum": "160", "cityracks.installed": "9/29/2004", "cityracks.large": "1", "cityracks.rackid": "3048", "cityracks.small": "0", "cityracks.street": "W Broadway"}}, {"type": "node", "id": 889078654, "lat": 40.7147515, "lon": -74.0117712, "tags": {"amenity": "bank", "atm": "yes", "brand": "Chase", "brand:wikidata": "Q524629", "check_date": "2024-09-17", "check_date:opening_hours": "2024-09-17", "name": "Chase", "opening_hours": "Mo-Fr 09:00-17:00; Sa 09:00-14:00; Su closed", "phone": "+1 212-923-3140", "website": "https://locator.chase.com/ny/new-york/240-b-greenwich-st"}}, {"type": "node", "id": 889078882, "lat": 40.7151427, "lon": -74.0115565, "tags": {"amenity": "bank", "brand": "Bank of America", "brand:wikidata": "Q487907", "name": "Bank of America", "website": "https://locators.bankofamerica.com/ny/newyork/financial-centers-new-york-16009.html"}}, {"type": "node", "id": 889080115, "lat": 40.7149297, "lon": -74.0110479, "tags": {"amenity": "cafe", "name": "Twin Cafe"}}, {"type": "node", "id": 889083044, "lat": 40.7151714, "lon": -74.0110643, "tags": {"addr:housenumber": "275", "addr:street": "Greenwich Street", "amenity": "cafe", "name": "Kaffe 1668", "opening_hours": "Mo-Fr 06:30-21:00; Sa-Su 08:00-21:00"}}, {"type": "node", "id": 889101050, "lat": 40.7152168, "lon": -74.0120512, "tags": {"alt_name": "SP Plus", "amenity": "parking", "brand": "SP+", "brand:wikidata": "Q7598289", "fee": "yes", "name": "SP+", "opening_hours": "24/7", "operator": "SP+", "operator:type": "private", "operator:wikidata": "Q7598289", "operator:wikipedia": "en:SP Plus Corporation"}}, {"type": "node", "id": 889435992, "lat": 40.7143268, "lon": -74.0097038, "tags": {"addr:housenumber": "57", "addr:postcode": "10007", "addr:street": "Murray Street", "amenity": "pub", "contact:facebook": "monkmcginns", "contact:instagram": "monkmcginnsnyc", "name": "Monk McGinns", "phone": "+1 212 791-9676"}}, {"type": "node", "id": 889438158, "lat": 40.7143712, "lon": -74.0098061, "tags": {"amenity": "stripclub", "name": "FlashDancers"}}, {"type": "node", "id": 889464923, "lat": 40.7149435, "lon": -74.0098751}, {"type": "node", "id": 889469733, "lat": 40.7149567, "lon": -74.0094239, "tags": {"amenity": "cafe", "brand": "Le Pain Quotidien", "brand:wikidata": "Q2046903", "check_date": "2023-07-31", "cuisine": "coffee_shop", "name": "Le Pain Quotidien", "takeaway": "yes"}}, {"type": "node", "id": 889472802, "lat": 40.715522, "lon": -74.008983, "tags": {"addr:city": "New York", "addr:housenumber": "125", "addr:postcode": "10007", "addr:state": "NY", "addr:street": "Chambers Street", "amenity": "cafe", "branch": "Chambers and West Broadway", "brand": "Starbucks", "brand:wikidata": "Q37158", "cuisine": "coffee_shop", "diet:vegan": "yes", "drink:soy_milk": "yes", "indoor_seating": "yes", "name": "Starbucks", "official_name": "Starbucks Coffee", "opening_hours": "Mo-Sa 06:00-19:00; Su 06:00-18:30", "outdoor_seating": "no", "phone": "+1 212-791-6368", "ref": "8692", "takeaway": "yes", "website": "https://www.starbucks.com/store-locator/store/8692/chambers-and-west-broadway-125-chambers-street-new-york-ny-100071331-us", "wheelchair": "yes"}}, {"type": "node", "id": 889485115, "lat": 40.7162978, "lon": -74.0106665, "tags": {"addr:city": "New York", "addr:country": "US", "addr:housenumber": "167", "addr:postcode": "10013", "addr:state": "NY", "addr:street": "Chambers Street", "amenity": "fast_food", "brand": "McDonald's", "brand:wikidata": "Q38076", "cuisine": "burger", "internet_access": "wlan", "internet_access:fee": "no", "name": "McDonald's", "opening_hours": "24/7", "phone": "+1 212-608-2405", "takeaway": "yes", "website": "https://www.mcdonalds.com/us/en-us/location/11163.html", "wheelchair": "yes"}}, {"type": "node", "id": 889585150, "lat": 40.7172209, "lon": -74.0120268}, {"type": "node", "id": 1272961632, "lat": 40.7160601, "lon": -74.0093501, "tags": {"addr:city": "New York", "addr:housenumber": "5", "addr:postcode": "10013", "addr:state": "NY", "addr:street": "Hudson Street", "amenity": "pharmacy", "healthcare": "pharmacy", "name": "Kings Pharmacy"}}, {"type": "node", "id": 1487384169, "lat": 40.7166187, "lon": -74.0093343, "tags": {"addr:city": "New York", "addr:housenumber": "25", "addr:postcode": "10007", "addr:street": "Hudson Street", "amenity": "clinic", "check_date": "2023-07-31", "healthcare": "clinic", "level": "0", "name": "One Medical", "operator": "1Life Healthcare", "operator:type": "private", "operator:wikidata": "Q85727717", "wheelchair": "yes"}}, {"type": "node", "id": 1934522990, "lat": 40.7149834, "lon": -74.011137, "tags": {"addr:city": "New York", "addr:housenumber": "275", "addr:postcode": "10007", "addr:state": "NY", "addr:street": "Greenwich Street", "alt_name": "Chipotle Mexican Grill", "amenity": "fast_food", "brand": "Chipotle", "brand:wikidata": "Q465751", "cuisine": "mexican", "diet:vegan": "yes", "diet:vegetarian": "yes", "name": "Chipotle", "official_name": "Chipotle Mexican Grill", "opening_hours": "Mo-Su 10:45-23:00", "phone": "+1 646-412-3981", "takeaway": "yes", "website": "https://locations.chipotle.com/ny/new-york/275-greenwich-street"}}, {"type": "node", "id": 2482618660, "lat": 40.7191271, "lon": -74.0101564, "tags": {"addr:city": "New York", "addr:housenumber": "363", "addr:postcode": "10013", "addr:street": "Greenwich Street", "amenity": "restaurant", "cuisine": "steak", "name": "American Cut", "phone": "+1 212 226-4736", "website": "https://www.americancutsteakhouse.com/"}}, {"type": "node", "id": 2565683738, "lat": 40.7172048, "lon": -74.0124561}, {"type": "node", "id": 2565683739, "lat": 40.7172055, "lon": -74.0124632}, {"type": "node", "id": 2565683740, "lat": 40.7172164, "lon": -74.0119913}, {"type": "node", "id": 2565683741, "lat": 40.7172144, "lon": -74.0124652}, {"type": "node", "id": 2565683742, "lat": 40.7172238, "lon": -74.01247}, {"type": "node", "id": 2565683743, "lat": 40.717234, "lon": -74.0124761}, {"type": "node", "id": 2565683744, "lat": 40.7172439, "lon": -74.0124841}, {"type": "node", "id": 2565683745, "lat": 40.7172592, "lon": -74.0118426}, {"type": "node", "id": 2565683746, "lat": 40.7172553, "lon": -74.0124962}, {"type": "node", "id": 2565683748, "lat": 40.7172761, "lon": -74.0119795}, {"type": "node", "id": 2565683749, "lat": 40.7172662, "lon": -74.0125137}, {"type": "node", "id": 2565683750, "lat": 40.7172756, "lon": -74.0125375}, {"type": "node", "id": 2565683751, "lat": 40.7172756, "lon": -74.0124415}, {"type": "node", "id": 2565683753, "lat": 40.7176548, "lon": -74.0123609}, {"type": "node", "id": 2565683754, "lat": 40.7176566, "lon": -74.0121171}, {"type": "node", "id": 2565683755, "lat": 40.7176665, "lon": -74.0124519}, {"type": "node", "id": 2565683756, "lat": 40.7176696, "lon": -74.0122298}, {"type": "node", "id": 2565683757, "lat": 40.7176748, "lon": -74.0116816}, {"type": "node", "id": 2565683758, "lat": 40.7176789, "lon": -74.0123962}, {"type": "node", "id": 2565683759, "lat": 40.7176826, "lon": -74.0117501}, {"type": "node", "id": 2565683760, "lat": 40.7177042, "lon": -74.0121655}, {"type": "node", "id": 2565683761, "lat": 40.7177025, "lon": -74.0123523}, {"type": "node", "id": 2565683763, "lat": 40.7177974, "lon": -74.011858}, {"type": "node", "id": 2565683764, "lat": 40.7187894, "lon": -74.0114341}, {"type": "node", "id": 2565683765, "lat": 40.7187964, "lon": -74.0114904}, {"type": "node", "id": 2565683766, "lat": 40.7188257, "lon": -74.0117177}, {"type": "node", "id": 2565683769, "lat": 40.7189673, "lon": -74.0116862}, {"type": "node", "id": 2565683776, "lat": 40.7190196, "lon": -74.012101}, {"type": "node", "id": 2565683781, "lat": 40.7190546, "lon": -74.011459}, {"type": "node", "id": 2565683782, "lat": 40.7190573, "lon": -74.0113759}, {"type": "node", "id": 2565683784, "lat": 40.7190688, "lon": -74.0114559}, {"type": "node", "id": 2565683785, "lat": 40.719077, "lon": -74.0116384}, {"type": "node", "id": 2565683786, "lat": 40.7190874, "lon": -74.0116362}, {"type": "node", "id": 2565683787, "lat": 40.7190903, "lon": -74.0116593}, {"type": "node", "id": 2565683828, "lat": 40.7198995, "lon": -74.0117557}, {"type": "node", "id": 2565683830, "lat": 40.7199184, "lon": -74.0119042}, {"type": "node", "id": 2565683835, "lat": 40.7200006, "lon": -74.0111679}, {"type": "node", "id": 2565683845, "lat": 40.7200656, "lon": -74.0116339}, {"type": "node", "id": 2565683848, "lat": 40.7200967, "lon": -74.011148}, {"type": "node", "id": 2565683849, "lat": 40.7200757, "lon": -74.0117168}, {"type": "node", "id": 2565683853, "lat": 40.7201529, "lon": -74.0116158}, {"type": "node", "id": 2565698836, "lat": 40.7193052, "lon": -74.0100953, "tags": {"addr:city": "New York", "addr:housenumber": "369", "addr:postcode": "10013", "addr:state": "NY", "addr:street": "Greenwich Street", "amenity": "restaurant", "delivery": "yes", "indoor_seating": "yes", "name": "Benvenuto Cafe Tribeca", "opening_hours": "24/7", "outdoor_seating": "yes", "phone": "+1-212-219-2373", "website": "https://www.benvenutocafe.com/"}}, {"type": "node", "id": 2565698941, "lat": 40.7180887, "lon": -74.0115899}, {"type": "node", "id": 2565708308, "lat": 40.7179669, "lon": -74.0074785}, {"type": "node", "id": 2565708314, "lat": 40.718005, "lon": -74.0080776}, {"type": "node", "id": 2565708315, "lat": 40.7180393, "lon": -74.0076381}, {"type": "node", "id": 2565708323, "lat": 40.7181188, "lon": -74.0075759}, {"type": "node", "id": 2565708337, "lat": 40.7182305, "lon": -74.0079008}, {"type": "node", "id": 2565708338, "lat": 40.7182466, "lon": -74.0086102}, {"type": "node", "id": 2565708346, "lat": 40.7183103, "lon": -74.0084979}, {"type": "node", "id": 2565708347, "lat": 40.7183144, "lon": -74.0085462}, {"type": "node", "id": 2565708348, "lat": 40.718318, "lon": -74.0085542}, {"type": "node", "id": 2565708349, "lat": 40.7183219, "lon": -74.008468}, {"type": "node", "id": 2565708351, "lat": 40.7183275, "lon": -74.0085359}, {"type": "node", "id": 2565708352, "lat": 40.7183289, "lon": -74.0084834}, {"type": "node", "id": 2565708366, "lat": 40.7184549, "lon": -74.0083638}, {"type": "node", "id": 2565708372, "lat": 40.7185135, "lon": -74.0083179}, {"type": "node", "id": 2565708376, "lat": 40.7185367, "lon": -74.0084177}, {"type": "node", "id": 2565708377, "lat": 40.7185382, "lon": -74.0083724}, {"type": "node", "id": 2565708381, "lat": 40.7185729, "lon": -74.0086791}, {"type": "node", "id": 2565708527, "lat": 40.7194382, "lon": -74.0066224}, {"type": "node", "id": 2565708530, "lat": 40.7194446, "lon": -74.0066879}, {"type": "node", "id": 2565708533, "lat": 40.719456, "lon": -74.006593}, {"type": "node", "id": 2565708534, "lat": 40.7194585, "lon": -74.006619}, {"type": "node", "id": 2565708559, "lat": 40.7195118, "lon": -74.0065634}, {"type": "node", "id": 2565708560, "lat": 40.7195137, "lon": -74.0065832}, {"type": "node", "id": 2565708602, "lat": 40.7195926, "lon": -74.0065497}, {"type": "node", "id": 2565708603, "lat": 40.7195941, "lon": -74.006565}, {"type": "node", "id": 2565708626, "lat": 40.7196659, "lon": -74.0065529}, {"type": "node", "id": 2565708628, "lat": 40.7196753, "lon": -74.0066489}, {"type": "node", "id": 2641379134, "lat": 40.7152802, "lon": -74.009614, "tags": {"addr:housenumber": "86A", "addr:postcode": "10007", "addr:street": "West Broadway", "amenity": "restaurant", "check_date": "2023-07-31", "cuisine": "sushi", "name": "JR Sushi 2", "phone": "+1-212-233-8338", "website": "http://jrsushi.com/"}}, {"type": "node", "id": 2821335216, "lat": 40.714713, "lon": -74.0077745, "tags": {"addr:city": "New York", "addr:housenumber": "100", "addr:postcode": "10007", "addr:state": "NY", "addr:street": "Chambers Street", "air_conditioning": "yes", "alt_name": "Dunkin' Donuts", "amenity": "fast_food", "brand": "Dunkin'", "brand:wikidata": "Q847743", "cuisine": "donut;coffee_shop", "delivery": "no", "drink:coffee": "yes", "drive_through": "no", "fax": "+1 212-619-1221", "indoor_seating": "yes", "level": "0", "name": "Dunkin'", "opening_hours": "24/7", "outdoor_seating": "no", "phone": "+1 212-608-1601", "ref": "341501", "smoking": "no", "takeaway": "yes", "website": "https://locations.dunkindonuts.com/en/ny/new-york/100-chambers-st/341501"}}, {"type": "node", "id": 2823340800, "lat": 40.7166348, "lon": -74.0120211, "tags": {"addr:city": "New York", "addr:housenumber": "200", "addr:postcode": "10007", "addr:state": "NY", "addr:street": "Chambers Street", "amenity": "veterinary", "branch": "Tribeca", "email": "Chambers@URvetCare.com", "fee": "yes", "name": "URvet Care", "phone": "+1-646-618-8900", "website": "https://urvetcare.com/locations/tribeca-clinic/"}}, {"type": "node", "id": 2823341443, "lat": 40.7145563, "lon": -74.0102744}, {"type": "node", "id": 2823341444, "lat": 40.714591, "lon": -74.0103516}, {"type": "node", "id": 2823341450, "lat": 40.7147138, "lon": -74.010152}, {"type": "node", "id": 2823341453, "lat": 40.7147594, "lon": -74.0101166}, {"type": "node", "id": 2823341454, "lat": 40.7147941, "lon": -74.0101938}, {"type": "node", "id": 2823341457, "lat": 40.7148164, "lon": -74.0099729}, {"type": "node", "id": 2823341458, "lat": 40.7148382, "lon": -74.0101596}, {"type": "node", "id": 2823341461, "lat": 40.7148491, "lon": -74.0100468}, {"type": "node", "id": 2823341465, "lat": 40.7148839, "lon": -74.0102313}, {"type": "node", "id": 2823341469, "lat": 40.7149205, "lon": -74.0103127}, {"type": "node", "id": 2823341488, "lat": 40.7150106, "lon": -74.0100269}, {"type": "node", "id": 2823341495, "lat": 40.715045, "lon": -74.010106}, {"type": "node", "id": 2823341501, "lat": 40.7150817, "lon": -74.0101874}, {"type": "node", "id": 2823341570, "lat": 40.715442, "lon": -74.0097869}, {"type": "node", "id": 2823341573, "lat": 40.7154716, "lon": -74.009764}, {"type": "node", "id": 2823341574, "lat": 40.7154763, "lon": -74.0098632}, {"type": "node", "id": 2823341575, "lat": 40.7154855, "lon": -74.0097532}, {"type": "node", "id": 2823341586, "lat": 40.7156073, "lon": -74.0096589}, {"type": "node", "id": 2823341588, "lat": 40.7156116, "lon": -74.0096556}, {"type": "node", "id": 2823341600, "lat": 40.7156413, "lon": -74.0097354}, {"type": "node", "id": 2823341603, "lat": 40.7156458, "lon": -74.0097319}, {"type": "node", "id": 2892641901, "lat": 40.719376, "lon": -74.006475, "tags": {"amenity": "restaurant", "cuisine": "american", "delivery": "yes", "internet_access": "wlan", "name": "Butterfly", "outdoor_seating": "no", "smoking": "no", "takeaway": "yes"}}, {"type": "node", "id": 2897876740, "lat": 40.7182651, "lon": -74.007295, "tags": {"addr:city": "New York", "addr:housenumber": "372", "addr:postcode": "10013", "addr:state": "NY", "addr:street": "Greenwich Street", "addr:unit": "3", "amenity": "cafe", "branch": "Greenwich St & North Moore St", "brand": "Starbucks", "brand:wikidata": "Q37158", "cuisine": "coffee_shop", "indoor_seating": "yes", "name": "Starbucks", "official_name": "Starbucks Coffee", "opening_hours": "Mo-Fr 05:30-19:00; Sa,Su 06:00-19:30", "outdoor_seating": "no", "phone": "+1 929-923-1534", "ref": "1045015", "takeaway": "yes", "website": "https://www.starbucks.com/store-locator/store/1045015/greenwich-st-n-moore-st-372-greenwich-street-space-3-new-york-ny-100132332"}}, {"type": "node", "id": 2897876741, "lat": 40.718446, "lon": -74.007236, "tags": {"addr:housenumber": "33", "addr:street": "Leonard Street", "amenity": "restaurant", "brewery": "various", "cuisine": "american", "delivery": "yes", "indoor_seating": "yes", "internet_access": "wlan", "internet_access:fee": "no", "name": "Square Diner", "opening_hours": "Mo-Fr 06:00-21:00; Sa, Su 07:30-16:00", "outdoor_seating": "yes", "payment:cash": "only", "phone": "+1-212-925-7188", "takeaway": "yes", "toilets": "yes", "website": "https://squaredinernewyorkcity.com/", "wheelchair": "no"}}, {"type": "node", "id": 3708656585, "lat": 40.7191291, "lon": -74.0066639, "tags": {"amenity": "bicycle_rental", "bicycle_rental": "docking_station", "brand": "Citi Bike", "brand:wikidata": "Q2974438", "capacity": "33", "fee": "yes", "name": "Citi Bike - Franklin St & W Broadway", "network": "Citi Bike", "network:wikidata": "Q2974438", "network:wikipedia": "en:Citi Bike", "operator": "Lyft", "operator:type": "private", "operator:wikidata": "Q17077936", "operator:wikipedia": "en:Lyft", "payment:cash": "no", "payment:coins": "no", "payment:credit_cards": "yes", "payment:debit_cards": "yes", "payment:visa": "yes", "website": "https://citibikenyc.com/"}}, {"type": "node", "id": 3708656609, "lat": 40.715422, "lon": -74.0112198, "tags": {"amenity": "bicycle_rental", "bicycle_rental": "docking_station", "brand": "Citi Bike", "brand:wikidata": "Q2974438", "capacity": "33", "fee": "yes", "name": "Citi Bike - Greenwich St & Warren St", "network": "Citi Bike", "network:wikidata": "Q2974438", "network:wikipedia": "en:Citi Bike", "operator": "Lyft", "operator:type": "private", "operator:wikidata": "Q17077936", "operator:wikipedia": "en:Lyft", "payment:cash": "no", "payment:coins": "no", "payment:credit_cards": "yes", "payment:debit_cards": "yes", "payment:visa": "yes", "website": "https://citibikenyc.com/", "wheelchair": "yes"}}, {"type": "node", "id": 3708656612, "lat": 40.7187099, "lon": -74.0090009, "tags": {"amenity": "bicycle_rental", "bicycle_rental": "docking_station", "brand": "Citi Bike", "brand:wikidata": "Q2974438", "capacity": "27", "fee": "yes", "name": "Citi Bike - Harrison St & Hudson St", "network": "Citi Bike", "network:wikidata": "Q2974438", "network:wikipedia": "en:Citi Bike", "operator": "Lyft", "operator:type": "private", "operator:wikidata": "Q17077936", "operator:wikipedia": "en:Lyft", "payment:cash": "no", "payment:coins": "no", "payment:credit_cards": "yes", "payment:debit_cards": "yes", "payment:visa": "yes", "website": "https://citibikenyc.com/"}}, {"type": "node", "id": 3708656617, "lat": 40.7162873, "lon": -74.0091228, "tags": {"amenity": "bicycle_rental", "bicycle_rental": "docking_station", "brand": "Citi Bike", "brand:wikidata": "Q2974438", "capacity": "39", "fee": "yes", "name": "Citi Bike - Hudson Street & Reade Street", "network": "Citi Bike", "network:wikidata": "Q2974438", "network:wikipedia": "en:Citi Bike", "operator": "Lyft", "operator:type": "private", "operator:wikidata": "Q17077936", "operator:wikipedia": "en:Lyft", "website": "https://citibikenyc.com/"}}, {"type": "node", "id": 3708656665, "lat": 40.7150252, "lon": -74.0124245, "tags": {"amenity": "bicycle_rental", "bicycle_rental": "docking_station", "brand": "Citi Bike", "brand:wikidata": "Q2974438", "capacity": "36", "check_date": "2022-12-28", "fee": "yes", "name": "Citi Bike - Murray St & West St", "network": "Citi Bike", "network:wikidata": "Q2974438", "network:wikipedia": "en:Citi Bike", "operator": "Lyft", "operator:type": "private", "operator:wikidata": "Q17077936", "operator:wikipedia": "en:Lyft", "payment:cash": "no", "payment:coins": "no", "payment:credit_cards": "yes", "payment:debit_cards": "yes", "website": "https://citibikenyc.com/"}}, {"type": "node", "id": 3708656772, "lat": 40.7147343, "lon": -74.0090961, "tags": {"amenity": "bicycle_rental", "bicycle_rental": "docking_station", "brand": "Citi Bike", "brand:wikidata": "Q2974438", "capacity": "46", "check_date": "2022-12-28", "fee": "yes", "name": "Citi Bike - Warren St & W Broadway", "network": "Citi Bike", "network:wikidata": "Q2974438", "network:wikipedia": "en:Citi Bike", "operator": "Lyft", "operator:type": "private", "operator:wikidata": "Q17077936", "operator:wikipedia": "en:Lyft", "payment:credit_cards": "yes", "payment:debit_cards": "yes", "website": "https://citibikenyc.com/"}}, {"type": "node", "id": 3708656782, "lat": 40.7176259, "lon": -74.0131717, "tags": {"amenity": "bicycle_rental", "bicycle_rental": "docking_station", "brand": "Citi Bike", "brand:wikidata": "Q2974438", "capacity": "78", "check_date": "2022-12-28", "fee": "yes", "name": "Citi Bike", "network": "Citi Bike", "network:wikidata": "Q2974438", "network:wikipedia": "en:Citi Bike", "operator": "Lyft", "operator:type": "private", "operator:wikidata": "Q17077936", "operator:wikipedia": "en:Lyft", "payment:cash": "no", "payment:credit_cards": "yes", "payment:debit_cards": "yes", "website": "https://citibikenyc.com/"}}, {"type": "node", "id": 3734070549, "lat": 40.7177954, "lon": -74.0076114}, {"type": "node", "id": 3734070554, "lat": 40.7182569, "lon": -74.0078802}, {"type": "node", "id": 3734070555, "lat": 40.7183098, "lon": -74.008747}, {"type": "node", "id": 3735556933, "lat": 40.7148037, "lon": -74.0100816}, {"type": "node", "id": 3782798136, "lat": 40.7165871, "lon": -74.0079257, "tags": {"addr:city": "New York", "addr:housenumber": "145", "addr:postcode": "10013", "addr:state": "NY", "addr:street": "Duane Street", "amenity": "restaurant", "cuisine": "japanese", "name": "Takahachi", "opening_hours": "Su-Th 12:00-14:30, 17:30-22:30; Fr-Sa 17:30-23:00"}}, {"type": "node", "id": 4015724687, "lat": 40.7159896, "lon": -74.0100064, "tags": {"amenity": "fast_food", "check_date:opening_hours": "2023-08-29", "cuisine": "pizza", "diet:vegan": "no", "diet:vegetarian": "yes", "indoor_seating": "yes", "name": "I Pizza NY", "opening_hours:signed": "no", "outdoor_seating": "no", "wheelchair": "yes"}}, {"type": "node", "id": 4015736091, "lat": 40.719225, "lon": -74.0066966, "tags": {"amenity": "cafe", "cuisine": "sandwich", "indoor_seating": "yes", "name": "Gotan", "outdoor_seating": "yes", "website": "https://www.gotannyc.com/"}}, {"type": "node", "id": 4475004133, "lat": 40.7188675, "lon": -74.0098866, "tags": {"addr:city": "New York", "addr:housenumber": "22", "addr:postcode": "10013", "addr:state": "NY", "addr:street": "Harrison Street", "amenity": "dentist", "check_date:opening_hours": "2023-11-06", "healthcare": "dentist", "healthcare:speciality": "orthodontics", "name": "Karpov Orthodontics", "opening_hours:signed": "no", "wheelchair": "yes"}}, {"type": "node", "id": 4848257933, "lat": 40.7188835, "lon": -74.0101049, "tags": {"addr:city": "New York", "amenity": "cafe", "name": "Chanson le Salon", "name:en": "Chanson le Salon"}}, {"type": "node", "id": 4848258525, "lat": 40.719227, "lon": -74.0065567, "tags": {"amenity": "restaurant", "name": "Terra", "name:en": "Terra"}}, {"type": "node", "id": 4971985122, "lat": 40.7161674, "lon": -74.0071773, "tags": {"addr:housenumber": "200", "addr:street": "Church Street", "air_conditioning": "yes", "amenity": "restaurant", "cuisine": "american", "name": "Tribeca's Kitchen", "opening_hours": "Mo-Su 06:00-00:00", "phone": "2122275100", "takeaway": "yes", "website": "http://www.tribecaskitchen.com/"}}, {"type": "node", "id": 5087627025, "lat": 40.7186778, "lon": -74.0113217, "tags": {"amenity": "parking"}}, {"type": "node", "id": 5163958322, "lat": 40.7165338, "lon": -74.008635, "tags": {"addr:housenumber": "120", "addr:street": "West Broadway", "amenity": "bank", "brand": "Citibank", "brand:wikidata": "Q857063", "name": "Citibank", "short_name": "Citi"}}, {"type": "node", "id": 5163985623, "lat": 40.715813, "lon": -74.0087939, "tags": {"addr:housenumber": "95", "addr:street": "West Broadway", "amenity": "restaurant", "name": "Serafina", "wheelchair": "yes"}}, {"type": "node", "id": 5163985624, "lat": 40.716972, "lon": -74.0078817, "tags": {"addr:housenumber": "146", "addr:street": "West Broadway", "amenity": "restaurant", "indoor_seating": "yes", "name": "The Odeon", "outdoor_seating": "yes"}}, {"type": "node", "id": 5403606223, "lat": 40.7167151, "lon": -74.0089922, "tags": {"addr:housenumber": "30", "addr:street": "Hudson Street", "amenity": "restaurant", "cuisine": "japanese", "name": "Brushstroke", "opening_hours": "Mo-Th 17:30-22:30; Fr, Sa 17:30-23:00", "phone": "+1-212-791-3771", "website": "https://davidbouley.com/", "wikidata": "Q4949688"}}, {"type": "node", "id": 5415647133, "lat": 40.715278, "lon": -74.0074529, "tags": {"addr:city": "New York", "addr:housenumber": "165", "addr:postcode": "10007", "addr:state": "NY", "addr:street": "Church Street", "air_conditioning": "yes", "amenity": "cafe", "bar": "no", "check_date": "2023-10-05", "cuisine": "coffee_shop", "name": "Hungry Ghost", "opening_hours": "Mo-Fr 06:30-19:00; Sa-Su 07:00-19:00", "outdoor_seating": "no", "reservation": "no", "smoking": "no", "takeaway": "only", "website": "https://www.hungryghostcoffee.com/location/tribeca/"}}, {"type": "node", "id": 5621655899, "lat": 40.7142374, "lon": -74.0109381, "tags": {"addr:city": "New York", "addr:housenumber": "75", "addr:state": "NY", "addr:street": "Park Place", "amenity": "charging_station", "brand": "ChargePoint", "brand:wikidata": "Q5176149", "name": "ChargePoint", "operator": "ChargePoint", "operator:wikidata": "Q5176149", "operator:wikipedia": "en:ChargePoint", "website": "http://beamcharging.com/beam-locations.html#104"}}, {"type": "node", "id": 5621655900, "lat": 40.7167273, "lon": -74.0123014, "tags": {"addr:city": "New York", "addr:housenumber": "200", "addr:state": "NY", "addr:street": "Chambers Street", "amenity": "charging_station", "brand": "Blink", "brand:wikidata": "Q62065645", "name": "Blink", "operator": "Blink", "operator:wikidata": "Q62065645", "website": "http://beamcharging.com/beam-locations.html#38"}}, {"type": "node", "id": 5629861780, "lat": 40.7189449, "lon": -74.0129858, "tags": {"access": "yes", "amenity": "drinking_water"}}, {"type": "node", "id": 5629862076, "lat": 40.718642, "lon": -74.0130497, "tags": {"access": "yes", "amenity": "drinking_water"}}, {"type": "node", "id": 5804903909, "lat": 40.7166313, "lon": -74.0070498, "tags": {"addr:housenumber": "54", "addr:street": "Thomas Street", "amenity": "dojo", "name": "Ken-Zen Institute"}}, {"type": "node", "id": 5857617398, "lat": 40.7147175, "lon": -74.0071909, "tags": {"addr:city": "New York", "addr:housenumber": "87", "addr:postcode": "10007", "addr:state": "NY", "addr:street": "Chambers Street", "amenity": "clinic", "branch": "Chambers", "brand": "CityMD", "healthcare": "clinic", "name": "CityMD", "opening_hours": "24/7 off \"Temporarily closed for construction\"", "operator": "CityMD", "operator:type": "private", "operator:wikidata": "Q22295471", "operator:wikipedia": "en:CityMD", "phone": "+1 212-335-0594", "website": "https://www.citymd.com/urgent-care-locations/ny/new-york/chambers/037"}}, {"type": "node", "id": 5950163185, "lat": 40.715602, "lon": -74.0076362, "tags": {"amenity": "restaurant", "check_date:opening_hours": "2023-11-06", "cuisine": "mediterranean", "diet:kosher": "yes", "diet:vegetarian": "yes", "indoor_seating": "yes", "name": "Nish Nush", "opening_hours": "Mo-Su 11:00-20:00", "opening_hours:signed": "no", "outdoor_seating": "yes", "phone": "+1-848-294-1690", "website": "https://nishnushnyc.com/", "wheelchair": "yes"}}, {"type": "node", "id": 5978556762, "lat": 40.7141063, "lon": -74.0090225, "tags": {"addr:housenumber": "41", "addr:street": "Murray Street", "amenity": "pub", "cuisine": "mexican", "name": "Boss Tweeds", "website": "https://bosstweeds.nyc/"}}, {"type": "node", "id": 5978792516, "lat": 40.7147978, "lon": -74.009995, "tags": {"addr:housenumber": "66", "addr:street": "West Broadway", "amenity": "restaurant", "check_date": "2023-07-31", "level": "0", "name": "Della's", "wheelchair": "no"}}, {"type": "node", "id": 6061610718, "lat": 40.7152236, "lon": -74.0088979, "tags": {"amenity": "pub", "cuisine": "pub", "name": "Mudville 9", "phone": "+1-212-964-9464", "website": "https://www.mudville9.com/", "wheelchair": "yes"}}, {"type": "node", "id": 6174369085, "lat": 40.7168221, "lon": -74.0080094, "tags": {"addr:full": "135 West Broadway, New York, NY 10013", "amenity": "restaurant", "name": "Tiny\u2019s and The Bar Upstairs"}}, {"type": "node", "id": 6371402585, "lat": 40.7153692, "lon": -74.0069849, "tags": {"amenity": "bar", "name": "1803NYC"}}, {"type": "node", "id": 6514469189, "lat": 40.7175076, "lon": -74.011444}, {"type": "node", "id": 6514469190, "lat": 40.7175119, "lon": -74.0114995}, {"type": "node", "id": 6514469191, "lat": 40.7174778, "lon": -74.0115657}, {"type": "node", "id": 6514469192, "lat": 40.7174468, "lon": -74.0115384}, {"type": "node", "id": 6514469193, "lat": 40.7174789, "lon": -74.0114829}, {"type": "node", "id": 6514469194, "lat": 40.7174935, "lon": -74.0114336}, {"type": "node", "id": 6534305184, "lat": 40.714205, "lon": -74.006486, "tags": {"access": "yes", "addr:housenumber": "80", "addr:postcode": "10007", "addr:street": "Chambers Street", "amenity": "post_box", "colour": "blue", "covered": "no", "drive_through": "no", "indoor": "no", "level": "0", "operator": "United States Postal Service", "operator:short": "USPS", "operator:type": "public", "operator:website": "https://www.usps.com", "operator:wikidata": "Q668687", "operator:wikipedia": "en:United States Postal Service", "post_box:type": "pillar", "short_name": "USPS", "support": "ground"}}, {"type": "node", "id": 6534314085, "lat": 40.7144154, "lon": -74.0064321, "tags": {"amenity": "post_box", "colour": "gray", "drive_through": "no", "indoor": "yes", "level": "0", "post_box:type": "wall", "support": "wall_mounted"}}, {"type": "node", "id": 6769036965, "lat": 40.7182859, "lon": -74.01025, "tags": {"addr:city": "New York", "addr:housenumber": "339", "addr:street": "Greenwich Street", "amenity": "restaurant", "indoor_seating": "yes", "name": "Sarabeth's", "outdoor_seating": "yes", "phone": "+1 212 966 0421", "website": "https://sarabethsrestaurants.com/locations/tribeca/"}}, {"type": "node", "id": 6918687642, "lat": 40.714816, "lon": -74.0091158, "tags": {"amenity": "dentist", "healthcare": "dentist", "name": "Tribeca Dental Studio"}}, {"type": "node", "id": 7700135685, "lat": 40.7151708, "lon": -74.0104716, "tags": {"addr:housenumber": "81", "addr:street": "Warren Street", "amenity": "restaurant", "cuisine": "tacos", "name": "Taq", "phone": "+1 212-301-7824"}}, {"type": "node", "id": 7700142886, "lat": 40.7184168, "lon": -74.0102722, "tags": {"amenity": "restaurant", "name": "Vcafe"}}, {"type": "node", "id": 7700147085, "lat": 40.7192662, "lon": -74.010579, "tags": {"addr:city": "New York", "addr:housenumber": "352", "addr:street": "Greenwich Street", "amenity": "pharmacy", "brand": "Duane Reade", "brand:wikidata": "Q5310380", "healthcare": "pharmacy", "name": "Duane Reade"}}, {"type": "node", "id": 7700168785, "lat": 40.7186643, "lon": -74.0102017, "tags": {"addr:housenumber": "323", "addr:street": "Greenwich Street", "amenity": "restaurant", "cuisine": "italian", "indoor_seating": "yes", "name": "Zona Tribeca", "outdoor_seating": "yes"}}, {"type": "node", "id": 8304373491, "lat": 40.7177584, "lon": -74.0119297, "tags": {"entrance": "main"}}, {"type": "node", "id": 8304497483, "lat": 40.7168526, "lon": -74.0115177}, {"type": "node", "id": 8304497484, "lat": 40.7168489, "lon": -74.0115274}, {"type": "node", "id": 8304497485, "lat": 40.7168429, "lon": -74.0115349}, {"type": "node", "id": 8304497486, "lat": 40.7168056, "lon": -74.0115116}, {"type": "node", "id": 8304497487, "lat": 40.7168061, "lon": -74.0115015}, {"type": "node", "id": 8304497488, "lat": 40.716809, "lon": -74.0114921}, {"type": "node", "id": 8304497489, "lat": 40.716814, "lon": -74.0114843}, {"type": "node", "id": 8304497490, "lat": 40.7168354, "lon": -74.0115393}, {"type": "node", "id": 8304497491, "lat": 40.7168272, "lon": -74.0115401}, {"type": "node", "id": 8304497492, "lat": 40.7168193, "lon": -74.0115372}, {"type": "node", "id": 8304497493, "lat": 40.7168125, "lon": -74.011531}, {"type": "node", "id": 8304497494, "lat": 40.7168078, "lon": -74.0115221}, {"type": "node", "id": 8304497495, "lat": 40.7168205, "lon": -74.0114791}, {"type": "node", "id": 8304497496, "lat": 40.716828, "lon": -74.0114768}, {"type": "node", "id": 8304497497, "lat": 40.7168357, "lon": -74.0114778}, {"type": "node", "id": 8304497498, "lat": 40.7168427, "lon": -74.011482}, {"type": "node", "id": 8304497499, "lat": 40.7168484, "lon": -74.0114888}, {"type": "node", "id": 8304497500, "lat": 40.7168522, "lon": -74.0114977}, {"type": "node", "id": 8304497501, "lat": 40.7168536, "lon": -74.0115077}, {"type": "node", "id": 8304497618, "lat": 40.7154665, "lon": -74.0124206}, {"type": "node", "id": 8304497619, "lat": 40.7154483, "lon": -74.0124504}, {"type": "node", "id": 8304497620, "lat": 40.7154146, "lon": -74.0124801}, {"type": "node", "id": 8304497621, "lat": 40.7153948, "lon": -74.0124869}, {"type": "node", "id": 8304497622, "lat": 40.7153593, "lon": -74.0124871}, {"type": "node", "id": 8304497623, "lat": 40.7153474, "lon": -74.0124818}, {"type": "node", "id": 8333736444, "lat": 40.7165611, "lon": -74.0076634, "tags": {"amenity": "restaurant", "name": "Savida"}}, {"type": "node", "id": 8333736446, "lat": 40.7156689, "lon": -74.0075739, "tags": {"amenity": "restaurant", "check_date:opening_hours": "2023-11-06", "cuisine": "indian", "indoor_seating": "yes", "name": "Dilli Bistro", "opening_hours:signed": "no", "outdoor_seating": "no"}}, {"type": "node", "id": 8333736447, "lat": 40.7157083, "lon": -74.0075514, "tags": {"addr:housenumber": "178", "addr:street": "Church Street", "amenity": "restaurant", "check_date:opening_hours": "2023-11-06", "cuisine": "turkish", "indoor_seating": "yes", "name": "Soup & Gyro", "opening_hours:signed": "no", "outdoor_seating": "yes"}}, {"type": "node", "id": 8333736448, "lat": 40.7157901, "lon": -74.0070493, "tags": {"amenity": "restaurant", "name": "Burrito Mariachi"}}, {"type": "node", "id": 8333736449, "lat": 40.7158255, "lon": -74.0069978, "tags": {"amenity": "fast_food", "cuisine": "juice", "name": "Hawa Smoothie"}}, {"type": "node", "id": 8333736450, "lat": 40.7157534, "lon": -74.0070887, "tags": {"amenity": "restaurant", "check_date:opening_hours": "2023-11-06", "indoor_seating": "yes", "name": "Akimoto Sushi", "opening_hours:signed": "no", "outdoor_seating": "no"}}, {"type": "node", "id": 8333736452, "lat": 40.7156736, "lon": -74.0071471, "tags": {"amenity": "restaurant", "indoor_seating": "yes", "name": "Fresh Curry", "outdoor_seating": "no"}}, {"type": "node", "id": 8333736453, "lat": 40.7156466, "lon": -74.0071734, "tags": {"addr:city": "New York", "addr:housenumber": "181", "addr:postcode": "10013", "addr:state": "NY", "addr:street": "Church Street", "amenity": "fast_food", "brand": "Domino's", "brand:wikidata": "Q839466", "cuisine": "pizza", "indoor_seating": "yes", "name": "Domino's", "opening_hours": "Su-Th 10:30-24:00, Fr,Sa 10:30-01:00", "outdoor_seating": "no", "phone": "+1 212-566-8888", "ref": "3682", "takeaway": "yes", "website": "https://pizza.dominos.com/new-york/new-york/181-church-street"}}, {"type": "node", "id": 8333736454, "lat": 40.7154979, "lon": -74.0072818, "tags": {"amenity": "restaurant", "name": "1803 NYC"}}, {"type": "node", "id": 8333736457, "lat": 40.7150577, "lon": -74.0076117, "tags": {"addr:city": "New York", "addr:housenumber": "165", "addr:postcode": "10007", "addr:state": "NY", "addr:street": "Church Street", "amenity": "fast_food", "brand": "Subway", "brand:wikidata": "Q244457", "cuisine": "sandwich", "indoor_seating": "yes", "name": "Subway", "opening_hours": "Mo-Fr 08:30-22:30; Sa-Su 10:00-22:00", "outdoor_seating": "no", "phone": "+1 212-406-7582", "takeaway": "yes", "website": "https://restaurants.subway.com/united-states/ny/new-york/165-church-st"}}, {"type": "node", "id": 8333736458, "lat": 40.7148666, "lon": -74.0066475, "tags": {"amenity": "restaurant", "name": "Maxwell's"}}, {"type": "node", "id": 8333736459, "lat": 40.7143289, "lon": -74.0077874, "tags": {"amenity": "restaurant", "name": "Gran Morsi"}}, {"type": "node", "id": 8404113361, "lat": 40.7151565, "lon": -74.0121451, "tags": {"amenity": "parking_entrance", "parking": "underground"}}, {"type": "node", "id": 8644302518, "lat": 40.7143494, "lon": -74.0086532, "tags": {"amenity": "restaurant", "indoor_seating": "yes", "name": "Los Tacos No. 1", "outdoor_seating": "no"}}, {"type": "node", "id": 8644307617, "lat": 40.7140947, "lon": -74.0087963, "tags": {"addr:city": "New York", "addr:housenumber": "130", "addr:postcode": "10007", "addr:state": "NY", "addr:street": "Church Street", "amenity": "post_office", "brand": "DHL", "brand:wikidata": "Q489815", "name": "DHL", "operator": "DHL", "operator:type": "private", "operator:wikidata": "Q489815", "operator:wikipedia": "en:DHL"}}, {"type": "node", "id": 8644307717, "lat": 40.7151424, "lon": -74.0079858, "tags": {"addr:housenumber": "154", "addr:postcode": "10013", "addr:street": "Church Street", "amenity": "restaurant", "check_date": "2023-02-23", "indoor_seating": "yes", "level": "0", "name": "Little Italy Pizza", "outdoor_seating": "no"}}, {"type": "node", "id": 8648127018, "lat": 40.7191453, "lon": -74.0089504, "tags": {"amenity": "restaurant", "indoor_seating": "yes", "name": "Tamarind", "outdoor_seating": "yes"}}, {"type": "node", "id": 8648127019, "lat": 40.7162708, "lon": -74.009711, "tags": {"amenity": "bar", "check_date:opening_hours": "2023-11-06", "indoor_seating": "yes", "name": "Bar 135", "opening_hours:signed": "no", "outdoor_seating": "yes"}}, {"type": "node", "id": 8648127118, "lat": 40.7185511, "lon": -74.0090368, "tags": {"amenity": "bar", "name": "Puffy\u2019s Tavern"}}, {"type": "node", "id": 8648127119, "lat": 40.7162462, "lon": -74.0090041, "tags": {"amenity": "bank", "brand": "Citizens Bank", "brand:wikidata": "Q5122694", "name": "Citizens Bank", "short_name": "Citizens"}}, {"type": "node", "id": 8648142317, "lat": 40.7157042, "lon": -74.0109385, "tags": {"addr:housenumber": "295", "addr:street": "Greenwich Street", "amenity": "restaurant", "name": "Gee Whiz Diner"}}, {"type": "node", "id": 8648142617, "lat": 40.7159769, "lon": -74.0108361, "tags": {"addr:housenumber": "295", "addr:street": "Greenwich Street", "amenity": "bank", "brand": "TD Bank", "brand:wikidata": "Q7669891", "name": "TD Bank", "short_name": "TD", "website": "https://locations.td.com/us/166-chambers-street-chambers-greenwich"}}, {"type": "node", "id": 8648230017, "lat": 40.7141066, "lon": -74.0092265, "tags": {"amenity": "restaurant", "cuisine": "indian", "name": "Benares", "website": "https://www.benaresnyc.com/"}}, {"type": "node", "id": 8765413917, "lat": 40.7146549, "lon": -74.0077106, "tags": {"amenity": "restaurant", "cuisine": "indian", "indoor_seating": "yes", "name": "Saffron", "outdoor_seating": "no"}}, {"type": "node", "id": 8769344317, "lat": 40.7154591, "lon": -74.0088142, "tags": {"amenity": "fast_food", "brand": "Sweetgreen", "brand:wikidata": "Q18636413", "cuisine": "salad", "indoor_seating": "yes", "name": "Sweetgreen", "outdoor_seating": "yes", "takeaway": "yes"}}, {"type": "node", "id": 8769344318, "lat": 40.7169431, "lon": -74.0083198, "tags": {"amenity": "restaurant", "check_date": "2023-11-06", "happy_hours": "Mo-Fr 15:00-18:00", "indoor_seating": "yes", "name": "Edward\u2019s", "opening_hours": "Mo-Fr 11:00-22:00; Sa,Su 10:30-22:00", "outdoor_seating": "yes"}}, {"type": "node", "id": 8769344517, "lat": 40.7170037, "lon": -74.0082591, "tags": {"amenity": "pharmacy", "healthcare": "pharmacy", "name": "Tribeca Apothecary", "opening_hours": "Mo-Fr 09:00-18:00; Sa,Su 12:00-18:00", "wheelchair": "yes"}}, {"type": "node", "id": 8769373117, "lat": 40.715417, "lon": -74.0077674, "tags": {"addr:housenumber": "168", "addr:postcode": "10013", "addr:street": "Church Street", "amenity": "atm", "brand": "Bank of America", "brand:wikidata": "Q487907", "name": "Bank of America", "operator": "Bank of America", "operator:wikidata": "Q487907", "operator:wikipedia": "en:Bank of America", "website": "https://locators.bankofamerica.com/ny/newyork/atm-new-york-107796.html"}}, {"type": "node", "id": 8857482017, "lat": 40.7150927, "lon": -74.0085798, "tags": {"amenity": "restaurant", "cuisine": "chinese", "indoor_seating": "no", "name": "Chinared", "outdoor_seating": "no", "takeaway": "only"}}, {"type": "node", "id": 8883795717, "lat": 40.7167711, "lon": -74.0074582, "tags": {"addr:housenumber": "66", "addr:street": "Thomas Street", "amenity": "bar", "name": "buddha-bar"}}, {"type": "node", "id": 8883795718, "lat": 40.7160631, "lon": -74.0085698, "tags": {"addr:street": "West Broadway", "amenity": "cafe", "name": "Bluestone Lane"}}, {"type": "node", "id": 9342166619, "lat": 40.7190107, "lon": -74.0067196, "tags": {"access": "yes", "amenity": "bicycle_parking", "bicycle_parking": "stands", "capacity": "5", "colour": "#393636", "covered": "no", "fee": "no", "indoor": "no", "lit": "no"}}, {"type": "node", "id": 9342166620, "lat": 40.7190448, "lon": -74.0068004, "tags": {"amenity": "waste_basket", "colour": "#1a3c37", "covered": "no", "material": "metal", "waste": "mixed"}}, {"type": "node", "id": 9342166623, "lat": 40.7191862, "lon": -74.0067918, "tags": {"amenity": "waste_basket", "colour": "#1a3c37", "covered": "no", "material": "metal", "waste": "mixed"}}, {"type": "node", "id": 9342166625, "lat": 40.7190668, "lon": -74.00665, "tags": {"access": "yes", "amenity": "bicycle_parking", "bicycle_parking": "stands", "capacity": "2", "colour": "#424c59", "covered": "no", "fee": "no", "indoor": "no", "lit": "no"}}, {"type": "node", "id": 9342166626, "lat": 40.7188819, "lon": -74.0067791, "tags": {"access": "yes", "amenity": "bench", "backrest": "yes", "colour": "#5f4c38", "material": "wood", "seats": "4"}}, {"type": "node", "id": 9342166627, "lat": 40.7189378, "lon": -74.0068374, "tags": {"amenity": "waste_basket", "colour": "#1a3c37", "covered": "no", "material": "metal", "waste": "mixed"}}, {"type": "node", "id": 9342166628, "lat": 40.7190141, "lon": -74.0070625, "tags": {"amenity": "waste_basket", "colour": "#1a3c37", "covered": "no", "material": "metal", "waste": "mixed"}}, {"type": "node", "id": 9342166631, "lat": 40.71885, "lon": -74.006715, "tags": {"amenity": "waste_basket", "colour": "#1a3c37", "covered": "no", "material": "metal", "waste": "mixed"}}, {"type": "node", "id": 9597529721, "lat": 40.7146456, "lon": -74.0073615, "tags": {"amenity": "recycling", "recycling_type": "container"}}, {"type": "node", "id": 9685847901, "lat": 40.7167422, "lon": -74.011736, "tags": {"access": "yes", "amenity": "bicycle_parking", "bicycle_parking": "stands", "capacity": "2"}}, {"type": "node", "id": 9685920020, "lat": 40.7170854, "lon": -74.0122915, "tags": {"access": "yes", "amenity": "bicycle_parking", "bicycle_parking": "stands", "capacity": "7", "survey:date": "2022-04-22"}}, {"type": "node", "id": 9685920118, "lat": 40.7167793, "lon": -74.0118164, "tags": {"access": "yes", "amenity": "bicycle_parking", "bicycle_parking": "stands", "capacity": "10", "survey:date": "2022-04-22"}}, {"type": "node", "id": 9685920119, "lat": 40.7168354, "lon": -74.0119423, "tags": {"access": "yes", "amenity": "bicycle_parking", "bicycle_parking": "stands", "capacity": "10", "survey:date": "2022-04-22"}}, {"type": "node", "id": 9685920317, "lat": 40.7169379, "lon": -74.0121655, "tags": {"amenity": "bench", "backrest": "yes", "colour": "Grey", "material": "metal", "seats": "3", "survey:date": "2022-04-22"}}, {"type": "node", "id": 9685920318, "lat": 40.7175033, "lon": -74.0133896, "tags": {"access": "yes", "amenity": "bicycle_parking", "bicycle_parking": "stands", "capacity": "5", "covered": "no", "survey:date": "2022-04-22"}}, {"type": "node", "id": 9686047746, "lat": 40.7167249, "lon": -74.0135309, "tags": {"access": "yes", "amenity": "bicycle_parking", "bicycle_parking": "stands", "capacity": "5"}}, {"type": "node", "id": 9793800631, "lat": 40.7151232, "lon": -74.0103245, "tags": {"addr:city": "New York", "addr:housenumber": "77", "addr:postcode": "10007", "addr:state": "NY", "addr:street": "Warren Street", "amenity": "restaurant", "name": "WarrenPeace", "phone": "+18455925334", "website": "https://warrenpeaceny.com/"}}, {"type": "node", "id": 10290239862, "lat": 40.7174057, "lon": -74.0114877, "tags": {"amenity": "drinking_water", "bottle": "no", "fountain": "bubbler"}}, {"type": "node", "id": 10290239863, "lat": 40.7172293, "lon": -74.0111952, "tags": {"amenity": "public_bookcase", "public_bookcase:type": "wooden_cabinet"}}, {"type": "node", "id": 10290705664, "lat": 40.7162674, "lon": -74.0096179, "tags": {"access": "yes", "amenity": "parking_entrance", "level": "0", "parking": "underground"}}, {"type": "node", "id": 10291808134, "lat": 40.7147834, "lon": -74.0111431, "tags": {"amenity": "bicycle_rental", "bicycle_rental": "docking_station", "brand": "Citi Bike", "brand:wikidata": "Q2974438", "capacity": "30", "check_date": "2022-12-28", "fee": "yes", "name": "Citi Bike - Murray Street & Greenwich Street", "network": "Citi Bike", "network:wikidata": "Q2974438", "network:wikipedia": "en:Citi Bike", "operator": "Lyft", "operator:type": "private", "operator:wikidata": "Q17077936", "operator:wikipedia": "en:Lyft", "payment:credit_cards": "yes", "payment:debit_cards": "yes", "website": "https://citibikenyc.com/"}}, {"type": "node", "id": 10689649469, "lat": 40.7148558, "lon": -74.008068, "tags": {"amenity": "bicycle_parking", "bicycle_parking": "stands", "capacity": "18"}}, {"type": "node", "id": 10689719841, "lat": 40.7153619, "lon": -74.0076789, "tags": {"amenity": "bicycle_parking", "bicycle_parking": "stands", "capacity": "18"}}, {"type": "node", "id": 10689818357, "lat": 40.7177491, "lon": -74.011813}, {"type": "node", "id": 10689818363, "lat": 40.7176784, "lon": -74.0117122}, {"type": "node", "id": 10885572120, "lat": 40.7141588, "lon": -74.0065583, "tags": {"addr:city": "New York", "addr:housenumber": "86", "addr:postcode": "10007", "addr:state": "NY", "addr:street": "Chambers Street", "air_conditioning": "yes", "amenity": "bank", "atm": "yes", "branch": "Manhattan Branch", "brand": "Municipal Credit Union", "brand:wikidata": "Q6936232", "brand:wikipedia": "en:Municipal Credit Union", "drive_through": "no", "level": "0", "name": "Municipal Credit Union", "opening_hours": "Mo-Fr 08:30-16:30", "phone": "+1-212-693-4900", "website": "https://www.nymcu.org/", "wheelchair": "yes"}}, {"type": "node", "id": 10885572124, "lat": 40.7143922, "lon": -74.0069888, "tags": {"amenity": "loading_dock"}}, {"type": "node", "id": 11079100486, "lat": 40.7175985, "lon": -74.0118565, "tags": {"amenity": "bench", "backrest": "no", "material": "concrete"}}, {"type": "node", "id": 11079100487, "lat": 40.7175782, "lon": -74.01188, "tags": {"amenity": "bench", "backrest": "no", "material": "concrete"}}, {"type": "node", "id": 11079100488, "lat": 40.7175587, "lon": -74.0118713, "tags": {"amenity": "bench", "backrest": "no", "material": "concrete"}}, {"type": "node", "id": 11079100489, "lat": 40.7175353, "lon": -74.0118939, "tags": {"amenity": "bench", "backrest": "no", "material": "concrete"}}, {"type": "node", "id": 11079100490, "lat": 40.717517, "lon": -74.0118793, "tags": {"amenity": "bench", "backrest": "no", "material": "concrete"}}, {"type": "node", "id": 11079100491, "lat": 40.7174928, "lon": -74.0119068, "tags": {"amenity": "bench", "backrest": "no", "material": "concrete"}}, {"type": "node", "id": 11079100492, "lat": 40.7174744, "lon": -74.0118784, "tags": {"amenity": "bench", "backrest": "no", "material": "concrete"}}, {"type": "node", "id": 11079100493, "lat": 40.7174495, "lon": -74.0119002, "tags": {"amenity": "bench", "backrest": "no", "material": "concrete"}}, {"type": "node", "id": 11079100494, "lat": 40.7174403, "lon": -74.0118749, "tags": {"amenity": "bench", "backrest": "no", "material": "concrete"}}, {"type": "node", "id": 11079100495, "lat": 40.7174173, "lon": -74.0118885, "tags": {"amenity": "bench", "backrest": "no", "material": "concrete"}}, {"type": "node", "id": 11079100496, "lat": 40.7176125, "lon": -74.0119076, "tags": {"amenity": "bench", "backrest": "no"}}, {"type": "node", "id": 11079100497, "lat": 40.7176461, "lon": -74.0119392, "tags": {"amenity": "bench", "backrest": "no"}}, {"type": "node", "id": 11079100498, "lat": 40.7176849, "lon": -74.0119781, "tags": {"amenity": "bench", "backrest": "no"}}, {"type": "node", "id": 11079180152, "lat": 40.7168707, "lon": -74.0111404, "tags": {"access": "yes", "amenity": "drinking_water", "bottle": "no", "fee": "no", "lit": "yes"}}, {"type": "node", "id": 11079180153, "lat": 40.7170748, "lon": -74.0093657, "tags": {"amenity": "bicycle_rental", "bicycle_rental": "docking_station", "brand": "Citi Bike", "brand:wikidata": "Q2974438", "capacity": "41", "check_date": "2023-11-05", "fee": "yes", "name": "Citi Bike - Duane Street & Hudson Street", "network": "Citi Bike", "network:wikidata": "Q2974438", "operator": "Lyft", "operator:type": "private", "operator:wikidata": "Q17077936"}}, {"type": "node", "id": 11079239441, "lat": 40.7153064, "lon": -74.009587, "tags": {"addr:housenumber": "86", "addr:street": "West Broadway", "amenity": "money_transfer", "brand": "Western Union", "brand:wikidata": "Q861042", "check_date": "2023-07-31", "name": "Western Union"}}, {"type": "node", "id": 11079239444, "lat": 40.7152376, "lon": -74.0091966, "tags": {"amenity": "restaurant", "check_date": "2023-07-31", "indoor_seating": "yes", "level": "0", "name": "The Smyth", "outdoor_seating": "yes"}}, {"type": "node", "id": 11079239445, "lat": 40.7151386, "lon": -74.0092889, "tags": {"amenity": "bar", "check_date": "2023-07-31", "name": "Galerie Bar"}}, {"type": "node", "id": 11079239448, "lat": 40.7157333, "lon": -74.0094096, "tags": {"addr:housenumber": "139", "addr:postcode": "10007", "addr:street": "Chambers Street", "amenity": "clinic", "healthcare": "clinic", "level": "0", "name": "MEDRITE Urgent Care", "opening_hours": "Mo-Fr 08:00-20:00; Sa, Su 09:00-18:00", "phone": "+1 212-785-0001", "website": "https://medriteurgentcare.com/center/medrite-tribeca-urgent-care/"}}, {"type": "node", "id": 11079239449, "lat": 40.7157871, "lon": -74.0095636, "tags": {"addr:housenumber": "143", "addr:street": "Chambers Street", "amenity": "fast_food", "check_date": "2023-07-31", "cuisine": "bagel", "level": "0", "name": "Zucker's Bagels and Smoked Fish", "wheelchair": "yes"}}, {"type": "node", "id": 11079239450, "lat": 40.7156736, "lon": -74.0098705, "tags": {"amenity": "dentist", "check_date": "2023-07-31", "healthcare": "dentist", "name": "Tribeca Dental Design"}}, {"type": "node", "id": 11155025499, "lat": 40.7160032, "lon": -74.0100419, "tags": {"amenity": "ice_cream", "cuisine": "frozen_yogurt", "diet:vegan": "yes", "indoor_seating": "yes", "name": "16 Handles", "opening_hours": "Su-We 12:00-23:00; Th-Sa 12:00-24:00", "outdoor_seating": "yes", "wheelchair": "yes"}}, {"type": "node", "id": 11175661173, "lat": 40.7152715, "lon": -74.0083889, "tags": {"amenity": "clinic", "healthcare": "clinic", "name": "DC37 Health Center"}}, {"type": "node", "id": 11175680754, "lat": 40.7142671, "lon": -74.008695, "tags": {"amenity": "cafe", "diet:vegan": "no", "diet:vegetarian": "yes", "indoor_seating": "yes", "name": "Birch Coffee", "opening_hours": "Mo-Fr 07:00-16:00; Sa,Su 07:30-16:00", "outdoor_seating": "no", "wheelchair": "yes"}}, {"type": "node", "id": 11241887323, "lat": 40.714543, "lon": -74.0073743, "tags": {"amenity": "restaurant", "name": "Artesano Peruvian Cuisine"}}, {"type": "node", "id": 11241889728, "lat": 40.7148019, "lon": -74.0073766, "tags": {"amenity": "clinic", "healthcare": "clinic", "healthcare:speciality": "fertility", "name": "Ferny"}}, {"type": "node", "id": 11241897898, "lat": 40.7145461, "lon": -74.0068199, "tags": {"addr:city": "New York", "addr:housenumber": "79", "addr:postcode": "10007", "addr:state": "NY", "addr:street": "Chambers Street", "air_conditioning": "yes", "amenity": "fast_food", "branch": "Tribeca", "cuisine": "greek", "diet:gluten_free": "yes", "diet:halal": "no", "diet:kosher": "no", "diet:lactose_free": "yes", "diet:pescetarian": "no", "diet:vegan": "yes", "diet:vegetarian": "yes", "drive_through": "no", "level": "0", "name": "The Hummus & Pita Co.", "outdoor_seating": "no", "phone": "+1-212-571-6700", "smoking": "no", "website": "https://www.hummusandpitas.com/", "website:menu": "https://www.hummusandpitas.com/new-york-menu"}}, {"type": "node", "id": 11258747427, "lat": 40.7153921, "lon": -74.0086592, "tags": {"amenity": "dentist", "healthcare": "dentist", "name": "Tribeca Dental Club"}}, {"type": "node", "id": 11258767163, "lat": 40.7163547, "lon": -74.0098581, "tags": {"amenity": "cafe", "check_date": "2023-11-06", "check_date:opening_hours": "2023-11-06", "indoor_seating": "yes", "name": "Jack's Stir Brew Coffee", "not:brand:wikidata": "Q6110826", "opening_hours:signed": "no", "outdoor_seating": "no", "walkup_window": "yes"}}, {"type": "node", "id": 11258767164, "lat": 40.7164829, "lon": -74.0107245, "tags": {"amenity": "ice_cream", "cuisine": "frozen_yogurt", "indoor_seating": "yes", "name": "Downtown Yogurt", "outdoor_seating": "yes"}}, {"type": "node", "id": 11258774458, "lat": 40.7164801, "lon": -74.0095734, "tags": {"amenity": "restaurant", "indoor_seating": "yes", "name": "Restaurant Marc Forgione", "outdoor_seating": "yes"}}, {"type": "node", "id": 11258776467, "lat": 40.7166853, "lon": -74.01001, "tags": {"amenity": "veterinary", "name": "Reade Street Animal Hospital", "opening_hours": "Mo-Fr 08:00-17:00; Sa 09:00-14:00"}}, {"type": "node", "id": 11258782619, "lat": 40.7164051, "lon": -74.0099519, "tags": {"amenity": "clinic", "healthcare": "clinic", "name": "Pediatric Opthalmic Consultants"}}, {"type": "node", "id": 11258782637, "lat": 40.7151337, "lon": -74.0081532, "tags": {"addr:housenumber": "107", "addr:postcode": "10013", "addr:street": "Chambers Street", "amenity": "cafe", "cuisine": "bubble_tea", "name": "Chun Yang"}}, {"type": "node", "id": 11258786347, "lat": 40.7166984, "lon": -74.0106634, "tags": {"after_school": "yes", "alt_name": "KinderCare Learning Center", "amenity": "kindergarten", "brand": "KinderCare", "brand:wikidata": "Q6410551", "fee": "yes", "isced:level": "0", "name": "KinderCare", "nursery": "yes", "preschool": "yes"}}, {"type": "node", "id": 11308541308, "lat": 40.715678, "lon": -74.0092439, "tags": {"amenity": "clock", "check_date": "2023-11-02", "date": "no", "display": "analog", "faces": "2", "lit": "yes", "name": "Seth Thomas Tower Clock", "start_date": "2020-12-01", "support": "pole", "visibility": "house", "website": "https://www.bogardusplaza.org/clock"}}, {"type": "node", "id": 11308557859, "lat": 40.7158478, "lon": -74.0093272, "tags": {"amenity": "waste_basket"}}, {"type": "node", "id": 11308557860, "lat": 40.7158756, "lon": -74.0092874, "tags": {"amenity": "bench", "backrest": "no", "material": "plastic", "seats": "6"}}, {"type": "node", "id": 11308590188, "lat": 40.7159577, "lon": -74.0092791, "tags": {"amenity": "bench", "backrest": "no", "material": "plastic", "seats": "5"}}, {"type": "node", "id": 11308590202, "lat": 40.7160555, "lon": -74.0092675, "tags": {"amenity": "bench", "backrest": "yes", "material": "plastic", "seats": "6"}}, {"type": "node", "id": 11308590223, "lat": 40.7158699, "lon": -74.009193, "tags": {"amenity": "waste_basket"}}, {"type": "node", "id": 11308590224, "lat": 40.7158567, "lon": -74.0091961, "tags": {"amenity": "recycling", "recycling_type": "container"}}, {"type": "node", "id": 11308590227, "lat": 40.7156149, "lon": -74.0092872, "tags": {"amenity": "waste_basket"}}, {"type": "node", "id": 11308590228, "lat": 40.7157376, "lon": -74.0093053, "tags": {"amenity": "waste_basket"}}, {"type": "node", "id": 11308590229, "lat": 40.7157576, "lon": -74.0093046, "tags": {"amenity": "recycling", "recycling_type": "container"}}, {"type": "node", "id": 11308590241, "lat": 40.7158379, "lon": -74.0091103, "tags": {"amenity": "bench", "backrest": "no", "material": "metal", "seats": "3"}}, {"type": "node", "id": 11308590255, "lat": 40.7160257, "lon": -74.0091533, "tags": {"amenity": "bench", "backrest": "yes", "material": "stone", "seats": "6"}}, {"type": "node", "id": 11308590260, "lat": 40.7160602, "lon": -74.0090291, "tags": {"amenity": "recycling", "recycling_type": "container"}}, {"type": "node", "id": 11308590261, "lat": 40.7160671, "lon": -74.0090445, "tags": {"amenity": "waste_basket"}}, {"type": "node", "id": 11308590266, "lat": 40.7162297, "lon": -74.0094112, "tags": {"access": "yes", "amenity": "bicycle_parking", "bicycle_parking": "stands", "capacity": "2", "covered": "no"}}, {"type": "node", "id": 11308790006, "lat": 40.7189475, "lon": -74.0066536, "tags": {"amenity": "waste_basket"}}, {"type": "node", "id": 11308790101, "lat": 40.7188788, "lon": -74.0070931, "tags": {"access": "yes", "amenity": "bicycle_parking", "bicycle_parking": "stands", "capacity": "8", "covered": "no"}}, {"type": "node", "id": 11322939770, "lat": 40.7172639, "lon": -74.009559, "tags": {"amenity": "waste_basket"}}, {"type": "node", "id": 11322939771, "lat": 40.7172306, "lon": -74.0094327, "tags": {"amenity": "waste_basket"}}, {"type": "node", "id": 11322939801, "lat": 40.717175, "lon": -74.0092763, "tags": {"amenity": "waste_basket"}}, {"type": "node", "id": 11322939802, "lat": 40.7172254, "lon": -74.0094091, "tags": {"amenity": "bench", "backrest": "yes", "material": "wood", "seats": "2"}}, {"type": "node", "id": 11322939803, "lat": 40.7172149, "lon": -74.0093894, "tags": {"amenity": "bench", "backrest": "yes", "material": "wood", "seats": "2"}}, {"type": "node", "id": 11322939804, "lat": 40.7172094, "lon": -74.0093637, "tags": {"amenity": "bench", "backrest": "yes", "material": "wood", "seats": "2"}}, {"type": "node", "id": 11322939805, "lat": 40.7172041, "lon": -74.0093362, "tags": {"amenity": "bench", "backrest": "yes", "material": "wood", "seats": "2"}}, {"type": "node", "id": 11322939806, "lat": 40.7171981, "lon": -74.0093108, "tags": {"amenity": "bench", "backrest": "yes", "material": "wood", "seats": "2"}}, {"type": "node", "id": 11322939807, "lat": 40.7171892, "lon": -74.0092881, "tags": {"amenity": "bench", "backrest": "yes", "material": "wood", "seats": "2"}}, {"type": "node", "id": 11322939820, "lat": 40.7171267, "lon": -74.0092361, "tags": {"amenity": "waste_basket"}}, {"type": "node", "id": 11322939822, "lat": 40.7172483, "lon": -74.0095583, "tags": {"amenity": "bench", "backrest": "yes", "material": "wood", "seats": "2"}}, {"type": "node", "id": 11322939823, "lat": 40.7172334, "lon": -74.0095448, "tags": {"amenity": "bench", "backrest": "yes", "material": "wood", "seats": "2"}}, {"type": "node", "id": 11322939824, "lat": 40.7172187, "lon": -74.0095288, "tags": {"amenity": "bench", "backrest": "yes", "material": "wood", "seats": "2"}}, {"type": "node", "id": 11322939825, "lat": 40.7172033, "lon": -74.0095091, "tags": {"amenity": "bench", "backrest": "yes", "material": "wood", "seats": "2"}}, {"type": "node", "id": 11322939826, "lat": 40.7171924, "lon": -74.0094864, "tags": {"amenity": "bench", "backrest": "yes", "material": "wood", "seats": "2"}}, {"type": "node", "id": 11322939827, "lat": 40.7171846, "lon": -74.0094594, "tags": {"amenity": "bench", "backrest": "yes", "material": "wood", "seats": "2"}}, {"type": "node", "id": 11322939828, "lat": 40.7171814, "lon": -74.0094346, "tags": {"amenity": "bench", "backrest": "yes", "material": "wood", "seats": "2"}}, {"type": "node", "id": 11322939829, "lat": 40.7171803, "lon": -74.0094088, "tags": {"amenity": "bench", "backrest": "yes", "material": "wood", "seats": "2"}}, {"type": "node", "id": 11322939830, "lat": 40.7171801, "lon": -74.0093888, "tags": {"amenity": "bench", "backrest": "yes", "material": "wood", "seats": "2"}}, {"type": "node", "id": 11322939831, "lat": 40.717188, "lon": -74.0093801, "tags": {"amenity": "waste_basket"}}, {"type": "node", "id": 11322939874, "lat": 40.7170523, "lon": -74.0091944, "tags": {"amenity": "waste_basket"}}, {"type": "node", "id": 11329608813, "lat": 40.7155745, "lon": -74.0064461, "tags": {"amenity": "doctors", "healthcare": "doctor", "name": "New York Sports and Joint Orthopedic Specialists"}}, {"type": "node", "id": 11329721731, "lat": 40.7175462, "lon": -74.0104404, "tags": {"amenity": "cafe", "name": "Cafe Clementine"}}, {"type": "node", "id": 11329730736, "lat": 40.7192654, "lon": -74.0095941, "tags": {"amenity": "restaurant", "name": "Thalassa"}}, {"type": "node", "id": 11329738117, "lat": 40.7186389, "lon": -74.0098015, "tags": {"amenity": "dentist", "healthcare": "dentist", "healthcare:speciality": "orthodontics", "name": "Bronsky Orthodontics NYC"}}, {"type": "node", "id": 11329746686, "lat": 40.7177777, "lon": -74.0108468, "tags": {"amenity": "ice_cream", "brand": "Van Leeuwen Ice Cream", "brand:wikidata": "Q113632545", "diet:vegan": "yes", "indoor_seating": "yes", "name": "Van Leeuwen Ice Cream", "outdoor_seating": "yes", "takeaway": "yes"}}, {"type": "node", "id": 11329752942, "lat": 40.71886, "lon": -74.0099987, "tags": {"amenity": "restaurant", "indoor_seating": "yes", "name": "Terrior", "outdoor_seating": "yes"}}, {"type": "node", "id": 11329762787, "lat": 40.7187884, "lon": -74.0090911, "tags": {"amenity": "restaurant", "indoor_seating": "yes", "name": "Jungsik", "outdoor_seating": "no"}}, {"type": "node", "id": 11329790733, "lat": 40.7167674, "lon": -74.0084565, "tags": {"amenity": "restaurant", "cuisine": "sushi", "name": "Sushi of Gari"}}, {"type": "node", "id": 11329802009, "lat": 40.7168416, "lon": -74.0086416, "tags": {"addr:housenumber": "157", "addr:street": "Duane Street", "amenity": "restaurant", "check_date": "2023-11-06", "happy_hours": "Mo-Fri 16:30-18:00; Sa-Su 11:00-16:30", "indoor_seating": "yes", "name": "Khe-Yo", "outdoor_seating": "yes"}}, {"type": "node", "id": 11329802030, "lat": 40.7172588, "lon": -74.0105427, "tags": {"amenity": "restaurant", "cuisine": "italian", "name": "Gigimo"}}, {"type": "node", "id": 11329825459, "lat": 40.7168913, "lon": -74.0083619, "tags": {"amenity": "restaurant", "check_date:opening_hours": "2023-11-06", "cuisine": "italian", "indoor_seating": "yes", "name": "Max Italian Restaurant", "opening_hours:signed": "no", "outdoor_seating": "yes"}}, {"type": "node", "id": 11440189994, "lat": 40.7164682, "lon": -74.0134237, "tags": {"amenity": "waste_basket"}}, {"type": "node", "id": 11440189995, "lat": 40.7164732, "lon": -74.0134353, "tags": {"amenity": "recycling", "recycling_type": "container"}}, {"type": "node", "id": 11458405431, "lat": 40.7167004, "lon": -74.0134758, "tags": {"access": "yes", "amenity": "bicycle_parking", "bicycle_parking": "stands", "capacity": "5"}}, {"type": "node", "id": 11458405443, "lat": 40.716703, "lon": -74.0133665, "tags": {"amenity": "waste_basket"}}, {"type": "node", "id": 11458405463, "lat": 40.7172164, "lon": -74.0132346, "tags": {"amenity": "waste_basket"}}, {"type": "node", "id": 11458405503, "lat": 40.7165812, "lon": -74.0130492, "tags": {"amenity": "waste_basket"}}, {"type": "node", "id": 11458405532, "lat": 40.7172428, "lon": -74.0131597, "tags": {"amenity": "waste_basket"}}, {"type": "node", "id": 11458405533, "lat": 40.7172338, "lon": -74.0131532, "tags": {"amenity": "recycling", "recycling_type": "container"}}, {"type": "node", "id": 11458405554, "lat": 40.71679, "lon": -74.0134093, "tags": {"amenity": "bench", "backrest": "no"}}, {"type": "node", "id": 11458405555, "lat": 40.7167704, "lon": -74.0135206, "tags": {"amenity": "bench", "backrest": "no"}}, {"type": "node", "id": 11458405556, "lat": 40.7167569, "lon": -74.0134873, "tags": {"amenity": "bench", "backrest": "no"}}, {"type": "node", "id": 11458405557, "lat": 40.7168267, "lon": -74.0134007, "tags": {"amenity": "bench", "backrest": "no"}}, {"type": "node", "id": 11458405558, "lat": 40.7168613, "lon": -74.0133904, "tags": {"amenity": "bench", "backrest": "no"}}, {"type": "node", "id": 11458405559, "lat": 40.7169376, "lon": -74.0133711, "tags": {"amenity": "bench", "backrest": "no"}}, {"type": "node", "id": 11458405560, "lat": 40.7169795, "lon": -74.0133609, "tags": {"amenity": "bench", "backrest": "no"}}, {"type": "node", "id": 11458527733, "lat": 40.7175363, "lon": -74.013278, "tags": {"amenity": "waste_basket"}}, {"type": "node", "id": 11458527851, "lat": 40.7178967, "lon": -74.0132293, "tags": {"amenity": "waste_basket"}}, {"type": "node", "id": 11460524927, "lat": 40.7170913, "lon": -74.0124979, "tags": {"amenity": "waste_basket"}}, {"type": "node", "id": 11460524936, "lat": 40.717292, "lon": -74.0125345}, {"type": "node", "id": 11460898425, "lat": 40.7143411, "lon": -74.0116567, "tags": {"amenity": "recycling", "recycling_type": "container"}}, {"type": "node", "id": 11460898426, "lat": 40.7143317, "lon": -74.0116572, "tags": {"amenity": "waste_basket"}}, {"type": "node", "id": 11460898435, "lat": 40.7148931, "lon": -74.0116099, "tags": {"amenity": "waste_basket"}}, {"type": "node", "id": 11460898436, "lat": 40.7148917, "lon": -74.0115966, "tags": {"amenity": "recycling", "recycling_type": "container"}}, {"type": "node", "id": 11460901500, "lat": 40.7141351, "lon": -74.0114361, "tags": {"access": "yes", "amenity": "bicycle_parking", "bicycle_parking": "stands", "capacity": "2"}}, {"type": "node", "id": 11460901501, "lat": 40.7141039, "lon": -74.0114439, "tags": {"amenity": "bench", "backrest": "yes", "material": "metal", "seats": "3"}}, {"type": "node", "id": 11460901509, "lat": 40.7141649, "lon": -74.0113698, "tags": {"access": "yes", "amenity": "bicycle_parking", "bicycle_parking": "stands", "capacity": "2"}}, {"type": "node", "id": 11460901510, "lat": 40.7141597, "lon": -74.0113529, "tags": {"amenity": "waste_basket"}}, {"type": "node", "id": 11460901511, "lat": 40.7141553, "lon": -74.0113407, "tags": {"amenity": "recycling", "recycling_type": "container"}}, {"type": "node", "id": 11460901518, "lat": 40.7141046, "lon": -74.0112413, "tags": {"access": "yes", "amenity": "bicycle_parking", "bicycle_parking": "stands", "capacity": "2"}}, {"type": "node", "id": 11461036443, "lat": 40.7147518, "lon": -74.0110682, "tags": {"access": "yes", "amenity": "bicycle_parking", "bicycle_parking": "stands", "capacity": "2"}}, {"type": "node", "id": 11461036455, "lat": 40.7146697, "lon": -74.0108812, "tags": {"amenity": "bench", "backrest": "yes", "material": "metal", "seats": "3"}}, {"type": "node", "id": 11461036466, "lat": 40.7145413, "lon": -74.0106029, "tags": {"amenity": "bench", "backrest": "yes", "material": "metal", "seats": "3"}}, {"type": "node", "id": 11461036467, "lat": 40.7144979, "lon": -74.0105084, "tags": {"amenity": "bench", "backrest": "yes", "material": "metal", "seats": "3"}}, {"type": "node", "id": 11461036478, "lat": 40.7144591, "lon": -74.0104229, "tags": {"access": "yes", "amenity": "bicycle_parking", "bicycle_parking": "stands", "capacity": "2"}}, {"type": "node", "id": 11461036479, "lat": 40.714411, "lon": -74.0103109, "tags": {"amenity": "recycling", "recycling_type": "container"}}, {"type": "node", "id": 11461036480, "lat": 40.7144087, "lon": -74.0103019, "tags": {"amenity": "waste_basket"}}, {"type": "node", "id": 11461036495, "lat": 40.7141815, "lon": -74.0104613, "tags": {"access": "yes", "amenity": "parking_entrance", "parking": "underground"}}, {"type": "node", "id": 11461123837, "lat": 40.7144888, "lon": -74.0101902, "tags": {"amenity": "waste_basket"}}, {"type": "node", "id": 11461452741, "lat": 40.7154337, "lon": -74.0124669}, {"type": "node", "id": 11461452742, "lat": 40.7153757, "lon": -74.01249}, {"type": "node", "id": 11461452746, "lat": 40.7154578, "lon": -74.0124362}, {"type": "node", "id": 11461452747, "lat": 40.7154633, "lon": -74.0124393}, {"type": "node", "id": 11461452748, "lat": 40.715458, "lon": -74.0124597}, {"type": "node", "id": 11461452749, "lat": 40.7154472, "lon": -74.0124792}, {"type": "node", "id": 11461452750, "lat": 40.7154344, "lon": -74.0124964}, {"type": "node", "id": 11461452751, "lat": 40.7154214, "lon": -74.0125109}, {"type": "node", "id": 11461452752, "lat": 40.715407, "lon": -74.0125204}, {"type": "node", "id": 11461452753, "lat": 40.7153898, "lon": -74.0125283}, {"type": "node", "id": 11461452754, "lat": 40.7153738, "lon": -74.0125313}, {"type": "node", "id": 11461452755, "lat": 40.7153541, "lon": -74.0125301}, {"type": "node", "id": 11461452756, "lat": 40.7153344, "lon": -74.0125263}, {"type": "node", "id": 11461452757, "lat": 40.7153395, "lon": -74.0125041}, {"type": "node", "id": 11461456578, "lat": 40.7152326, "lon": -74.0125464, "tags": {"amenity": "bench", "backrest": "yes", "material": "wood"}}, {"type": "node", "id": 11461456646, "lat": 40.7153083, "lon": -74.0124344, "tags": {"amenity": "bench", "backrest": "yes", "material": "wood"}}, {"type": "node", "id": 11461456647, "lat": 40.715294, "lon": -74.0124179, "tags": {"amenity": "bench", "backrest": "yes", "material": "wood"}}, {"type": "node", "id": 11461456648, "lat": 40.7154861, "lon": -74.0124254, "tags": {"amenity": "bench", "backrest": "yes", "material": "wood"}}, {"type": "node", "id": 11461456649, "lat": 40.7154207, "lon": -74.0122246, "tags": {"amenity": "bench", "backrest": "yes", "material": "wood"}}, {"type": "node", "id": 11461456664, "lat": 40.7152907, "lon": -74.0122701, "tags": {"amenity": "waste_basket"}}, {"type": "node", "id": 11461456676, "lat": 40.7153312, "lon": -74.01253, "tags": {"amenity": "waste_basket"}}, {"type": "node", "id": 11461456677, "lat": 40.7154539, "lon": -74.0122991, "tags": {"amenity": "waste_basket"}}, {"type": "node", "id": 11461456706, "lat": 40.7155574, "lon": -74.0125286, "tags": {"amenity": "bench", "backrest": "yes", "material": "wood"}}, {"type": "node", "id": 11461456707, "lat": 40.7156802, "lon": -74.012815, "tags": {"amenity": "bench", "backrest": "yes", "material": "wood"}}, {"type": "node", "id": 11461456738, "lat": 40.7150562, "lon": -74.0113967, "tags": {"amenity": "waste_basket"}}, {"type": "node", "id": 11461456743, "lat": 40.7152572, "lon": -74.01133, "tags": {"access": "yes", "amenity": "bicycle_parking", "bicycle_parking": "stands", "capacity": "14", "cityracks.housenum": "270", "cityracks.large": "0", "cityracks.rackid": "4997", "cityracks.small": "10", "cityracks.street": "Greenwich St"}}, {"type": "node", "id": 11461456744, "lat": 40.7152343, "lon": -74.0112891, "tags": {"amenity": "bench", "backrest": "yes", "material": "metal", "seats": "3"}}, {"type": "node", "id": 11461456797, "lat": 40.7155447, "lon": -74.0112075, "tags": {"amenity": "waste_basket"}}, {"type": "node", "id": 11461456798, "lat": 40.7154593, "lon": -74.0112789, "tags": {"access": "yes", "amenity": "bicycle_parking", "bicycle_parking": "stands", "capacity": "12", "cityracks.housenum": "270", "cityracks.large": "0", "cityracks.rackid": "4997", "cityracks.small": "10", "cityracks.street": "Greenwich St"}}, {"type": "node", "id": 11461456865, "lat": 40.7161131, "lon": -74.0123141, "tags": {"access": "yes", "amenity": "bicycle_parking", "bicycle_parking": "stands", "capacity": "6"}}, {"type": "node", "id": 11461456866, "lat": 40.7160097, "lon": -74.0120862, "tags": {"access": "yes", "amenity": "bicycle_parking", "bicycle_parking": "stands", "capacity": "6"}}, {"type": "node", "id": 11463708318, "lat": 40.7157162, "lon": -74.0111918, "tags": {"amenity": "waste_basket"}}, {"type": "node", "id": 11463708362, "lat": 40.7162784, "lon": -74.0110713, "tags": {"amenity": "waste_basket"}}, {"type": "node", "id": 11463714759, "lat": 40.7163322, "lon": -74.0124897, "tags": {"access": "yes", "amenity": "parking_entrance", "parking": "underground"}}, {"type": "node", "id": 11463714831, "lat": 40.7157358, "lon": -74.0112531, "tags": {"access": "yes", "amenity": "bicycle_parking", "bicycle_parking": "stand_(supports_bicycle_frame)operator:short=nyc_parks_operator:type=public_operator:wikidata=q1894232", "capacity": "7"}}, {"type": "node", "id": 11463714832, "lat": 40.7157626, "lon": -74.0113164, "tags": {"access": "yes", "amenity": "bicycle_parking", "bicycle_parking": "stand_(supports_bicycle_frame)operator:short=nyc_parks_operator:type=public_operator:wikidata=q1894232", "capacity": "7"}}, {"type": "node", "id": 11463821703, "lat": 40.7176836, "lon": -74.0122038}, {"type": "node", "id": 11463821704, "lat": 40.7177153, "lon": -74.0123882}, {"type": "node", "id": 11463821710, "lat": 40.7177049, "lon": -74.0120269}, {"type": "node", "id": 11463821714, "lat": 40.7176873, "lon": -74.0120598}, {"type": "node", "id": 11463822841, "lat": 40.7179524, "lon": -74.0123819, "tags": {"amenity": "bench", "backrest": "no", "material": "metal"}}, {"type": "node", "id": 11463822842, "lat": 40.7180881, "lon": -74.0123501, "tags": {"amenity": "bench", "backrest": "no", "material": "metal"}}, {"type": "node", "id": 11463822843, "lat": 40.7183672, "lon": -74.0122833, "tags": {"amenity": "bench", "backrest": "no", "material": "metal"}}, {"type": "node", "id": 11463822851, "lat": 40.7189458, "lon": -74.0122218, "tags": {"amenity": "waste_basket"}}, {"type": "node", "id": 11463822857, "lat": 40.718951, "lon": -74.0121161}, {"type": "node", "id": 11463822867, "lat": 40.718906, "lon": -74.012126}, {"type": "node", "id": 11463822875, "lat": 40.7190607, "lon": -74.0116657}, {"type": "node", "id": 11463822876, "lat": 40.7191305, "lon": -74.0120768}, {"type": "node", "id": 11463822879, "lat": 40.7187931, "lon": -74.0114634}, {"type": "node", "id": 11463822881, "lat": 40.7190614, "lon": -74.0114037}, {"type": "node", "id": 11463822884, "lat": 40.718875, "lon": -74.0117067}, {"type": "node", "id": 11464555848, "lat": 40.7168143, "lon": -74.0118925, "tags": {"amenity": "waste_basket"}}, {"type": "node", "id": 11464555853, "lat": 40.7169146, "lon": -74.0119252, "tags": {"amenity": "waste_basket"}}, {"type": "node", "id": 11464612390, "lat": 40.7172391, "lon": -74.0119862}, {"type": "node", "id": 11464612421, "lat": 40.7178046, "lon": -74.0117897, "tags": {"amenity": "bench", "backrest": "no", "material": "concrete"}}, {"type": "node", "id": 11464612428, "lat": 40.7182243, "lon": -74.0117194, "tags": {"amenity": "bench", "backrest": "no", "material": "concrete"}}, {"type": "node", "id": 11464612429, "lat": 40.7182553, "lon": -74.011712, "tags": {"amenity": "bench", "backrest": "no", "material": "concrete"}}, {"type": "node", "id": 11464612464, "lat": 40.7166396, "lon": -74.0115058, "tags": {"amenity": "waste_basket"}}, {"type": "node", "id": 11464612465, "lat": 40.7165526, "lon": -74.0113275, "tags": {"amenity": "waste_basket"}}, {"type": "node", "id": 11464612471, "lat": 40.7164383, "lon": -74.011079, "tags": {"amenity": "waste_basket"}}, {"type": "node", "id": 11464612476, "lat": 40.7171535, "lon": -74.0108011, "tags": {"amenity": "waste_basket"}}, {"type": "node", "id": 11464612477, "lat": 40.7172215, "lon": -74.0107857, "tags": {"amenity": "bench", "backrest": "yes", "material": "metal", "seats": "4"}}, {"type": "node", "id": 11464612478, "lat": 40.7173088, "lon": -74.0107634, "tags": {"amenity": "bench", "backrest": "yes", "material": "metal", "seats": "4"}}, {"type": "node", "id": 11464612480, "lat": 40.7173724, "lon": -74.0107491, "tags": {"access": "yes", "amenity": "bicycle_parking", "bicycle_parking": "stands", "capacity": "7"}}, {"type": "node", "id": 11464612481, "lat": 40.7175367, "lon": -74.0106977, "tags": {"amenity": "waste_basket"}}, {"type": "node", "id": 11464612838, "lat": 40.7167966, "lon": -74.0111827, "tags": {"amenity": "bench"}}, {"type": "node", "id": 11464612839, "lat": 40.7168309, "lon": -74.0111608, "tags": {"amenity": "bench"}}, {"type": "node", "id": 11464612848, "lat": 40.7173904, "lon": -74.0108239, "tags": {"amenity": "bench", "backrest": "yes", "material": "wood", "seats": "4"}}, {"type": "node", "id": 11464612849, "lat": 40.7174176, "lon": -74.010873, "tags": {"amenity": "bench", "backrest": "yes", "material": "wood", "seats": "4"}}, {"type": "node", "id": 11464612867, "lat": 40.7174347, "lon": -74.0115582, "tags": {"amenity": "waste_basket"}}, {"type": "node", "id": 11464612887, "lat": 40.7174086, "lon": -74.0114344, "tags": {"amenity": "bench"}}, {"type": "node", "id": 11464612888, "lat": 40.7174068, "lon": -74.0114026, "tags": {"amenity": "bench"}}, {"type": "node", "id": 11464612889, "lat": 40.717379, "lon": -74.0112666, "tags": {"amenity": "bench"}}, {"type": "node", "id": 11464612890, "lat": 40.7173584, "lon": -74.011228, "tags": {"amenity": "bench"}}, {"type": "node", "id": 11464612919, "lat": 40.7176272, "lon": -74.0116235, "tags": {"access": "yes", "amenity": "bicycle_parking", "bicycle_parking": "stands", "capacity": "7"}}, {"type": "node", "id": 11464612920, "lat": 40.7175975, "lon": -74.0116288, "tags": {"access": "yes", "amenity": "bicycle_parking", "bicycle_parking": "stands", "capacity": "7"}}, {"type": "node", "id": 11464612921, "lat": 40.7175795, "lon": -74.011592, "tags": {"access": "yes", "amenity": "bicycle_parking", "bicycle_parking": "stands", "capacity": "7"}}, {"type": "node", "id": 11464612943, "lat": 40.7177846, "lon": -74.0115951, "tags": {"amenity": "bench", "backrest": "yes"}}, {"type": "node", "id": 11464612944, "lat": 40.7177789, "lon": -74.0115633, "tags": {"amenity": "bench", "backrest": "yes"}}, {"type": "node", "id": 11464612945, "lat": 40.7177561, "lon": -74.0115698, "tags": {"amenity": "bench", "backrest": "yes"}}, {"type": "node", "id": 11464612946, "lat": 40.7177596, "lon": -74.0116012, "tags": {"amenity": "bench", "backrest": "yes"}}, {"type": "node", "id": 11464612955, "lat": 40.7178678, "lon": -74.0115797, "tags": {"amenity": "bench", "backrest": "yes"}}, {"type": "node", "id": 11464612956, "lat": 40.7178871, "lon": -74.0115418, "tags": {"amenity": "bench", "backrest": "yes"}}, {"type": "node", "id": 11464612957, "lat": 40.7178928, "lon": -74.0115736, "tags": {"amenity": "bench", "backrest": "yes"}}, {"type": "node", "id": 11464612959, "lat": 40.7178643, "lon": -74.0115483, "tags": {"amenity": "bench", "backrest": "yes"}}, {"type": "node", "id": 11464612968, "lat": 40.7179793, "lon": -74.0115531, "tags": {"amenity": "bench", "backrest": "yes"}}, {"type": "node", "id": 11464612969, "lat": 40.7179986, "lon": -74.0115152, "tags": {"amenity": "bench", "backrest": "yes"}}, {"type": "node", "id": 11464612970, "lat": 40.7180043, "lon": -74.011547, "tags": {"amenity": "bench", "backrest": "yes"}}, {"type": "node", "id": 11464612972, "lat": 40.7179758, "lon": -74.0115217, "tags": {"amenity": "bench", "backrest": "yes"}}, {"type": "node", "id": 11464640921, "lat": 40.7174033, "lon": -74.0105725, "tags": {"amenity": "waste_basket"}}, {"type": "node", "id": 11464657930, "lat": 40.7180663, "lon": -74.0106738, "tags": {"amenity": "bench", "backrest": "yes", "material": "metal", "seats": "4"}}, {"type": "node", "id": 11464657931, "lat": 40.7179902, "lon": -74.010586, "tags": {"amenity": "bench", "backrest": "yes", "material": "metal", "seats": "4"}}, {"type": "node", "id": 11464657933, "lat": 40.7180895, "lon": -74.0105754, "tags": {"access": "yes", "amenity": "bicycle_parking", "bicycle_parking": "stands", "capacity": "5", "covered": "no"}}, {"type": "node", "id": 11464657945, "lat": 40.7181763, "lon": -74.0105408, "tags": {"amenity": "waste_basket"}}, {"type": "node", "id": 11464657946, "lat": 40.7182135, "lon": -74.010555, "tags": {"amenity": "post_box", "operator": "United States Postal Service", "operator:short": "USPS", "operator:type": "public", "operator:website": "https://www.usps.com", "operator:wikidata": "Q668687", "operator:wikipedia": "en:United States Postal Service"}}, {"type": "node", "id": 11464657960, "lat": 40.7181765, "lon": -74.0105676, "tags": {"access": "yes", "amenity": "bicycle_parking", "bicycle_parking": "stands", "capacity": "5", "covered": "no"}}, {"type": "node", "id": 11464657961, "lat": 40.7182001, "lon": -74.0105636, "tags": {"access": "yes", "amenity": "bicycle_parking", "bicycle_parking": "stands", "capacity": "5", "covered": "no"}}, {"type": "node", "id": 11464657963, "lat": 40.7182584, "lon": -74.0106295, "tags": {"amenity": "bench", "backrest": "yes", "material": "metal", "seats": "4"}}, {"type": "node", "id": 11464657964, "lat": 40.7183263, "lon": -74.0106189, "tags": {"amenity": "bench", "backrest": "yes", "material": "metal", "seats": "4"}}, {"type": "node", "id": 11464657965, "lat": 40.7184528, "lon": -74.0105988, "tags": {"amenity": "bench", "backrest": "yes", "material": "metal", "seats": "4"}}, {"type": "node", "id": 11464657970, "lat": 40.7179381, "lon": -74.0107709, "tags": {"amenity": "parking_entrance"}}, {"type": "node", "id": 11464657994, "lat": 40.7185468, "lon": -74.0105083, "tags": {"amenity": "bench", "backrest": "yes", "material": "metal", "seats": "4"}}, {"type": "node", "id": 11464657995, "lat": 40.7186177, "lon": -74.0105009, "tags": {"amenity": "bench", "backrest": "yes", "material": "metal", "seats": "4"}}, {"type": "node", "id": 11464657997, "lat": 40.7187088, "lon": -74.0104503, "tags": {"amenity": "waste_basket"}}, {"type": "node", "id": 11464658055, "lat": 40.7187754, "lon": -74.0113309, "tags": {"access": "yes", "amenity": "parking_entrance", "parking": "underground"}}, {"type": "node", "id": 11464658062, "lat": 40.7188817, "lon": -74.0116556, "tags": {"access": "yes", "amenity": "bicycle_parking", "bicycle_parking": "stands", "capacity": "8", "covered": "no"}}, {"type": "node", "id": 11464658063, "lat": 40.7188699, "lon": -74.0115595, "tags": {"access": "yes", "amenity": "bicycle_parking", "bicycle_parking": "stands", "capacity": "8", "covered": "no"}}, {"type": "node", "id": 11464658064, "lat": 40.7188987, "lon": -74.0117014}, {"type": "node", "id": 11466076644, "lat": 40.719045, "lon": -74.0112705, "tags": {"access": "yes", "amenity": "parking_entrance", "parking": "underground"}}, {"type": "node", "id": 11466117104, "lat": 40.7190656, "lon": -74.0114303}, {"type": "node", "id": 11466636779, "lat": 40.7189191, "lon": -74.0104044, "tags": {"amenity": "waste_basket"}}, {"type": "node", "id": 11466636980, "lat": 40.7190409, "lon": -74.0105567, "tags": {"amenity": "bench", "backrest": "yes", "material": "metal", "seats": "4"}}, {"type": "node", "id": 11466636981, "lat": 40.7190985, "lon": -74.0105476, "tags": {"amenity": "bench", "backrest": "yes", "material": "metal", "seats": "4"}}, {"type": "node", "id": 11466636982, "lat": 40.7190639, "lon": -74.0104935, "tags": {"amenity": "bench", "backrest": "yes", "material": "metal", "seats": "4"}}, {"type": "node", "id": 11466636984, "lat": 40.7191525, "lon": -74.0105402, "tags": {"amenity": "bench", "backrest": "yes", "material": "metal", "seats": "4"}}, {"type": "node", "id": 11466636985, "lat": 40.7191742, "lon": -74.010477, "tags": {"amenity": "bench", "backrest": "yes", "material": "metal", "seats": "4"}}, {"type": "node", "id": 11466637026, "lat": 40.7193735, "lon": -74.0104432, "tags": {"amenity": "bench", "backrest": "yes", "material": "metal", "seats": "4"}}, {"type": "node", "id": 11466637276, "lat": 40.7200708, "lon": -74.0116764}, {"type": "node", "id": 11466637284, "lat": 40.7197637, "lon": -74.0119384}, {"type": "node", "id": 11466637306, "lat": 40.7193649, "lon": -74.0101802, "tags": {"amenity": "waste_basket"}}, {"type": "node", "id": 11466637332, "lat": 40.7190337, "lon": -74.0116716}, {"type": "node", "id": 11466637361, "lat": 40.7190862, "lon": -74.0120865}, {"type": "node", "id": 11476951559, "lat": 40.7185957, "lon": -74.0130726, "tags": {"amenity": "recycling", "recycling_type": "container"}}, {"type": "node", "id": 11476951560, "lat": 40.7185852, "lon": -74.0130733, "tags": {"amenity": "waste_basket"}}, {"type": "node", "id": 11476951561, "lat": 40.7186555, "lon": -74.0130274, "tags": {"access": "yes", "amenity": "bicycle_parking", "bicycle_parking": "stands", "capacity": "5"}}, {"type": "node", "id": 11476951568, "lat": 40.7186513, "lon": -74.0129214, "tags": {"amenity": "bench", "backrest": "yes", "material": "metal"}}, {"type": "node", "id": 11476958174, "lat": 40.7187358, "lon": -74.0130916, "tags": {"amenity": "bench", "backrest": "yes", "material": "wood"}}, {"type": "node", "id": 11476958175, "lat": 40.7187551, "lon": -74.0130884, "tags": {"amenity": "bench", "backrest": "yes", "material": "wood"}}, {"type": "node", "id": 11476958176, "lat": 40.7187909, "lon": -74.0130787, "tags": {"amenity": "bench", "backrest": "yes", "material": "wood"}}, {"type": "node", "id": 11476958177, "lat": 40.718813, "lon": -74.0130727, "tags": {"amenity": "bench", "backrest": "yes", "material": "wood"}}, {"type": "node", "id": 11476958178, "lat": 40.7188487, "lon": -74.0130634, "tags": {"amenity": "bench", "backrest": "yes", "material": "wood"}}, {"type": "node", "id": 11476958179, "lat": 40.7188694, "lon": -74.0130602, "tags": {"amenity": "bench", "backrest": "yes", "material": "wood"}}, {"type": "node", "id": 11476958180, "lat": 40.7188994, "lon": -74.0128612, "tags": {"amenity": "bench", "backrest": "yes", "material": "metal"}}, {"type": "node", "id": 11476958212, "lat": 40.7189913, "lon": -74.0129807, "tags": {"amenity": "waste_basket"}}, {"type": "node", "id": 11476958213, "lat": 40.7189982, "lon": -74.0129727, "tags": {"amenity": "recycling", "recycling_type": "container"}}, {"type": "node", "id": 11476958245, "lat": 40.7192558, "lon": -74.0129283, "tags": {"amenity": "recycling", "recycling_type": "container"}}, {"type": "node", "id": 11476958246, "lat": 40.719247, "lon": -74.0129153, "tags": {"amenity": "waste_basket"}}, {"type": "node", "id": 11506618609, "lat": 40.7158391, "lon": -74.0064458, "tags": {"amenity": "waste_basket"}}, {"type": "node", "id": 11515464389, "lat": 40.718757, "lon": -74.0065699, "tags": {"amenity": "post_box", "operator": "United States Postal Service", "operator:short": "USPS", "operator:type": "public", "operator:website": "https://www.usps.com", "operator:wikidata": "Q668687", "operator:wikipedia": "en:United States Postal Service"}}, {"type": "node", "id": 11515464390, "lat": 40.7187792, "lon": -74.0065559, "tags": {"amenity": "waste_basket"}}, {"type": "node", "id": 11515464417, "lat": 40.7183007, "lon": -74.0069256, "tags": {"amenity": "waste_basket"}}, {"type": "node", "id": 11515468930, "lat": 40.7142401, "lon": -74.0083591, "tags": {"amenity": "waste_basket"}}, {"type": "node", "id": 11515468963, "lat": 40.7143646, "lon": -74.0085384, "tags": {"amenity": "waste_basket"}}, {"type": "node", "id": 11515469011, "lat": 40.7143939, "lon": -74.0082369, "tags": {"amenity": "waste_basket"}}, {"type": "node", "id": 11517225691, "lat": 40.7168014, "lon": -74.0107263, "tags": {"amenity": "waste_basket"}}, {"type": "node", "id": 11517225700, "lat": 40.7161561, "lon": -74.0092545, "tags": {"amenity": "waste_basket"}}, {"type": "node", "id": 11517225705, "lat": 40.7162333, "lon": -74.009101, "tags": {"amenity": "waste_basket"}}, {"type": "node", "id": 11517225706, "lat": 40.7161282, "lon": -74.0088608, "tags": {"amenity": "waste_basket"}}, {"type": "node", "id": 11517225775, "lat": 40.7155058, "lon": -74.0090582, "tags": {"amenity": "waste_basket"}}, {"type": "node", "id": 11517225776, "lat": 40.7154108, "lon": -74.0091274, "tags": {"amenity": "waste_basket"}}, {"type": "node", "id": 11517225781, "lat": 40.71549, "lon": -74.0093867, "tags": {"amenity": "waste_basket"}}, {"type": "node", "id": 11577695985, "lat": 40.7144353, "lon": -74.008852, "tags": {"amenity": "dentist", "healthcare": "dentist", "name": "Expert Dental"}}, {"type": "node", "id": 12007325581, "lat": 40.7145957, "lon": -74.0085001, "tags": {"addr:city": "New York", "addr:housenumber": "140", "addr:postcode": "10007", "addr:state": "NY", "addr:street": "Church Street", "amenity": "pharmacy", "brand": "CVS Pharmacy", "brand:website": "https://www.cvs.com/", "brand:wikidata": "Q2078880", "brand:wikipedia": "en:CVS Pharmacy", "healthcare": "pharmacy", "name": "CVS Pharmacy", "phone": "+1-212-587-1112", "short_name": "CVS"}}, {"type": "node", "id": 12102901861, "lat": 40.7157994, "lon": -74.0109094, "tags": {"addr:city": "New York", "addr:housenumber": "295", "addr:postcode": "10007", "addr:state": "NY", "addr:street": "Greenwich Street", "amenity": "cafe", "brand": "Joe & The Juice", "brand:wikidata": "Q26221514", "cuisine": "coffee_shop", "name": "Joe & The Juice", "opening_hours": "Mo-Su 07:00-21:00", "phone": "+1 646-741-8640", "takeaway": "yes", "website": "https://www.joejuice.com/"}}, {"type": "node", "id": 12207203839, "lat": 40.7176962, "lon": -74.0104084, "tags": {"addr:housenumber": "329", "addr:postcode": "10013", "addr:street": "Greenwich Street", "amenity": "bar", "name": "Muse Paintbar"}}, {"type": "node", "id": 12408345140, "lat": 40.7148745, "lon": -74.0109172, "tags": {"amenity": "cafe", "name": "Juicepress"}}, {"type": "way", "id": 250049361, "nodes": [11463822876, 11466637284, 2565683830, 2565683828, 2565683849, 11466637276, 2565683845, 2565683853, 2565683848, 2565683835, 2565683782, 11463822881, 11466117104, 2565683784, 2565683781, 2565683785, 2565683786, 2565683787, 11463822875, 11466637332, 2565683769, 11464658064, 11463822884, 2565683766, 2565683765, 11463822879, 2565683764, 2565698941, 2565683757]}, {"type": "way", "id": 250049363, "nodes": [2565683757, 10689818363, 2565683759, 10689818357, 2565683763, 8304373491, 11463821710, 11463821714, 2565683754, 2565683760, 11463821703, 2565683756, 2565683745, 2565683748, 11464612390, 2565683740, 889585150, 2565683751, 2565683738, 2565683739, 2565683741, 2565683742, 2565683743, 2565683744, 2565683746, 2565683749, 2565683750, 11460524936, 2565683755, 2565683753, 2565683761, 2565683758, 11463821704, 11463822867]}, {"type": "way", "id": 250052723, "nodes": [2565708530, 2565708628, 2565708626, 2565708603, 2565708602, 2565708559, 2565708560, 2565708533, 2565708534, 2565708527, 2565708530], "tags": {"addr:city": "New York", "addr:housenumber": "14", "addr:postcode": "10013", "addr:street": "North Moore Street", "alt_name": "Ghostbusters Fire Station", "amenity": "fire_station", "building": "fire_station", "check_date": "2024-09-03", "height": "16", "name": "FDNY Ladder 8", "note": "featured in the movie ghostbusters", "nycdoitt:bin": "1002150", "operator": "New York City Fire Department", "operator:wikidata": "Q283207", "operator:wikipedia": "en:New York City Fire Department", "tourism": "attraction", "wikidata": "Q21712009", "wikipedia": "en:Firehouse, Hook & Ladder Company 8"}}, {"type": "way", "id": 277890497, "nodes": [2823341443, 2823341444, 2823341454, 2823341453, 2823341450, 2823341443], "tags": {"addr:city": "New York", "addr:housenumber": "67", "addr:postcode": "10007", "addr:street": "Murray Street", "amenity": "restaurant", "building": "yes", "cuisine": "irish", "height": "25.5", "name": "Lilly O'Briens", "nycdoitt:bin": "1001419", "opening_hours": "Mo-Su 00:00-04:00,08:00-24:00", "phone": "+1 212 732-1592", "website": "https://www.lillyobriensbar.com/"}}, {"type": "way", "id": 277890498, "nodes": [2823341465, 2823341469, 2823341501, 2823341495, 2823341465], "tags": {"addr:city": "New York", "addr:housenumber": "73", "addr:postcode": "10007", "addr:street": "Warren Street", "amenity": "restaurant", "building": "yes", "cuisine": "american", "height": "22.1", "name": "Mulberry & Vine", "nycdoitt:bin": "1001432", "phone": "+1-212-791-6300", "website": "https://www.mulberryandvine.com/", "wheelchair": "yes"}}, {"type": "way", "id": 277890503, "nodes": [2823341570, 2823341574, 2823341600, 2823341603, 2823341588, 2823341586, 2823341575, 2823341573, 2823341570], "tags": {"addr:housenumber": "144", "addr:postcode": "10007", "addr:street": "Chambers Street", "amenity": "dentist", "building": "yes", "email": "info@tribecadentaldesign.com", "healthcare": "dentist", "height": "18.0", "name": "Tribeca Dental Design", "nycdoitt:bin": "1001498", "phone": "+1 212 227-9127", "website": "https://tribecadentaldesign.com/"}}, {"type": "way", "id": 369626908, "nodes": [2565708372, 2565708377, 2565708376, 2565708381, 3734070555, 2565708338, 2565708348, 2565708347, 2565708351, 2565708346, 2565708352, 2565708349, 2565708366, 2565708372], "tags": {"access": "yes", "amenity": "parking", "fee": "yes", "parking": "surface", "surface": "asphalt"}}, {"type": "way", "id": 369626911, "nodes": [2565708323, 3734070554, 2565708337, 2565708314, 3734070549, 2565708308, 2565708315, 2565708323], "tags": {"access": "yes", "amenity": "parking", "fee": "yes", "name": "Park Fast", "parking": "surface", "surface": "asphalt"}}, {"type": "way", "id": 369797925, "nodes": [889464923, 2823341488, 2823341458, 3735556933, 2823341461, 2823341457, 889464923], "tags": {"access": "customers", "amenity": "parking", "fee": "yes", "name": "Speedy Park", "parking": "surface", "surface": "asphalt", "wheelchair": "yes"}}, {"type": "way", "id": 693854988, "nodes": [6514469189, 6514469190, 6514469191, 6514469192, 6514469193, 6514469194, 6514469189], "tags": {"access": "yes", "amenity": "toilets", "building": "yes", "toilets:disposal": "flush", "toilets:handwashing": "yes", "website": "https://www.nycgovparks.org/parks/washington-market-park/facilities/bathrooms", "wheelchair": "yes"}}, {"type": "way", "id": 893536657, "nodes": [8304497495, 8304497496, 8304497497, 8304497498, 8304497499, 8304497500, 8304497501, 8304497483, 8304497484, 8304497485, 8304497490, 8304497491, 8304497492, 8304497493, 8304497494, 8304497486, 8304497487, 8304497488, 8304497489, 8304497495], "tags": {"amenity": "shelter", "building": "yes", "shelter_type": "gazebo"}}, {"type": "way", "id": 1234781204, "nodes": [8304497623, 11461452757, 11461452756, 11461452755, 11461452754, 11461452753, 11461452752, 11461452751, 11461452750, 11461452749, 11461452748, 11461452747, 8304497618, 11461452746, 8304497619, 11461452741, 8304497620, 8304497621, 11461452742, 8304497622, 8304497623], "tags": {"amenity": "fountain", "natural": "water"}}, {"type": "way", "id": 1235023072, "nodes": [11463822867, 11463822857, 2565683776, 11466637361, 11463822876]}, {"type": "relation", "id": 3361059, "members": [{"type": "way", "ref": 250049361, "role": "outer"}, {"type": "way", "ref": 250049363, "role": "outer"}, {"type": "way", "ref": 1235023072, "role": "outer"}], "tags": {"amenity": "university", "building": "yes", "height": "36.7", "layer": "1", "name": "Borough of Manhattan Community College", "nycdoitt:bin": "1066406", "short_name": "BMCC", "type": "multipolygon", "wikidata": "Q4946345"}}]}