{"version": 0.6, "generator": "Overpass API 0.7.62.1 084b4234", "osm3s": {"timestamp_osm_base": "2024-10-16T19:06:25Z", "copyright": "The data included in this document is from www.openstreetmap.org. The data is made available under ODbL."}, "elements": [{"type": "node", "id": 265688843, "lat": 37.7793142, "lon": -122.4164178}, {"type": "node", "id": 265688844, "lat": 37.7787986, "lon": -122.4163148}, {"type": "node", "id": 265688845, "lat": 37.7789499, "lon": -122.4151229}, {"type": "node", "id": 265688846, "lat": 37.7794655, "lon": -122.4152345}, {"type": "node", "id": 280929168, "lat": 37.7776563, "lon": -122.4179456}, {"type": "node", "id": 280929170, "lat": 37.7784733, "lon": -122.4167009}, {"type": "node", "id": 280929304, "lat": 37.7782944, "lon": -122.4180924}, {"type": "node", "id": 280929305, "lat": 37.7777999, "lon": -122.4165847}, {"type": "node", "id": 376211776, "lat": 37.7780619, "lon": -122.4144797}, {"type": "node", "id": 389456810, "lat": 37.7744898, "lon": -122.4174194, "tags": {"amenity": "bicycle_parking", "bicycle_parking": "stands", "capacity": "2", "check_date": "2022-03-21", "covered": "no", "fee": "no", "outside": "yes", "source": "survey"}}, {"type": "node", "id": 389457940, "lat": 37.7752361, "lon": -122.4184065, "tags": {"amenity": "bicycle_parking", "capacity": "2", "fee": "no", "outside": "yes", "source": "survey"}}, {"type": "node", "id": 389458008, "lat": 37.775175, "lon": -122.418912, "tags": {"addr:city": "San Francisco", "addr:housenumber": "1525", "addr:postcode": "94103", "addr:state": "CA", "addr:street": "Market Street", "amenity": "bank", "atm": "yes", "brand": "Bank of America", "brand:wikidata": "Q487907", "check_date": "2023-10-14", "drive_through": "no", "name": "Bank of America", "opening_hours": "Mo-Fr 10:00-16:00; Sa-Su,PH off", "operator": "Bank of America", "outside_atm": "yes", "outside_atm_capacity": "4", "outside_atm_operator": "Bank of America", "website": "https://locators.bankofamerica.com/ca/sanfrancisco/financial-centers-san-francisco-10712.html"}}, {"type": "node", "id": 389458335, "lat": 37.7757788, "lon": -122.418303, "tags": {"amenity": "bicycle_parking", "bicycle_parking": "stands", "capacity": "10", "covered": "no", "fee": "no", "mapillary": "2887851088102250", "outside": "yes", "source": "survey", "survey:date": "2016-09-19"}}, {"type": "node", "id": 390186502, "lat": 37.7748358, "lon": -122.4190158, "tags": {"amenity": "bicycle_parking", "bicycle_parking": "stands", "capacity": "8", "check_date": "2022-11-29", "covered": "no", "fee": "no", "outside": "yes", "source": "survey"}}, {"type": "node", "id": 390186598, "lat": 37.7747883, "lon": -122.419007, "tags": {"amenity": "post_box", "collection_times": "Mo-Sa 09:45, Mo-Fr 13:00", "operator": "United States Postal Service", "operator:short": "USPS", "operator:type": "public", "operator:website": "https://www.usps.com", "operator:wikidata": "Q668687", "operator:wikipedia": "en:United States Postal Service", "quantity": "1", "ref": "9410300016", "short_name": "USPS", "source": "survey"}}, {"type": "node", "id": 390198986, "lat": 37.7771628, "lon": -122.4194792, "tags": {"amenity": "bicycle_parking", "bicycle_parking": "stands", "capacity": "2", "covered": "no", "fee": "no", "outside": "yes", "source": "survey"}}, {"type": "node", "id": 390200974, "lat": 37.778226, "lon": -122.419573, "tags": {"amenity": "post_box", "capacity": "1", "covered": "no", "drive_through": "no", "operator": "United States Postal Service", "operator:short": "USPS", "operator:type": "public", "operator:website": "https://www.usps.com", "operator:wikidata": "Q668687", "operator:wikipedia": "en:United States Postal Service", "short_name": "USPS", "source": "survey"}}, {"type": "node", "id": 411910255, "lat": 37.7765031, "lon": -122.417258, "tags": {"amenity": "clock", "date": "no", "display": "analog", "faces": "3", "support": "wall_mounted", "visibility": "street"}}, {"type": "node", "id": 411911085, "lat": 37.7786229, "lon": -122.4160998}, {"type": "node", "id": 411931251, "lat": 37.7746318, "lon": -122.4165262}, {"type": "node", "id": 411931252, "lat": 37.7748367, "lon": -122.4162704}, {"type": "node", "id": 411931253, "lat": 37.7745233, "lon": -122.4158687}, {"type": "node", "id": 411931254, "lat": 37.7743184, "lon": -122.4161245}, {"type": "node", "id": 412576570, "lat": 37.7765389, "lon": -122.4189929}, {"type": "node", "id": 412576613, "lat": 37.7768593, "lon": -122.4190553}, {"type": "node", "id": 412576780, "lat": 37.7769271, "lon": -122.414906}, {"type": "node", "id": 412578522, "lat": 37.7767332, "lon": -122.4151516}, {"type": "node", "id": 412580007, "lat": 37.775437, "lon": -122.4201108}, {"type": "node", "id": 412580139, "lat": 37.7766359, "lon": -122.4150286}, {"type": "node", "id": 412580917, "lat": 37.7755055, "lon": -122.4195549}, {"type": "node", "id": 412582352, "lat": 37.7781348, "lon": -122.4142082}, {"type": "node", "id": 412582353, "lat": 37.7779912, "lon": -122.4140291}, {"type": "node", "id": 412582354, "lat": 37.777758, "lon": -122.4143283}, {"type": "node", "id": 412582355, "lat": 37.7779016, "lon": -122.4145074}, {"type": "node", "id": 412582403, "lat": 37.7758345, "lon": -122.4196198}, {"type": "node", "id": 412582622, "lat": 37.7768299, "lon": -122.4147831}, {"type": "node", "id": 412583136, "lat": 37.7782033, "lon": -122.4143009}, {"type": "node", "id": 412583137, "lat": 37.7783752, "lon": -122.4145185}, {"type": "node", "id": 412583138, "lat": 37.7782337, "lon": -122.4146973}, {"type": "node", "id": 412583200, "lat": 37.7774744, "lon": -122.4191293}, {"type": "node", "id": 412583212, "lat": 37.7778665, "lon": -122.4186258}, {"type": "node", "id": 412583213, "lat": 37.7775463, "lon": -122.4185644}, {"type": "node", "id": 412583296, "lat": 37.7767408, "lon": -122.415142}, {"type": "node", "id": 412586457, "lat": 37.778073, "lon": -122.41638}, {"type": "node", "id": 412586461, "lat": 37.7781653, "lon": -122.4162649}, {"type": "node", "id": 412587023, "lat": 37.7782674, "lon": -122.416137}, {"type": "node", "id": 412587025, "lat": 37.7780682, "lon": -122.4158824}, {"type": "node", "id": 412587407, "lat": 37.7784589, "lon": -122.4163818}, {"type": "node", "id": 412587410, "lat": 37.7785546, "lon": -122.416262}, {"type": "node", "id": 412587414, "lat": 37.7781628, "lon": -122.4157613}, {"type": "node", "id": 412588517, "lat": 37.7784374, "lon": -122.4158633}, {"type": "node", "id": 412588519, "lat": 37.778339, "lon": -122.4159865}, {"type": "node", "id": 1018646118, "lat": 37.7783814, "lon": -122.4184088, "tags": {"amenity": "post_box", "collection_times": "Mo-Fr 14:30, Sa 10:15", "operator": "United States Postal Service", "operator:short": "USPS", "operator:type": "public", "operator:website": "https://www.usps.com", "operator:wikidata": "Q668687", "operator:wikipedia": "en:United States Postal Service", "quantity": "1", "ref:signed": "no", "short_name": "USPS", "source": "survey"}}, {"type": "node", "id": 1028661023, "lat": 37.7776145, "lon": -122.413207, "tags": {"amenity": "post_box", "operator": "United States Postal Service", "operator:short": "USPS", "operator:type": "public", "operator:website": "https://www.usps.com", "operator:wikidata": "Q668687", "operator:wikipedia": "en:United States Postal Service", "quantity": "1", "short_name": "USPS", "source": "survey"}}, {"type": "node", "id": 1493456472, "lat": 37.7764323, "lon": -122.4179965, "tags": {"addr:housenumber": "1400", "addr:postcode": "94102", "addr:street": "Market Street", "amenity": "fast_food", "check_date": "2023-04-25", "cuisine": "greek", "name": "Market Street Gyros"}}, {"type": "node", "id": 1493456487, "lat": 37.7770688, "lon": -122.41733, "tags": {"addr:city": "San Francisco", "addr:housenumber": "1390", "addr:postcode": "94102", "addr:state": "CA", "addr:street": "Market Street", "amenity": "cafe", "branch": "Fox Plaza", "brand": "Starbucks", "brand:wikidata": "Q37158", "check_date": "2023-05-17", "cuisine": "coffee_shop", "name": "Starbucks", "official_name": "Starbucks Coffee", "opening_hours": "Mo-Fr 05:00-19:00; Sa-Su 06:00-18:00", "phone": "+1 415-863-8332", "takeaway": "only", "website": "https://www.starbucks.com/store-locator/store/13881/fox-plaza-1390-market-street-107-san-francisco-ca-941025403-"}}, {"type": "node", "id": 1616378966, "lat": 37.7765897, "lon": -122.4186023}, {"type": "node", "id": 1616378977, "lat": 37.7769087, "lon": -122.4186674}, {"type": "node", "id": 1616394527, "lat": 37.7784139, "lon": -122.4164375}, {"type": "node", "id": 1616394528, "lat": 37.7786085, "lon": -122.4161901}, {"type": "node", "id": 1671478181, "lat": 37.7749494, "lon": -122.419829}, {"type": "node", "id": 1671478185, "lat": 37.7751557, "lon": -122.4195689}, {"type": "node", "id": 1671478189, "lat": 37.7752703, "lon": -122.4198948}, {"type": "node", "id": 1671478191, "lat": 37.7753088, "lon": -122.4196015}, {"type": "node", "id": 1748985895, "lat": 37.7762185, "lon": -122.419742, "tags": {"addr:city": "San Francisco", "addr:housenumber": "77", "addr:postcode": "94102", "addr:state": "CA", "addr:street": "Van Ness Avenue", "amenity": "post_office", "brand": "The UPS Store", "brand:wikidata": "Q7771029", "check_date": "2023-01-05", "email": "store6260@theupsstore.com", "name": "The UPS Store", "opening_hours": "Mo-Fr 09:00-19:00; Sa 10:00-17:00; Su 12:00-17:00", "operator": "The UPS Store", "operator:type": "private", "operator:wikidata": "Q7771029", "operator:wikipedia": "en:The UPS Store", "phone": "+1 415-222-9910", "shop": "copyshop", "short_name": "UPS", "source": "Store Owner", "website": "https://www.theupsstorelocal.com/6260", "wheelchair": "yes"}}, {"type": "node", "id": 1804730955, "lat": 37.7773455, "lon": -122.417493, "tags": {"access": "yes", "amenity": "parking", "layer": "-1", "parking": "underground"}}, {"type": "node", "id": 1837285289, "lat": 37.7762578, "lon": -122.4168903, "tags": {"amenity": "parking", "fee": "yes", "layer": "-1", "parking": "underground"}}, {"type": "node", "id": 1840899231, "lat": 37.7767434, "lon": -122.4148926}, {"type": "node", "id": 1840899271, "lat": 37.7766901, "lon": -122.41496}, {"type": "node", "id": 1840899290, "lat": 37.7768033, "lon": -122.4148167}, {"type": "node", "id": 1880228581, "lat": 37.7760405, "lon": -122.4141258, "tags": {"amenity": "restaurant", "cuisine": "ethiopian", "name": "Moya Cafe"}}, {"type": "node", "id": 1880231931, "lat": 37.7765323, "lon": -122.4148446, "tags": {"addr:housenumber": "93", "addr:postcode": "94103", "addr:street": "9th Street", "amenity": "pub", "name": "Club 93", "phone": "+1 415 522 0200"}}, {"type": "node", "id": 2357396668, "lat": 37.7766899, "lon": -122.4143587}, {"type": "node", "id": 2357396674, "lat": 37.7767523, "lon": -122.4144397}, {"type": "node", "id": 2357396677, "lat": 37.7767629, "lon": -122.4142687}, {"type": "node", "id": 2357396682, "lat": 37.7768253, "lon": -122.4143487}, {"type": "node", "id": 2357396685, "lat": 37.7769007, "lon": -122.4132845}, {"type": "node", "id": 2357396688, "lat": 37.7769878, "lon": -122.4131747}, {"type": "node", "id": 2357396690, "lat": 37.7770547, "lon": -122.4134798}, {"type": "node", "id": 2357396691, "lat": 37.7771447, "lon": -122.4129768}, {"type": "node", "id": 2357396692, "lat": 37.7772986, "lon": -122.4131721}, {"type": "node", "id": 2411692096, "lat": 37.7770377, "lon": -122.4175698, "tags": {"addr:housenumber": "1390", "addr:street": "Market Street", "amenity": "cafe", "cuisine": "sandwich", "name": "Andersen Bakery", "website": "https://www.andersenbakeryusa.com/"}}, {"type": "node", "id": 2484268630, "lat": 37.7766627, "lon": -122.4172404, "tags": {"amenity": "bicycle_rental", "bicycle_rental": "docking_station", "brand": "Bay Wheels", "brand:wikidata": "Q16971391", "brand:wikipedia": "en:Bay Wheels", "capacity": "27", "fee": "yes", "name": "Bay Wheels", "network": "Bay Wheels", "network:wikidata": "Q16971391", "network:wikipedia": "en:Bay Wheels", "operator": "Motivate", "operator:type": "private", "operator:website": "https://motivateco.com/", "operator:wikidata": "Q4735954", "operator:wikipedia": "en:Motivate (company)"}}, {"type": "node", "id": 2616612528, "lat": 37.775758, "lon": -122.4202408}, {"type": "node", "id": 2616628412, "lat": 37.779435, "lon": -122.4127635}, {"type": "node", "id": 2616628422, "lat": 37.7795286, "lon": -122.412639}, {"type": "node", "id": 2616628428, "lat": 37.7797483, "lon": -122.4131553}, {"type": "node", "id": 2656287737, "lat": 37.7776357, "lon": -122.41781}, {"type": "node", "id": 2656287738, "lat": 37.7776727, "lon": -122.417818}, {"type": "node", "id": 2656287739, "lat": 37.7776815, "lon": -122.417466}, {"type": "node", "id": 2656287740, "lat": 37.7776859, "lon": -122.4174679}, {"type": "node", "id": 2656287741, "lat": 37.7777636, "lon": -122.416863}, {"type": "node", "id": 2656287743, "lat": 37.7778098, "lon": -122.4180125}, {"type": "node", "id": 2656287744, "lat": 37.7778142, "lon": -122.4179782}, {"type": "node", "id": 2656287745, "lat": 37.7778963, "lon": -122.4180304}, {"type": "node", "id": 2656287746, "lat": 37.7779007, "lon": -122.417996}, {"type": "node", "id": 2656287749, "lat": 37.7779368, "lon": -122.4180378}, {"type": "node", "id": 2656287750, "lat": 37.7779411, "lon": -122.4180043}, {"type": "node", "id": 2656287751, "lat": 37.7779832, "lon": -122.4166263}, {"type": "node", "id": 2656287752, "lat": 37.7779896, "lon": -122.4165762}, {"type": "node", "id": 2656287755, "lat": 37.7780266, "lon": -122.4180562}, {"type": "node", "id": 2656287756, "lat": 37.7780309, "lon": -122.4180227}, {"type": "node", "id": 2656287757, "lat": 37.7780693, "lon": -122.4166385}, {"type": "node", "id": 2656287758, "lat": 37.7780751, "lon": -122.4165938}, {"type": "node", "id": 2656287759, "lat": 37.778119, "lon": -122.4166487}, {"type": "node", "id": 2656287760, "lat": 37.7781247, "lon": -122.416604}, {"type": "node", "id": 2656287761, "lat": 37.7781802, "lon": -122.4180689}, {"type": "node", "id": 2656287762, "lat": 37.7781821, "lon": -122.4180539}, {"type": "node", "id": 2656287763, "lat": 37.7782075, "lon": -122.4166613}, {"type": "node", "id": 2656287764, "lat": 37.7782126, "lon": -122.4166221}, {"type": "node", "id": 2656287766, "lat": 37.7783243, "lon": -122.4178597}, {"type": "node", "id": 2656287767, "lat": 37.7783429, "lon": -122.4177148}, {"type": "node", "id": 2656287768, "lat": 37.7783495, "lon": -122.4178648}, {"type": "node", "id": 2656287769, "lat": 37.7783543, "lon": -122.4166915}, {"type": "node", "id": 2656287770, "lat": 37.7783562, "lon": -122.4166768}, {"type": "node", "id": 2656287771, "lat": 37.7783682, "lon": -122.4177199}, {"type": "node", "id": 2656287772, "lat": 37.7784256, "lon": -122.4170721}, {"type": "node", "id": 2656287773, "lat": 37.7784441, "lon": -122.416928}, {"type": "node", "id": 2656287774, "lat": 37.7784476, "lon": -122.4170767}, {"type": "node", "id": 2656287775, "lat": 37.7784661, "lon": -122.4169325}, {"type": "node", "id": 2671868144, "lat": 37.7787575, "lon": -122.4181425}, {"type": "node", "id": 2671868145, "lat": 37.774874, "lon": -122.418985}, {"type": "node", "id": 2815132110, "lat": 37.7768129, "lon": -122.4180548, "tags": {"addr:city": "San Francisco", "addr:housenumber": "1", "addr:postcode": "94102", "addr:street": "Polk Street", "amenity": "bar", "name": "The Beer Hall", "opening_hours": "Mo-Th 16:00-23:00; Fr-Sa 15:00-24:00; Su 15:00-22:00", "phone": "+1 415 800 7416", "website": "https://www.thebeerhallsf.com/"}}, {"type": "node", "id": 2881830804, "lat": 37.775488, "lon": -122.4159, "tags": {"addr:housenumber": "1398", "addr:street": "Mission Street", "amenity": "cafe", "name": "Cumaica"}}, {"type": "node", "id": 2884715014, "lat": 37.7767448, "lon": -122.419033}, {"type": "node", "id": 2884715025, "lat": 37.7765729, "lon": -122.4187343}, {"type": "node", "id": 2886359250, "lat": 37.7753849, "lon": -122.4170538, "tags": {"amenity": "parking", "fee": "yes", "layer": "-1", "opening_hours": "24/7", "parking": "underground"}}, {"type": "node", "id": 2886430256, "lat": 37.7762169, "lon": -122.4182945, "tags": {"addr:city": "San Francisco", "addr:housenumber": "1420", "addr:postcode": "94102", "addr:state": "CA", "addr:street": "Market Street", "amenity": "restaurant", "cuisine": "japanese", "name": "Yakiniku Shodai", "opening_hours": "Tu-Sa 17:00-20:00", "outdoor_seating": "no", "phone": "+1 415-757-0201", "reservation": "required", "takeaway": "no", "website": "https://www.shodaisf.com/"}}, {"type": "node", "id": 2895323815, "lat": 37.7752166, "lon": -122.4195185, "tags": {"addr:housenumber": "1500", "addr:postcode": "94102", "addr:street": "Market Street", "amenity": "cafe", "check_date": "2023-01-20", "indoor_seating": "no", "name": "All Star Cafe", "opening_hours": "24/7", "outdoor_seating": "no", "phone": "+1 4152529888", "takeaway": "only"}}, {"type": "node", "id": 2895323817, "lat": 37.7759755, "lon": -122.4196734, "tags": {"amenity": "fast_food", "check_date": "2023-04-29", "cuisine": "fish", "drive_through": "no", "name": "Pokebola", "opening_hours": "11:00-21:00", "phone": "+1 415-655-9293", "website": "https://www.pokebolasf.com/"}}, {"type": "node", "id": 2898443201, "lat": 37.7763133, "lon": -122.4181543, "tags": {"addr:housenumber": "1412", "addr:street": "Market Street", "amenity": "dormitory", "name": "Golden Gate Hall", "operator": "Conservatory of Music"}}, {"type": "node", "id": 3134698960, "lat": 37.7767175, "lon": -122.4188184, "tags": {"amenity": "bicycle_parking"}}, {"type": "node", "id": 3134698962, "lat": 37.7766836, "lon": -122.4181854, "tags": {"amenity": "bicycle_parking"}}, {"type": "node", "id": 3134698963, "lat": 37.7781209, "lon": -122.4186574, "tags": {"amenity": "bicycle_parking"}}, {"type": "node", "id": 3134698964, "lat": 37.7776885, "lon": -122.4193548, "tags": {"amenity": "bicycle_parking"}}, {"type": "node", "id": 3374162750, "lat": 37.7757279, "lon": -122.4150425, "tags": {"addr:city": "San Francisco", "addr:housenumber": "1337", "addr:street": "Mission Street", "amenity": "bar", "name": "OddJob", "website": "http://www.oddjobsf.com/"}}, {"type": "node", "id": 3446713206, "lat": 37.7769589, "lon": -122.4167994, "tags": {"amenity": "clock", "date": "yes", "display": "digital", "man_made": "monitoring_station", "monitoring:bicycle": "yes", "name": "Market Street", "operator": "sfmta", "source": "bing:orto", "start_date": "2013", "support": "pole", "visibility": "street", "website": "http://totem-eb-market.sanfrancisco.visio-tools.com/"}}, {"type": "node", "id": 3627393192, "lat": 37.7765732, "lon": -122.4149227, "tags": {"amenity": "restaurant", "cuisine": "mexican", "name": "StreetTaco"}}, {"type": "node", "id": 3641568148, "lat": 37.7762395, "lon": -122.4168763, "tags": {"addr:city": "San Francisco", "addr:housenumber": "1355", "addr:postcode": "94103", "addr:state": "CA", "addr:street": "Market Street", "amenity": "cafe", "brand": "Blue Bottle Coffee", "brand:wikidata": "Q4928917", "cuisine": "coffee_shop", "internet_access": "no", "name": "Blue Bottle Coffee", "opening_hours": "07:00-19:00", "takeaway": "yes", "website": "http://www.visitthemarket.com/shops/blue-bottle-coffee/"}}, {"type": "node", "id": 3641710570, "lat": 37.7777492, "lon": -122.4131421, "tags": {"amenity": "restaurant", "name": "Focaccia", "website": "https://www.focacciacatering.com/"}}, {"type": "node", "id": 3669469797, "lat": 37.7769228, "lon": -122.4159354, "tags": {"amenity": "bank", "name": "First Republic"}}, {"type": "node", "id": 3757297471, "lat": 37.77521, "lon": -122.4168343, "tags": {"amenity": "parking", "construction": "yes", "fee": "yes", "layer": "-1", "opening_hours": "closed", "parking": "underground"}}, {"type": "node", "id": 4018889694, "lat": 37.7792035, "lon": -122.4198047}, {"type": "node", "id": 4018889717, "lat": 37.7793438, "lon": -122.4187073}, {"type": "node", "id": 4033949292, "lat": 37.7786462, "lon": -122.41569, "tags": {"addr:city": "San Francisco", "addr:housenumber": "25", "addr:street": "Grove Street", "amenity": "restaurant", "check_date": "2023-01-12", "cuisine": "mediterranean", "indoor_seating": "yes", "name": "Gyro King", "outdoor_seating": "no", "phone": "+1 415-621-8313", "wheelchair": "yes"}}, {"type": "node", "id": 4033949294, "lat": 37.7784965, "lon": -122.416306, "tags": {"amenity": "atm", "brand": "Wells Fargo", "brand:wikidata": "Q744149", "name": "Wells Fargo", "operator": "Wells Fargo", "operator:wikidata": "Q744149", "operator:wikipedia": "en:Wells Fargo"}}, {"type": "node", "id": 4033949295, "lat": 37.7788287, "lon": -122.4157599, "tags": {"amenity": "bicycle_parking", "bicycle_parking": "stands", "capacity": "20", "covered": "no"}}, {"type": "node", "id": 4062437468, "lat": 37.7796562, "lon": -122.4144116, "tags": {"amenity": "cafe", "indoor_seating": "no", "name": "United Nations Cafe", "outdoor_seating": "no", "takeaway": "only"}}, {"type": "node", "id": 4062440167, "lat": 37.779549, "lon": -122.4141694, "tags": {"amenity": "bicycle_parking", "bicycle_parking": "stands", "capacity": "8", "covered": "no"}}, {"type": "node", "id": 4163715805, "lat": 37.7756409, "lon": -122.4202177}, {"type": "node", "id": 4163715806, "lat": 37.7756488, "lon": -122.4201526}, {"type": "node", "id": 4318582010, "lat": 37.7768778, "lon": -122.415237, "tags": {"addr:city": "San Francisco", "addr:housenumber": "59", "addr:postcode": "94103", "addr:state": "CA", "addr:street": "9th Street", "amenity": "restaurant", "name": "The Perennial"}}, {"type": "node", "id": 4332842867, "lat": 37.7753588, "lon": -122.418665, "tags": {"amenity": "atm", "brand": "Bank of America", "brand:wikidata": "Q487907", "cash_in": "yes", "currency:USD": "yes", "drive_through": "no", "name": "Bank of America", "operator": "Bank of America", "operator:wikidata": "Q487907", "operator:wikipedia": "en:Bank of America"}}, {"type": "node", "id": 4485990000, "lat": 37.7764792, "lon": -122.4167552, "tags": {"amenity": "fast_food", "cuisine": "pizza", "level": "0", "name": "Slice House by Tony Gemignani", "website": "http://www.visitthemarket.com/food/pizzeria/"}}, {"type": "node", "id": 4485990002, "lat": 37.7765237, "lon": -122.4166399, "tags": {"amenity": "restaurant", "cuisine": "tapas", "level": "0", "name": "Tapas Bar", "opening_hours": "Mo-Fr 11:00-20:00", "website": "http://www.visitthemarket.com/food/tapas-bar/"}}, {"type": "node", "id": 4485990003, "lat": 37.7765894, "lon": -122.4165862, "tags": {"amenity": "fast_food", "cuisine": "juice", "level": "0", "name": "Project Juice", "website": "http://www.visitthemarket.com/shops/project-juice/"}}, {"type": "node", "id": 4485990005, "lat": 37.7764241, "lon": -122.4169, "tags": {"amenity": "fast_food", "cuisine": "tex-mex", "level": "0", "name": "Taco Bar", "website": "http://www.visitthemarket.com/food/taco-bar/"}}, {"type": "node", "id": 4666687025, "lat": 37.7752822, "lon": -122.4161381, "tags": {"amenity": "cafe", "brand": "Peet's Coffee", "brand:wikidata": "Q1094101", "cuisine": "coffee_shop", "name": "Peet's Coffee", "opening_hours": "Mo-Fr 05:30-20:00; Sa, Su 06:00-19:00", "phone": "+14156104850", "takeaway": "yes"}}, {"type": "node", "id": 4865692754, "lat": 37.7797342, "lon": -122.419833}, {"type": "node", "id": 4865692755, "lat": 37.7796393, "lon": -122.4198139}, {"type": "node", "id": 4865692756, "lat": 37.7797355, "lon": -122.4198222}, {"type": "node", "id": 4865692757, "lat": 37.7796407, "lon": -122.4198031}, {"type": "node", "id": 4865692790, "lat": 37.7792734, "lon": -122.4198191}, {"type": "node", "id": 4865692791, "lat": 37.7793171, "lon": -122.4197918}, {"type": "node", "id": 4865692806, "lat": 37.7788163, "lon": -122.41863}, {"type": "node", "id": 4865692807, "lat": 37.7787982, "lon": -122.418661}, {"type": "node", "id": 4865692808, "lat": 37.7787804, "lon": -122.4186728}, {"type": "node", "id": 4865692809, "lat": 37.7787866, "lon": -122.4186724}, {"type": "node", "id": 4865692810, "lat": 37.7787957, "lon": -122.4186667}, {"type": "node", "id": 4865692811, "lat": 37.7794152, "lon": -122.4187227}, {"type": "node", "id": 4865692813, "lat": 37.7794634, "lon": -122.4187621}, {"type": "node", "id": 4865692815, "lat": 37.7790837, "lon": -122.4197148}, {"type": "node", "id": 4865692816, "lat": 37.7792303, "lon": -122.4186849}, {"type": "node", "id": 4865692817, "lat": 37.7794512, "lon": -122.4187297}, {"type": "node", "id": 4865692818, "lat": 37.7790921, "lon": -122.4197273}, {"type": "node", "id": 4865692819, "lat": 37.7790992, "lon": -122.4197415}, {"type": "node", "id": 4865692820, "lat": 37.779094, "lon": -122.4197828}, {"type": "node", "id": 4865696521, "lat": 37.7791273, "lon": -122.4197895}, {"type": "node", "id": 4865696861, "lat": 37.7787682, "lon": -122.4186699}, {"type": "node", "id": 4865696862, "lat": 37.7788017, "lon": -122.4186423}, {"type": "node", "id": 4865696863, "lat": 37.7789165, "lon": -122.4186654}, {"type": "node", "id": 4865696864, "lat": 37.779199, "lon": -122.4187224}, {"type": "node", "id": 4865696865, "lat": 37.7794754, "lon": -122.4187782}, {"type": "node", "id": 4865696866, "lat": 37.7794771, "lon": -122.4187647}, {"type": "node", "id": 4865696867, "lat": 37.7792007, "lon": -122.418709}, {"type": "node", "id": 4865696868, "lat": 37.7794475, "lon": -122.4187588}, {"type": "node", "id": 4865696869, "lat": 37.7792267, "lon": -122.4187142}, {"type": "node", "id": 4865696870, "lat": 37.7789184, "lon": -122.4186506}, {"type": "node", "id": 4865696871, "lat": 37.7788027, "lon": -122.4186341}, {"type": "node", "id": 4865696872, "lat": 37.7797653, "lon": -122.4188367}, {"type": "node", "id": 4865696873, "lat": 37.779862, "lon": -122.4188562}, {"type": "node", "id": 4865696874, "lat": 37.7798635, "lon": -122.4188443}, {"type": "node", "id": 4865696875, "lat": 37.7797668, "lon": -122.4188248}, {"type": "node", "id": 4865696876, "lat": 37.7788155, "lon": -122.4186366}, {"type": "node", "id": 4865696877, "lat": 37.7797526, "lon": -122.4198117}, {"type": "node", "id": 4865696878, "lat": 37.7797648, "lon": -122.4197946}, {"type": "node", "id": 4865696879, "lat": 37.7797934, "lon": -122.4195816}, {"type": "node", "id": 4865696880, "lat": 37.7797958, "lon": -122.4195884}, {"type": "node", "id": 4865696881, "lat": 37.7797974, "lon": -122.4195913}, {"type": "node", "id": 4865696882, "lat": 37.7786773, "lon": -122.4196212}, {"type": "node", "id": 4865696883, "lat": 37.7786554, "lon": -122.4195648}, {"type": "node", "id": 4865696884, "lat": 37.7786794, "lon": -122.4193746}, {"type": "node", "id": 4865696885, "lat": 37.7787881, "lon": -122.4196311}, {"type": "node", "id": 4865696886, "lat": 37.7787864, "lon": -122.4196432}, {"type": "node", "id": 4865696887, "lat": 37.7786782, "lon": -122.4196005}, {"type": "node", "id": 4865696888, "lat": 37.778665, "lon": -122.4195723}, {"type": "node", "id": 4865696889, "lat": 37.7786772, "lon": -122.4195914}, {"type": "node", "id": 4865696890, "lat": 37.7787427, "lon": -122.418872}, {"type": "node", "id": 4865696891, "lat": 37.7787628, "lon": -122.418876}, {"type": "node", "id": 4865696892, "lat": 37.7786994, "lon": -122.4193786}, {"type": "node", "id": 4865696893, "lat": 37.7798972, "lon": -122.4189056}, {"type": "node", "id": 4865696894, "lat": 37.7798729, "lon": -122.4188584}, {"type": "node", "id": 4865696895, "lat": 37.7798857, "lon": -122.4189008}, {"type": "node", "id": 4865696896, "lat": 37.7798733, "lon": -122.4188753}, {"type": "node", "id": 4865696897, "lat": 37.7798805, "lon": -122.4188969}, {"type": "node", "id": 4865696898, "lat": 37.7798742, "lon": -122.418884}, {"type": "node", "id": 4865696899, "lat": 37.7798108, "lon": -122.4195962}, {"type": "node", "id": 4865696900, "lat": 37.7798724, "lon": -122.4191004}, {"type": "node", "id": 4865696901, "lat": 37.7797997, "lon": -122.4195935}, {"type": "node", "id": 4865696902, "lat": 37.7798584, "lon": -122.4191033}, {"type": "node", "id": 4865696903, "lat": 37.7798517, "lon": -122.4191158}, {"type": "node", "id": 4865696904, "lat": 37.7798541, "lon": -122.4191091}, {"type": "node", "id": 4865696905, "lat": 37.7798655, "lon": -122.4191011}, {"type": "node", "id": 4865696906, "lat": 37.7797483, "lon": -122.4198248}, {"type": "node", "id": 4865696907, "lat": 37.7797864, "lon": -122.419791}, {"type": "node", "id": 4865696908, "lat": 37.7797722, "lon": -122.4197929}, {"type": "node", "id": 4865696911, "lat": 37.7794702, "lon": -122.4191635}, {"type": "node", "id": 4865696912, "lat": 37.7791056, "lon": -122.4190934}, {"type": "node", "id": 4865696913, "lat": 37.7790796, "lon": -122.4193041}, {"type": "node", "id": 4865696914, "lat": 37.7794435, "lon": -122.4193804}, {"type": "node", "id": 4865696915, "lat": 37.7797591, "lon": -122.4197993}, {"type": "node", "id": 4865696916, "lat": 37.7798767, "lon": -122.4188914}, {"type": "node", "id": 4865696917, "lat": 37.7787918, "lon": -122.4186699}, {"type": "node", "id": 4865696918, "lat": 37.7786744, "lon": -122.4195825}, {"type": "node", "id": 4865696919, "lat": 37.7793514, "lon": -122.4197447}, {"type": "node", "id": 4865696920, "lat": 37.7790765, "lon": -122.4196893}, {"type": "node", "id": 4865697021, "lat": 37.7790736, "lon": -122.4197128}, {"type": "node", "id": 4865697022, "lat": 37.7793484, "lon": -122.4197683}, {"type": "node", "id": 4865697023, "lat": 37.7793124, "lon": -122.4198268}, {"type": "node", "id": 4865697024, "lat": 37.7793341, "lon": -122.4197654}, {"type": "node", "id": 4865697025, "lat": 37.779636, "lon": -122.4190872}, {"type": "node", "id": 4865697026, "lat": 37.7789672, "lon": -122.4189504}, {"type": "node", "id": 4865697029, "lat": 37.7790741, "lon": -122.4194228}, {"type": "node", "id": 4865697030, "lat": 37.7791282, "lon": -122.4189827}, {"type": "node", "id": 4865697031, "lat": 37.7794735, "lon": -122.4190523}, {"type": "node", "id": 4865697032, "lat": 37.7794204, "lon": -122.4194913}, {"type": "node", "id": 4865697033, "lat": 37.7791103, "lon": -122.4190556}, {"type": "node", "id": 4865697034, "lat": 37.7794736, "lon": -122.4191363}, {"type": "node", "id": 4865697035, "lat": 37.7790747, "lon": -122.4193435}, {"type": "node", "id": 4865697036, "lat": 37.7794395, "lon": -122.4194125}, {"type": "node", "id": 4865697037, "lat": 37.7794634, "lon": -122.4191343}, {"type": "node", "id": 4865697038, "lat": 37.7794304, "lon": -122.4194107}, {"type": "node", "id": 4865697039, "lat": 37.779119, "lon": -122.4190573}, {"type": "node", "id": 4865697040, "lat": 37.7790836, "lon": -122.4193453}, {"type": "node", "id": 4865697041, "lat": 37.7789113, "lon": -122.4193877}, {"type": "node", "id": 4865697042, "lat": 37.7795801, "lon": -122.4195244}, {"type": "node", "id": 4865698858, "lat": 37.779233, "lon": -122.4198108}, {"type": "node", "id": 4865698859, "lat": 37.7792164, "lon": -122.4198074}, {"type": "node", "id": 4865699055, "lat": 37.7791617, "lon": -122.4197967}, {"type": "node", "id": 4865699057, "lat": 37.7792447, "lon": -122.4198131}, {"type": "node", "id": 4865699058, "lat": 37.7791813, "lon": -122.4198008}, {"type": "node", "id": 4865699059, "lat": 37.7791996, "lon": -122.419804}, {"type": "node", "id": 4955815867, "lat": 37.7780038, "lon": -122.4143763, "tags": {"barrier": "gate"}}, {"type": "node", "id": 5434001080, "lat": 37.7752806, "lon": -122.419816}, {"type": "node", "id": 5434001257, "lat": 37.7786129, "lon": -122.4161622}, {"type": "node", "id": 5434001261, "lat": 37.7783527, "lon": -122.4164272}, {"type": "node", "id": 5567691693, "lat": 37.7788254, "lon": -122.4158405}, {"type": "node", "id": 5595082426, "lat": 37.7765015, "lon": -122.4169426, "tags": {"amenity": "food_court", "check_date": "2023-03-11", "level": "0", "name": "The Market", "opening_hours": "Mo-Fr 08:00-20:00", "website": "https://visitthemarket.com/"}}, {"type": "node", "id": 5614112621, "lat": 37.77948, "lon": -122.4133072, "tags": {"addr:postcode": "94103", "amenity": "college", "name": "Minerva Schools at KGI", "phone": "+14156497658", "website": "https://minerva.kgi.edu/"}}, {"type": "node", "id": 5752126141, "lat": 37.7759054, "lon": -122.417985, "tags": {"addr:city": "San Francisco", "addr:housenumber": "1455", "addr:postcode": "94103", "addr:state": "CA", "addr:street": "Market Street", "addr:unit": "3A", "amenity": "restaurant", "check_date:opening_hours": "2022-11-14", "cuisine": "japanese;udon;noodle", "name": "Kagawa-Ya Udon", "note": "Takeaway is available at dinnertime; lunch is dine-in only.", "opening_hours": "Mo-Fr 11:00-14:00,17:00-20:00", "reservation": "no", "takeaway": "no", "website": "https://kagawayaudon.com/"}}, {"type": "node", "id": 6427415718, "lat": 37.7775104, "lon": -122.4170055, "tags": {"addr:city": "San Francisco", "addr:housenumber": "1390", "addr:postcode": "94102", "addr:state": "CA", "addr:street": "Market Street", "addr:unit": "Lobby", "amenity": "post_office", "check_date": "2023-09-17", "check_date:opening_hours": "2022-12-20", "name": "USPS Fox Plaza", "opening_hours": "Mo-Fr 09:00-17:00; PH off", "operator": "United States Postal Service", "operator:short": "USPS", "operator:type": "public", "operator:website": "https://www.usps.com", "operator:wikidata": "Q668687", "operator:wikipedia": "en:United States Postal Service", "short_name": "USPS", "wheelchair": "limited"}}, {"type": "node", "id": 6498980110, "lat": 37.7793845, "lon": -122.4158682, "tags": {"automatic_door": "yes", "door": "sliding", "entrance": "yes"}}, {"type": "node", "id": 6604012604, "lat": 37.7759636, "lon": -122.4186049, "tags": {"addr:housenumber": "1446", "addr:street": "Market Street", "amenity": "coworking_space", "name": "Intersection for the Arts", "opening_hours:signed": "no"}}, {"type": "node", "id": 6604012605, "lat": 37.7762848, "lon": -122.4176365, "tags": {"amenity": "bicycle_parking", "bicycle_parking": "stands", "capacity": "8", "covered": "no"}}, {"type": "node", "id": 6604012610, "lat": 37.7764971, "lon": -122.4179566, "tags": {"amenity": "bicycle_parking", "bicycle_parking": "stands", "capacity": "2", "covered": "no"}}, {"type": "node", "id": 6604012611, "lat": 37.7761299, "lon": -122.4182541, "tags": {"amenity": "bicycle_parking", "bicycle_parking": "stands", "capacity": "4", "covered": "no"}}, {"type": "node", "id": 6604012614, "lat": 37.7757843, "lon": -122.4181249, "tags": {"amenity": "fast_food", "cuisine": "mexican", "level": "1", "name": "Mateo\u2019s", "opening_hours": "Mo-Fr 09:00-20:00; Sa-Su off"}}, {"type": "node", "id": 6604012615, "lat": 37.7756637, "lon": -122.4188253, "tags": {"amenity": "vending_machine", "vending": "newspapers"}}, {"type": "node", "id": 6604012617, "lat": 37.7760364, "lon": -122.418393, "tags": {"amenity": "bicycle_parking", "bicycle_parking": "stands", "capacity": "4", "covered": "no"}}, {"type": "node", "id": 6604012618, "lat": 37.7763182, "lon": -122.4176074, "tags": {"amenity": "waste_basket"}}, {"type": "node", "id": 6604012619, "lat": 37.7762227, "lon": -122.4181304, "tags": {"amenity": "bicycle_parking", "bicycle_parking": "stands", "capacity": "6", "covered": "no"}}, {"type": "node", "id": 6604012621, "lat": 37.7756266, "lon": -122.4188703, "tags": {"amenity": "bicycle_parking", "bicycle_parking": "stands", "capacity": "2", "covered": "no"}}, {"type": "node", "id": 6604031901, "lat": 37.776532, "lon": -122.419284, "tags": {"addr:city": "San Francisco", "addr:housenumber": "100", "addr:postcode": "94102", "addr:state": "CA", "addr:street": "Van Ness Avenue", "amenity": "restaurant", "check_date": "2023-01-05", "name": "The Madrigal", "opening_hours": "Tu-Sa 17:00-00:00", "phone": "+1 415-796-2531", "reservation": "yes", "website": "https://www.themadrigalsf.com/"}}, {"type": "node", "id": 6604051802, "lat": 37.7776572, "lon": -122.4178148}, {"type": "node", "id": 6604085452, "lat": 37.7789169, "lon": -122.4161441, "tags": {"amenity": "clock", "display": "analog", "faces": "1", "level": "4", "support": "wall_mounted", "visibility": "house"}}, {"type": "node", "id": 6604085453, "lat": 37.7789486, "lon": -122.415473, "tags": {"amenity": "cafe", "cuisine": "coffee_shop;sandwich", "indoor": "area", "level": "-1", "level:ref": "L", "name": "Poets Cafe", "opening_hours": "Sa,Su off; Mo-Fr 08:30-15:30", "opening_hours:url": "https://sfpl.org/locations/main-library/poets-cafe", "operator": "Peet\u2019s", "operator:wikidata": "Q1094101", "website": "https://sfpl.org/locations/main-library/poets-cafe"}}, {"type": "node", "id": 6604085455, "lat": 37.7792475, "lon": -122.4157456, "tags": {"amenity": "clock", "display": "analog", "faces": "1", "fixme": "position_estimated", "level": "3", "repeat_on": "4", "support": "wall_mounted", "visibility": "house"}}, {"type": "node", "id": 6604085456, "lat": 37.7791668, "lon": -122.4159266, "tags": {"amenity": "clock", "display": "analog", "faces": "1", "level": "1", "support": "wall_mounted", "visibility": "house"}}, {"type": "node", "id": 6604085461, "lat": 37.7792262, "lon": -122.4158981, "tags": {"amenity": "clock", "display": "analog", "faces": "1", "fixme": "position_estimated", "level": "3", "repeat_on": "4-5", "support": "wall_mounted", "visibility": "house"}}, {"type": "node", "id": 6604085465, "lat": 37.7790025, "lon": -122.4159638, "tags": {"amenity": "community_centre", "check_date": "2023-04-29", "community_centre:for": "juvenile", "description": "For 13-18 year olds", "indoor": "room", "level": "2", "name": "The Mix", "opening_hours": "Mo,Fr 13:00-18:00; Tu-Th 13:00-20:00; Sa-Su 12:00-18:00; PH off", "website": "https://themixatsfpl.org/"}}, {"type": "node", "id": 6604085466, "lat": 37.7789916, "lon": -122.4157733, "tags": {"amenity": "clock", "display": "analog", "faces": "1", "level": "3", "repeat_on": "4-5", "support": "wall_mounted", "visibility": "house"}}, {"type": "node", "id": 6612383951, "lat": 37.7793561, "lon": -122.4168917, "tags": {"amenity": "waste_basket"}}, {"type": "node", "id": 6612383955, "lat": 37.778835, "lon": -122.4167898, "tags": {"amenity": "waste_basket"}}, {"type": "node", "id": 6744687655, "lat": 37.7760111, "lon": -122.414748, "tags": {"addr:housenumber": "1301", "addr:street": "Mission Street", "amenity": "cafe", "internet_access": "wlan", "internet_access:fee": "no", "name": "Coffee Cultures", "outdoor_seating": "no", "phone": "+1-415-896-4272", "website": "https://coffee-cultures.com/"}}, {"type": "node", "id": 6744826036, "lat": 37.7778405, "lon": -122.4132879}, {"type": "node", "id": 6744826037, "lat": 37.7782158, "lon": -122.4137479}, {"type": "node", "id": 6744826038, "lat": 37.7786678, "lon": -122.4131297}, {"type": "node", "id": 6744826041, "lat": 37.7778787, "lon": -122.4133347}, {"type": "node", "id": 6824083564, "lat": 37.7755106, "lon": -122.4184498, "tags": {"amenity": "motorcycle_parking", "covered": "no", "fee": "yes"}}, {"type": "node", "id": 6824083572, "lat": 37.7750312, "lon": -122.417806, "tags": {"amenity": "parking_entrance", "foot": "no", "maxheight": "6'7\""}}, {"type": "node", "id": 6828246909, "lat": 37.7783035, "lon": -122.4126832}, {"type": "node", "id": 7044799090, "lat": 37.7764076, "lon": -122.419772, "tags": {"amenity": "post_box", "check_date:collection_times": "2024-05-08", "collection_times": "Mo-Fr 14:00,14:30; Sa 10:30; Su off", "operator": "United States Postal Service", "operator:short": "USPS", "operator:type": "public", "operator:website": "https://www.usps.com", "operator:wikidata": "Q668687", "operator:wikipedia": "en:United States Postal Service", "ref": "9410200221", "short_name": "USPS"}}, {"type": "node", "id": 7044799091, "lat": 37.7765623, "lon": -122.4185406, "tags": {"amenity": "bicycle_parking", "bicycle_parking": "stands", "capacity": "6", "covered": "no", "fee": "no"}}, {"type": "node", "id": 7044799092, "lat": 37.7763736, "lon": -122.418569, "tags": {"addr:city": "San Francisco", "addr:housenumber": "39", "addr:state": "CA", "addr:street": "Fell Street", "amenity": "bar", "name": "Mr. Tipple's Recording Studio", "opening_hours": "We-Th 18:00-23:00; Fr-Sa 17:30-00:00", "website": "https://mrtipplessf.com/"}}, {"type": "node", "id": 8689758450, "lat": 37.7763302, "lon": -122.4150671, "tags": {"addr:housenumber": "98", "addr:postcode": "94103", "addr:street": "9th Street", "amenity": "cafe", "cuisine": "burger;sandwich;breakfast;asian;local;american;noodle;bagel;donut", "internet_access": "wlan", "name": "All Star Cafe", "opening_hours": "Mo-Sa 06:15-17:45; Su 07:00-17:45", "phone": "415 863-4949", "website": "https://www.grubhub.com/restaurant/all-star-cafe-98-9th-st-san-francisco/321637"}}, {"type": "node", "id": 8707835784, "lat": 37.7775977, "lon": -122.419522, "tags": {"alt_name": "The Bowes Center", "amenity": "arts_centre", "name": "Ute and William K. Bowes, Jr. Center for Performing Arts", "operator": "San Francisco Conservatory of Music", "website": "https://sfcm.edu/about-us/bowes-center"}}, {"type": "node", "id": 8815154622, "lat": 37.7773818, "lon": -122.4167892, "tags": {"amenity": "bicycle_parking", "bicycle_parking": "stands", "capacity": "6", "covered": "no"}}, {"type": "node", "id": 8815154623, "lat": 37.7783705, "lon": -122.4154525, "tags": {"amenity": "bicycle_parking", "bicycle_parking": "stands", "capacity": "6", "covered": "no"}}, {"type": "node", "id": 8815154625, "lat": 37.7769822, "lon": -122.4172513, "tags": {"amenity": "bicycle_parking", "bicycle_parking": "stands", "capacity": "10", "covered": "no"}}, {"type": "node", "id": 8815154626, "lat": 37.778503, "lon": -122.4152927, "tags": {"amenity": "bicycle_parking", "bicycle_parking": "stands", "capacity": "6", "covered": "no"}}, {"type": "node", "id": 8815154627, "lat": 37.7750682, "lon": -122.4190435, "tags": {"amenity": "bicycle_parking", "bicycle_parking": "stands", "capacity": "4", "covered": "no"}}, {"type": "node", "id": 8815154628, "lat": 37.778024, "lon": -122.4158971, "tags": {"amenity": "bicycle_parking", "bicycle_parking": "stands", "capacity": "6", "covered": "no"}}, {"type": "node", "id": 8815154629, "lat": 37.7782869, "lon": -122.4150854, "tags": {"amenity": "bicycle_parking", "bicycle_parking": "stands", "capacity": "4", "covered": "no"}}, {"type": "node", "id": 9394795071, "lat": 37.7777142, "lon": -122.4133657, "tags": {"amenity": "bicycle_parking", "bicycle_parking": "stands", "capacity": "2", "covered": "no", "type": "stands"}}, {"type": "node", "id": 9596443258, "lat": 37.7787681, "lon": -122.4170192, "tags": {"access": "yes", "amenity": "toilets", "check_date": "2022-10-05", "name": "Civic Center Pit Stop", "opening_hours": "Mo-Su 07:00-19:00", "operator": "San Francisco Public Works", "operator:wikidata": "Q7413995", "unisex": "yes", "url": "https://sfpublicworks.wixsite.com/pitstop", "website": "https://www.sfpublicworks.org/pitstop"}}, {"type": "node", "id": 9596443272, "lat": 37.7788065, "lon": -122.4158367}, {"type": "node", "id": 9596443273, "lat": 37.7787721, "lon": -122.4161102}, {"type": "node", "id": 9596443274, "lat": 37.778791, "lon": -122.416114}, {"type": "node", "id": 9596443283, "lat": 37.7788966, "lon": -122.4155427, "tags": {"entrance": "yes"}}, {"type": "node", "id": 9596443284, "lat": 37.7790795, "lon": -122.4163709, "tags": {"entrance": "yes"}}, {"type": "node", "id": 9644246809, "lat": 37.7798449, "lon": -122.413034}, {"type": "node", "id": 9644266129, "lat": 37.7793779, "lon": -122.4132098, "tags": {"addr:city": "San Francisco", "addr:housenumber": "1145", "addr:postcode": "94103", "addr:state": "CA", "addr:street": "Market Street", "amenity": "restaurant", "name": "La Cuisine Cafe", "phone": "+1 415-757-0133", "website": "https://lacuisinecafesf.com/"}}, {"type": "node", "id": 9647295026, "lat": 37.7783946, "lon": -122.4155015, "tags": {"addr:housenumber": "1230", "addr:street": "Market Street", "amenity": "pub", "check_date": "2023-02-13", "cuisine": "american", "food": "yes", "name": "Fermentation Lab", "wheelchair": "yes"}}, {"type": "node", "id": 9659642111, "lat": 37.7746657, "lon": -122.419476, "tags": {"addr:housenumber": "10", "addr:street": "South Van Ness Avenue", "amenity": "events_venue", "description": "Large space hosting various \"immersive\" multimedia exhibitions", "name": "SVN West", "wheelchair": "designated"}}, {"type": "node", "id": 9677876483, "lat": 37.7788963, "lon": -122.4181566}, {"type": "node", "id": 9677876484, "lat": 37.7787601, "lon": -122.4181244}, {"type": "node", "id": 9677876485, "lat": 37.7788936, "lon": -122.4181746}, {"type": "node", "id": 9695696563, "lat": 37.777217, "lon": -122.4169245, "tags": {"amenity": "clock", "date": "yes", "description": "Bicycle counter", "display": "digital", "man_made": "monitoring_station", "operator": "sfmta", "support": "pole", "visibility": "street"}}, {"type": "node", "id": 9881593433, "lat": 37.7779092, "lon": -122.4138472, "tags": {"addr:city": "San Francisco", "addr:housenumber": "50", "addr:postcode": "94103", "addr:state": "CA", "addr:street": "8th Street", "amenity": "taxi", "description": "Taxi Cab at 50 - 8th Street, from 107 feet to 130 feet south of Stevenson Street (23-foot zone)", "name": "Taxi Stand at BEI Hotel", "opening_hours": "All Hours", "operator": "SFMTA", "source": "https://www.sfmta.com/maps/san-francisco-taxi-stand-locations"}}, {"type": "node", "id": 9956028492, "lat": 37.7772288, "lon": -122.41938, "tags": {"addr:city": "San Francisco", "addr:housenumber": "150", "addr:postcode": "94102", "addr:state": "CA", "addr:street": "Van Ness Avenue", "addr:unit": "C", "amenity": "cafe", "branch": "150 Van Ness", "brand": "Starbucks", "brand:wikidata": "Q37158", "check_date": "2023-01-05", "cuisine": "coffee_shop", "indoor_seating": "yes", "name": "Starbucks", "official_name": "Starbucks Coffee", "outdoor_seating": "no", "phone": "+1 415-558-7715", "takeaway": "yes", "website": "https://www.starbucks.com/store-locator/store/1028036/150-van-ness-150-van-ness-san-francisco-ca-941025200-us"}}, {"type": "node", "id": 9966436677, "lat": 37.774516, "lon": -122.4138826, "tags": {"amenity": "bicycle_rental", "bicycle_rental": "docking_station", "brand": "Bay Wheels", "brand:wikidata": "Q16971391", "brand:wikipedia": "en:Bay Wheels", "capacity": "12", "check_date": "2024-04-14", "fee": "yes", "name": "Bay Wheels", "network": "Bay Wheels", "network:wikidata": "Q16971391", "network:wikipedia": "en:Bay Wheels", "operator": "Motivate", "operator:type": "private", "operator:website": "https://motivateco.com/", "operator:wikidata": "Q4735954", "operator:wikipedia": "en:Motivate (company)"}}, {"type": "node", "id": 9976240768, "lat": 37.7746822, "lon": -122.4189226}, {"type": "node", "id": 9976240769, "lat": 37.774679, "lon": -122.418938}, {"type": "node", "id": 9976240770, "lat": 37.7748709, "lon": -122.4190004}, {"type": "node", "id": 10011997155, "lat": 37.7793996, "lon": -122.41664, "tags": {"amenity": "post_box", "fixme": "brand", "name": "USPS", "operator": "United States Postal Service", "operator:short": "USPS", "operator:type": "public", "operator:website": "https://www.usps.com", "operator:wikidata": "Q668687", "operator:wikipedia": "en:United States Postal Service"}}, {"type": "node", "id": 10012021512, "lat": 37.779324, "lon": -122.4164647}, {"type": "node", "id": 10012021513, "lat": 37.7794078, "lon": -122.4164151}, {"type": "node", "id": 10012021514, "lat": 37.7793933, "lon": -122.4165758}, {"type": "node", "id": 10012021515, "lat": 37.7792061, "lon": -122.416532}, {"type": "node", "id": 10012098817, "lat": 37.779301, "lon": -122.4164572}, {"type": "node", "id": 10012098819, "lat": 37.7792189, "lon": -122.416439}, {"type": "node", "id": 10012098822, "lat": 37.7793112, "lon": -122.4165577}, {"type": "node", "id": 10012098824, "lat": 37.7794061, "lon": -122.4164829}, {"type": "node", "id": 10012098825, "lat": 37.7792882, "lon": -122.4165501}, {"type": "node", "id": 10012098826, "lat": 37.7794415, "lon": -122.4161487}, {"type": "node", "id": 10013767308, "lat": 37.7777196, "lon": -122.4195624, "tags": {"amenity": "bar", "check_date": "2023-01-05", "name": "uccello Lounge", "opening_hours": "Mo-We,Su off", "wheelchair": "yes"}}, {"type": "node", "id": 10065566475, "lat": 37.776869, "lon": -122.4175521, "tags": {"addr:city": "San Francisco", "addr:housenumber": "1390", "addr:postcode": "94102", "addr:state": "CA", "addr:street": "Market Street", "addr:unit": "109", "amenity": "clinic", "brand": "Carbon Health", "brand:wikidata": "Q110076263", "healthcare": "clinic", "name": "Carbon Health", "opening_hours": "Mo-Su 09:00-19:00", "operator": "Carbon Health", "operator:type": "private", "operator:wikidata": "Q110076263", "phone": "+1 415-918-5766", "website": "https://carbonhealth.com/locations/san-francisco-ca-civic-center"}}, {"type": "node", "id": 10065602368, "lat": 37.7756362, "lon": -122.418171, "tags": {"addr:city": "San Francisco", "addr:housenumber": "1455", "addr:postcode": "94103", "addr:state": "CA", "addr:street": "Market Street", "amenity": "fast_food", "cuisine": "donut", "name": "Dough"}}, {"type": "node", "id": 10170444002, "lat": 37.7756763, "lon": -122.4195877, "tags": {"addr:city": "San Francisco", "addr:housenumber": "25", "addr:postcode": "94102", "addr:state": "CA", "addr:street": "Van Ness Avenue", "entrance": "main"}}, {"type": "node", "id": 10170444003, "lat": 37.7757418, "lon": -122.4196007, "tags": {"addr:city": "San Francisco", "addr:housenumber": "27", "addr:postcode": "94102", "addr:state": "CA", "addr:street": "Van Ness Avenue", "entrance": "yes"}}, {"type": "node", "id": 10219038067, "lat": 37.7771714, "lon": -122.4162208, "tags": {"addr:city": "San Francisco", "addr:housenumber": "1301", "addr:postcode": "94103", "addr:state": "CA", "addr:street": "Market Street", "amenity": "pharmacy", "brand": "Walgreens", "brand:wikidata": "Q1591889", "dispensing": "yes", "drive_through": "no", "healthcare": "pharmacy", "name": "Walgreens", "opening_hours": "Mo-Fr 10:00-18:00; Sa 09:00-13:30,14:00-17:00; Su 10:00-13:30,14:00-18:00", "phone": "+1 415-861-4010"}}, {"type": "node", "id": 10555180060, "lat": 37.7748559, "lon": -122.4193609, "tags": {"amenity": "waste_basket", "colour": "green", "material": "metal", "waste": "trash"}}, {"type": "node", "id": 10555405433, "lat": 37.7774561, "lon": -122.4168472, "tags": {"amenity": "bank", "check_date": "2023-01-14", "name": "Redwood Credit Union"}}, {"type": "node", "id": 10572259311, "lat": 37.7784378, "lon": -122.415442, "tags": {"amenity": "restaurant", "check_date": "2023-10-19", "cuisine": "american", "name": "Sam's American Eatery", "opening_hours": "16:00-21:00", "website": "https://samssf.com"}}, {"type": "node", "id": 10693852500, "lat": 37.7787851, "lon": -122.4135025, "tags": {"access": "permissive", "amenity": "bench", "backrest": "no", "direction": "55", "level": "0", "lit": "no", "material": "marble"}}, {"type": "node", "id": 10693852501, "lat": 37.7786986, "lon": -122.4136119, "tags": {"access": "permissive", "amenity": "bench", "backrest": "no", "direction": "245", "level": "0", "lit": "no", "material": "marble"}}, {"type": "node", "id": 10693852502, "lat": 37.7787147, "lon": -122.4136347, "tags": {"access": "permissive", "amenity": "bench", "backrest": "no", "colour": "grey", "direction": "245", "level": "0", "lit": "no", "material": "marble"}}, {"type": "node", "id": 10693852504, "lat": 37.7788356, "lon": -122.4137681, "tags": {"amenity": "waste_basket"}}, {"type": "node", "id": 10693862612, "lat": 37.7786629, "lon": -122.414105, "tags": {"amenity": "waste_basket"}}, {"type": "node", "id": 10693862623, "lat": 37.7785166, "lon": -122.4134267, "tags": {"access": "permissive", "amenity": "bench", "backrest": "no", "material": "wood"}}, {"type": "node", "id": 10727279950, "lat": 37.7770932, "lon": -122.4167041, "tags": {"amenity": "bicycle_parking", "bicycle_parking": "stands", "capacity": "2"}}, {"type": "node", "id": 10727286297, "lat": 37.7759275, "lon": -122.4182105, "tags": {"amenity": "bicycle_parking", "bicycle_parking": "stands", "capacity": "8"}}, {"type": "node", "id": 10727286298, "lat": 37.7760034, "lon": -122.4181314, "tags": {"amenity": "bicycle_parking", "bicycle_parking": "stands", "capacity": "4"}}, {"type": "node", "id": 10727292116, "lat": 37.7776456, "lon": -122.4159462, "tags": {"amenity": "bicycle_parking", "bicycle_parking": "stands", "capacity": "2"}}, {"type": "node", "id": 10727295578, "lat": 37.7772568, "lon": -122.4165108, "tags": {"amenity": "bicycle_parking", "bicycle_parking": "stands", "capacity": "4"}}, {"type": "node", "id": 10727297587, "lat": 37.7767969, "lon": -122.4170418, "tags": {"amenity": "bicycle_parking", "bicycle_parking": "stands", "capacity": "8"}}, {"type": "node", "id": 10727297588, "lat": 37.7767109, "lon": -122.4171434, "tags": {"amenity": "bicycle_parking", "bicycle_parking": "stands", "capacity": "4"}}, {"type": "node", "id": 10757570471, "lat": 37.7778169, "lon": -122.4191995}, {"type": "node", "id": 10757570472, "lat": 37.7778246, "lon": -122.4189774}, {"type": "node", "id": 11055204386, "lat": 37.7783833, "lon": -122.4174007, "tags": {"entrance": "yes"}}, {"type": "node", "id": 11100318800, "lat": 37.7791619, "lon": -122.4147347, "tags": {"amenity": "theatre", "check_date": "2023-05-29", "name": "Orpheum Theatre", "wikidata": "Q7103971"}}, {"type": "node", "id": 11198865803, "lat": 37.7782871, "lon": -122.4190366, "tags": {"amenity": "vending_machine", "check_date": "2023-09-17", "operator": "SFMTA", "payment:mastercard": "yes", "payment:visa": "yes", "ref": "446-01003", "vending": "parking_tickets"}}, {"type": "node", "id": 11198865804, "lat": 37.7783066, "lon": -122.4185695, "tags": {"addr:housenumber": "101", "addr:street": "Grove Street", "amenity": "clinic", "check_date": "2023-09-17", "healthcare": "clinic", "name": "Adult Immunization & Travel Clinic", "operator:type": "public"}}, {"type": "node", "id": 11198865805, "lat": 37.7783615, "lon": -122.4184964, "tags": {"amenity": "bicycle_parking", "bicycle_parking": "stands", "capacity": "2", "covered": "no"}}, {"type": "node", "id": 11198865809, "lat": 37.7779214, "lon": -122.4161809, "tags": {"addr:housenumber": "1282", "addr:street": "Market Street", "amenity": "social_facility", "check_date": "2023-09-17", "name": "Rams Peer Wellness Center", "opening_hours": "Mo,We 09:00-17:00; Tu,Th 09:00-19:00; Fr 12:00-17:00; Sa 10:00-12:00"}}, {"type": "node", "id": 11198865810, "lat": 37.7783647, "lon": -122.4155927, "tags": {"addr:housenumber": "1236", "addr:street": "Market Street", "amenity": "social_facility", "check_date": "2023-09-17", "name": "Compass Family Services"}}, {"type": "node", "id": 11230365834, "lat": 37.7751461, "lon": -122.4183503, "tags": {"access": "customers", "amenity": "parking_entrance", "level": "0", "parking": "underground"}}, {"type": "node", "id": 11230365835, "lat": 37.7750702, "lon": -122.418256, "tags": {"amenity": "parking_entrance"}}, {"type": "node", "id": 11232122037, "lat": 37.7776574, "lon": -122.4176447}, {"type": "node", "id": 11232122038, "lat": 37.7777574, "lon": -122.4169116}, {"type": "node", "id": 11232122041, "lat": 37.7776479, "lon": -122.4177167}, {"type": "node", "id": 11670007655, "lat": 37.7745354, "lon": -122.4178609, "tags": {"amenity": "reception_desk", "level": "0"}}, {"type": "node", "id": 11948882034, "lat": 37.7784232, "lon": -122.4170909}, {"type": "node", "id": 11948882037, "lat": 37.7783457, "lon": -122.4176965}, {"type": "way", "id": 24446086, "nodes": [265688843, 9596443284, 265688844, 9596443283, 265688845, 265688846, 6498980110, 265688843], "tags": {"addr:city": "San Francisco", "addr:country": "US", "addr:housenumber": "100", "addr:postcode": "94102", "addr:state": "CA", "addr:street": "Larkin Street", "amenity": "library", "building": "yes", "building:levels": "5", "contact:facebook": "sfpl.org", "contact:instagram": "sfpubliclibrary", "contact:twitter": "SFPublicLibrary", "contact:youtube": "https://www.youtube.com/user/SanFranciscoLibrary", "ele": "18", "email": "info@sfpl.org", "gnis:feature_id": "1655502", "height": "46", "internet_access": "wlan", "name": "San Francisco Main Library", "opening_hours": "Su 12:00-18:00; Mo 09:00-18:00; Tu-Th 09:00-20:00; Fr 12:00-18:00; Sa 10:00-18:00; PH off", "operator": "San Francisco Public Library", "operator:short": "SFPL", "operator:type": "public", "operator:wikidata": "Q2901530", "phone": "+1 415-557-4400", "source": "USGS Geonames", "start_date": "1996", "website": "https://sfpl.org/locations/main-library", "wheelchair": "yes"}}, {"type": "way", "id": 25759141, "nodes": [280929304, 2656287761, 2656287762, 2656287756, 2656287755, 2656287749, 2656287750, 2656287746, 2656287745, 2656287743, 2656287744, 280929168, 2656287738, 6604051802, 2656287737, 11232122041, 11232122037, 2656287739, 2656287740, 11232122038, 2656287741, 280929305, 2656287751, 2656287752, 2656287758, 2656287757, 2656287759, 2656287760, 2656287764, 2656287763, 2656287769, 2656287770, 280929170, 2656287773, 2656287775, 2656287774, 2656287772, 11948882034, 11055204386, 11948882037, 2656287767, 2656287771, 2656287768, 2656287766, 280929304], "tags": {"addr:city": "San Francisco", "addr:housenumber": "99", "addr:postcode": "94102", "addr:state": "CA", "addr:street": "Grove Street", "alt_name": "San Francisco Civic Auditorium", "amenity": "theatre", "building": "yes", "ele": "18", "height": "37 m", "name": "Bill Graham Civic Auditorium", "website": "http://www.billgrahamcivicauditorium.com/", "wheelchair": "yes", "wikidata": "Q4909197", "wikipedia": "en:Bill Graham Civic Auditorium"}}, {"type": "way", "id": 35115837, "nodes": [411931251, 411931252, 411931253, 411931254, 411931251], "tags": {"amenity": "university", "building": "university", "ele": "14", "height": "43 m", "name": "California Institute of Integral Studies", "wikidata": "Q3444680"}}, {"type": "way", "id": 35174721, "nodes": [2616612528, 4163715805, 4163715806, 412580007, 412580917, 10170444002, 10170444003, 412582403, 2616612528], "tags": {"addr:housenumber": "25", "addr:street": "Van Ness Avenue", "amenity": "arts_centre", "building": "yes", "ele": "16", "gnis:feature_id": "1655656", "height": "37", "name": "New Conservatory Theatre Center", "website": "https://www.nctcsf.org", "wikidata": "Q12063810"}}, {"type": "way", "id": 35174746, "nodes": [412578522, 412580139, 1840899271, 1840899231, 1840899290, 412582622, 412576780, 412583296, 412578522], "tags": {"addr:city": "San Francisco", "addr:housenumber": "65", "addr:postcode": "94103", "addr:street": "9th Street", "amenity": "place_of_worship", "building": "yes", "denomination": "quaker", "height": "8", "name": "Quaker Meeting House", "phone": "+1-415-431-7440", "religion": "christian", "website": "https://sfquakers.org/"}}, {"type": "way", "id": 35176133, "nodes": [412582352, 412582353, 412582354, 412582355, 4955815867, 412582352], "tags": {"amenity": "parking"}}, {"type": "way", "id": 35176265, "nodes": [412583136, 412583137, 412583138, 376211776, 412583136], "tags": {"amenity": "parking", "parking": "surface", "surface": "asphalt"}}, {"type": "way", "id": 35176497, "nodes": [412587407, 412587410, 412588519, 412587414, 412587025, 412587023, 412587407], "tags": {"addr:housenumber": "1256;1266", "addr:street": "Market Street", "amenity": "bank", "atm": "yes", "brand": "Wells Fargo", "brand:wikidata": "Q744149", "building": "commercial", "check_date": "2023-09-17", "height": "10", "name": "Wells Fargo", "opening_hours": "Mo-Fr 09:00-17:00", "operator": "Wells Fargo"}}, {"type": "way", "id": 148546179, "nodes": [412587410, 1616394528, 5434001257, 411911085, 412588517, 412588519, 412587410], "tags": {"access": "private", "amenity": "parking", "parking": "surface"}}, {"type": "way", "id": 148546180, "nodes": [412586457, 412586461, 412587023, 412587407, 1616394527, 5434001261, 412586457], "tags": {"amenity": "parking"}}, {"type": "way", "id": 154647388, "nodes": [1671478191, 1671478185, 1671478181, 1671478189, 5434001080, 1671478191], "tags": {"amenity": "parking", "fee": "yes", "parking": "surface"}}, {"type": "way", "id": 227005940, "nodes": [2357396674, 2357396668, 2357396677, 2357396682, 2357396674], "tags": {"addr:city": "San Francisco", "addr:housenumber": "1270", "addr:postcode": "94103", "addr:state": "CA", "addr:street": "Mission Street", "amenity": "fast_food", "building": "yes", "cuisine": "pizza", "height": "4", "name": "SF Pizza"}}, {"type": "way", "id": 227005954, "nodes": [2357396690, 2357396685, 2357396688, 2357396691, 2357396692, 2357396690], "tags": {"amenity": "parking", "parking": "surface"}}, {"type": "way", "id": 255960461, "nodes": [2616628412, 2616628428, 9644246809, 2616628422, 2616628412], "tags": {"addr:city": "San Francisco", "addr:housenumber": "1127", "addr:postcode": "94103", "addr:street": "Market Street", "alt_name": "Strand American Conservatory Theater", "amenity": "theatre", "building": "commercial", "building:levels": "4", "height": "31 m", "name": "Strand Theatre", "note": "reopened theater in 2015 with 283 seat main theater", "website": "https://www.act-sf.org/your-visit/our-venues/the-strand-theater/", "wikidata": "Q44634949"}}, {"type": "way", "id": 282917235, "nodes": [1616378977, 1616378966, 2884715025, 412576570, 2884715014, 412576613, 1616378977], "tags": {"addr:city": "San Francisco", "addr:housenumber": "50", "addr:postcode": "94102", "addr:street": "Fell Street", "amenity": "kindergarten", "name": "Mission Montessori", "old_name": "New College of California", "preschool": "yes", "website": "https://www.missionmontessori.org/"}}, {"type": "way", "id": 494810779, "nodes": [4865697032, 4865697042, 4865697025, 4865697031]}, {"type": "way", "id": 494810795, "nodes": [4865696915, 4865696878, 4865696908, 4865696907, 4865696899, 4865696901, 4865696881, 4865696880, 4865696879, 4865696903, 4865696904, 4865696902, 4865696905, 4865696900, 4865696893, 4865696895, 4865696897, 4865696916, 4865696898, 4865696896, 4865696894, 4865696873, 4865696874, 4865696875, 4865696872, 4865696865, 4865696866, 4865692813, 4865696868, 4865692817, 4865692811, 4018889717, 4865692816, 4865696869, 4865696867, 4865696864, 4865696863, 4865696870, 4865692806, 4865696876, 4865696871, 4865696862, 4865692807, 4865692810, 4865696917, 4865692809, 4865692808, 4865696861, 4865696890, 4865696891, 4865696892, 4865696884, 4865696883, 4865696888, 4865696918, 4865696889, 4865696887, 4865696882, 4865696886, 4865696885, 4865696920, 4865697021, 4865692815, 4865692818, 4865692819, 4865692820, 4865696521, 4865699055, 4865699058, 4865699059, 4018889694, 4865698859, 4865698858, 4865699057, 4865692790, 4865697023, 4865692791, 4865697024, 4865697022, 4865696919, 4865692757, 4865692755, 4865692754, 4865692756, 4865696906, 4865696877, 4865696915]}, {"type": "way", "id": 494814016, "nodes": [4865697030, 4865697026, 4865697041, 4865697029]}, {"type": "way", "id": 494963114, "nodes": [4865696912, 4865696913]}, {"type": "way", "id": 494963115, "nodes": [4865697029, 4865697040, 4865697035, 4865696913]}, {"type": "way", "id": 494963118, "nodes": [4865697030, 4865697039, 4865697033, 4865696912]}, {"type": "way", "id": 494963125, "nodes": [4865696911, 4865696914]}, {"type": "way", "id": 494963126, "nodes": [4865697031, 4865697037, 4865697034, 4865696911]}, {"type": "way", "id": 494963127, "nodes": [4865696914, 4865697036, 4865697038, 4865697032]}, {"type": "way", "id": 718215929, "nodes": [6744826038, 6828246909, 6744826036, 6744826041, 6744826037, 6744826038], "tags": {"access": "yes", "amenity": "parking", "capacity": "1400", "fee": "yes", "layer": "-1", "note": "Vehicles may not exit parking garage after close", "opening_hours": "Mo-Su 05:30-23:30", "parking": "underground", "surface": "concrete"}}, {"type": "way", "id": 1042515876, "nodes": [9596443274, 9596443273, 9596443272, 5567691693, 9596443274], "tags": {"amenity": "bicycle_rental", "bicycle_rental": "docking_station", "brand": "Bay Wheels", "brand:wikidata": "Q16971391", "brand:wikipedia": "en:Bay Wheels", "capacity": "31", "fee": "yes", "name": "Bay Wheels", "network": "Bay Wheels", "network:wikidata": "Q16971391", "network:wikipedia": "en:Bay Wheels", "operator": "Motivate", "operator:type": "private", "operator:website": "https://motivateco.com/", "operator:wikidata": "Q4735954", "operator:wikipedia": "en:Motivate (company)"}}, {"type": "way", "id": 1053090968, "nodes": [9677876485, 2671868144, 9677876484, 9677876483, 9677876485], "tags": {"amenity": "bicycle_rental", "bicycle_rental": "docking_station", "brand": "Bay Wheels", "brand:wikidata": "Q16971391", "brand:wikipedia": "en:Bay Wheels", "capacity": "19", "fee": "yes", "name": "Bay Wheels", "network": "Bay Wheels", "network:wikidata": "Q16971391", "network:wikipedia": "en:Bay Wheels", "operator": "Motivate", "operator:type": "private", "operator:website": "https://motivateco.com/", "operator:wikidata": "Q4735954", "operator:wikipedia": "en:Motivate (company)"}}, {"type": "way", "id": 1088973682, "nodes": [2671868145, 9976240770, 9976240769, 9976240768, 2671868145], "tags": {"amenity": "bicycle_rental", "bicycle_rental": "docking_station", "brand": "Bay Wheels", "brand:wikidata": "Q16971391", "brand:wikipedia": "en:Bay Wheels", "capacity": "19", "fee": "yes", "name": "Bay Wheels", "network": "Bay Wheels", "network:wikidata": "Q16971391", "network:wikipedia": "en:Bay Wheels", "operator": "Motivate", "operator:type": "private", "operator:website": "https://motivateco.com/", "operator:wikidata": "Q4735954", "operator:wikipedia": "en:Motivate (company)", "ref": "South Van Ness at Market"}}, {"type": "way", "id": 1093222049, "nodes": [10012021513, 10012098826], "tags": {"access": "yes", "amenity": "bench", "backrest": "yes", "colour": "grey", "direction": "30", "lit": "no", "material": "stone"}}, {"type": "way", "id": 1093222052, "nodes": [10012098825, 10012098817, 10012098819, 10012021515, 10012098825], "tags": {"amenity": "bench", "backrest": "no", "material": "stone"}}, {"type": "way", "id": 1093222054, "nodes": [10012021514, 10012098824, 10012021512, 10012098822, 10012021514], "tags": {"amenity": "bench", "backrest": "no", "material": "stone", "skateboard": "no"}}, {"type": "way", "id": 1156811811, "nodes": [10757570471, 10757570472, 412583212, 412583213, 412583200, 10757570471], "tags": {"amenity": "university", "name": "Academy of Art University", "website": "https://cdn-academywww.pressidium.com/wp-content/uploads/academy-art-u-campus-map.pdf?pdf=campus-map"}}, {"type": "relation", "id": 7261820, "members": [{"type": "way", "ref": 494810795, "role": "outer"}, {"type": "way", "ref": 494810779, "role": "inner"}, {"type": "way", "ref": 494963126, "role": "inner"}, {"type": "way", "ref": 494963125, "role": "inner"}, {"type": "way", "ref": 494963127, "role": "inner"}, {"type": "way", "ref": 494814016, "role": "inner"}, {"type": "way", "ref": 494963115, "role": "inner"}, {"type": "way", "ref": 494963114, "role": "inner"}, {"type": "way", "ref": 494963118, "role": "inner"}], "tags": {"addr:city": "San Francisco", "addr:housename": "San Francisco City Hall", "addr:housenumber": "1", "addr:postcode": "94102", "addr:state": "CA", "addr:street": "Dr Carlton B Goodlett Place", "amenity": "townhall", "building": "public", "building:colour": "#e3e3de", "building:part": "yes", "ele": "20", "email": "City.Hall.Building.Management@sfgov.org", "gnis:feature_id": "1655544", "height": "30", "name": "San Francisco City Hall", "name:kn": "\u0cb8\u0ccd\u0caf\u0cbe\u0ca8\u0ccd \u0cab\u0ccd\u0cb0\u0cbe\u0ca8\u0ccd\u0cb8\u0cbf\u0cb8\u0ccd\u0c95\u0cca \u0cb8\u0cbf\u0c9f\u0cbf \u0cb9\u0cbe\u0cb2\u0ccd", "name:ko": "\uc0cc\ud504\ub780\uc2dc\uc2a4\ucf54 \uc2dc\uccad", "operator": "City and County of San Francisco", "phone": "+1 415 554 4000", "source": "USGS Geonames", "type": "multipolygon", "website": "https://sfgov.org/cityhall/", "wheelchair": "yes", "wikidata": "Q1093944", "wikipedia": "en:San Francisco City Hall"}}]}