{"version": 0.6, "generator": "Overpass API 0.7.62.4 2390de5a", "osm3s": {"timestamp_osm_base": "2024-12-15T03:51:59Z", "copyright": "The data included in this document is from www.openstreetmap.org. The data is made available under ODbL."}, "elements": [{"type": "node", "id": 419360001, "lat": 40.716761, "lon": -74.0085855, "tags": {"amenity": "bicycle_parking", "bicycle_parking": "stands", "capacity": "2", "check_date": "2023-11-06", "cityracks.housenum": "155", "cityracks.installed": "9/29/2004", "cityracks.large": "0", "cityracks.rackid": "3047", "cityracks.small": "1", "cityracks.street": "Duane St", "covered": "no"}}, {"type": "node", "id": 419360385, "lat": 40.7201865, "lon": -74.0086329, "tags": {"amenity": "bicycle_parking", "capacity": "2", "cityracks.housenum": "124", "cityracks.large": "0", "cityracks.rackid": "2396", "cityracks.small": "1", "cityracks.street": "Hudson St"}}, {"type": "node", "id": 419360669, "lat": 40.7161516, "lon": -74.0092997, "tags": {"amenity": "bicycle_parking", "bicycle_parking": "stands", "capacity": "2", "cityracks.housenum": "121", "cityracks.installed": "9/29/2004", "cityracks.large": "0", "cityracks.rackid": "3042", "cityracks.small": "1", "cityracks.street": "Reade St", "covered": "no"}}, {"type": "node", "id": 419360756, "lat": 40.7161295, "lon": -74.010757, "tags": {"amenity": "bicycle_parking", "capacity": "2", "cityracks.housenum": "164", "cityracks.installed": "9/29/2004", "cityracks.large": "0", "cityracks.rackid": "3083", "cityracks.small": "1", "cityracks.street": "Chambers St"}}, {"type": "node", "id": 419361543, "lat": 40.7196703, "lon": -74.010166, "tags": {"amenity": "bicycle_parking", "capacity": "2", "cityracks.housenum": "375", "cityracks.installed": "7/8/2001", "cityracks.large": "0", "cityracks.rackid": "2349", "cityracks.small": "1", "cityracks.street": "Greenwich St"}}, {"type": "node", "id": 419361950, "lat": 40.7181446, "lon": -74.0106118, "tags": {"amenity": "bicycle_parking", "capacity": "20", "cityracks.housenum": "334", "cityracks.installed": "8/9/2008", "cityracks.large": "4", "cityracks.rackid": "450", "cityracks.small": "0", "cityracks.street": "Greenwich St"}}, {"type": "node", "id": 419362708, "lat": 40.7164124, "lon": -74.0092673, "tags": {"amenity": "bicycle_parking", "capacity": "2", "cityracks.housenum": "19", "cityracks.large": "0", "cityracks.rackid": "2332", "cityracks.small": "1", "cityracks.street": "Hudson St"}}, {"type": "node", "id": 419364250, "lat": 40.7191956, "lon": -74.0086255, "tags": {"amenity": "bicycle_parking", "capacity": "2", "cityracks.housenum": "100", "cityracks.large": "0", "cityracks.rackid": "2357", "cityracks.small": "1", "cityracks.street": "Hudson St"}}, {"type": "node", "id": 419366677, "lat": 40.7191625, "lon": -74.0102525, "tags": {"amenity": "bicycle_parking", "capacity": "2", "cityracks.housenum": "363", "cityracks.installed": "7/8/2001", "cityracks.large": "0", "cityracks.rackid": "2348", "cityracks.small": "1", "cityracks.street": "Greenwich St"}}, {"type": "node", "id": 419367191, "lat": 40.7181855, "lon": -74.0089897, "tags": {"amenity": "bicycle_parking", "capacity": "2", "cityracks.housenum": "71", "cityracks.large": "0", "cityracks.rackid": "2361", "cityracks.small": "1", "cityracks.street": "Hudson St"}}, {"type": "node", "id": 419367400, "lat": 40.7179403, "lon": -74.0104349, "tags": {"amenity": "bicycle_parking", "bicycle_parking": "stands", "capacity": "5", "cityracks.housenum": "333", "cityracks.installed": "8/9/2008", "cityracks.large": "1", "cityracks.rackid": "655", "cityracks.small": "0", "cityracks.street": "Greenwich St"}}, {"type": "node", "id": 889485115, "lat": 40.7162978, "lon": -74.0106665, "tags": {"addr:city": "New York", "addr:country": "US", "addr:housenumber": "167", "addr:postcode": "10013", "addr:state": "NY", "addr:street": "Chambers Street", "amenity": "fast_food", "brand": "McDonald's", "brand:wikidata": "Q38076", "cuisine": "burger", "internet_access": "wlan", "internet_access:fee": "no", "name": "McDonald's", "opening_hours": "24/7", "phone": "+1 212-608-2405", "takeaway": "yes", "website": "https://www.mcdonalds.com/us/en-us/location/11163.html", "wheelchair": "yes"}}, {"type": "node", "id": 889585150, "lat": 40.7172209, "lon": -74.0120268}, {"type": "node", "id": 1487384169, "lat": 40.7166187, "lon": -74.0093343, "tags": {"addr:city": "New York", "addr:housenumber": "25", "addr:postcode": "10007", "addr:street": "Hudson Street", "amenity": "clinic", "check_date": "2023-07-31", "healthcare": "clinic", "level": "0", "name": "One Medical", "operator": "1Life Healthcare", "operator:type": "private", "operator:wikidata": "Q85727717", "wheelchair": "yes"}}, {"type": "node", "id": 1737296851, "lat": 40.7200374, "lon": -74.0127282, "tags": {"access": "yes", "amenity": "toilets"}}, {"type": "node", "id": 1737296859, "lat": 40.7202016, "lon": -74.0139829, "tags": {"addr:city": "New York", "addr:state": "NY", "amenity": "cafe", "name": "Sweet Love Snack Bar", "operator": "Manhattan Youth", "operator:type": "ngo", "operator:website": "https://www.manhattanyouth.org/pier-25/sweet-love-snack-bar", "outdoor_seating": "yes", "website": "https://hudsonriverpark.org/explore-the-park/activities/sweet-love-snack-bar"}}, {"type": "node", "id": 1737296882, "lat": 40.7203293, "lon": -74.0151773, "tags": {"amenity": "drinking_water"}}, {"type": "node", "id": 2482618660, "lat": 40.7191271, "lon": -74.0101564, "tags": {"addr:city": "New York", "addr:housenumber": "363", "addr:postcode": "10013", "addr:street": "Greenwich Street", "amenity": "restaurant", "cuisine": "steak", "name": "American Cut", "phone": "+1 212 226-4736", "website": "https://www.americancutsteakhouse.com/"}}, {"type": "node", "id": 2565683700, "lat": 40.7202044, "lon": -74.0141762, "tags": {"addr:city": "New York", "addr:housenumber": "223", "addr:postcode": "10013", "addr:state": "NY", "addr:street": "West Street", "amenity": "boat_rental", "name": "Atlantic Yachting", "website": "https://atlanticyachting.com/"}}, {"type": "node", "id": 2565683738, "lat": 40.7172048, "lon": -74.0124561}, {"type": "node", "id": 2565683739, "lat": 40.7172055, "lon": -74.0124632}, {"type": "node", "id": 2565683740, "lat": 40.7172164, "lon": -74.0119913}, {"type": "node", "id": 2565683741, "lat": 40.7172144, "lon": -74.0124652}, {"type": "node", "id": 2565683742, "lat": 40.7172238, "lon": -74.01247}, {"type": "node", "id": 2565683743, "lat": 40.717234, "lon": -74.0124761}, {"type": "node", "id": 2565683744, "lat": 40.7172439, "lon": -74.0124841}, {"type": "node", "id": 2565683745, "lat": 40.7172592, "lon": -74.0118426}, {"type": "node", "id": 2565683746, "lat": 40.7172553, "lon": -74.0124962}, {"type": "node", "id": 2565683748, "lat": 40.7172761, "lon": -74.0119795}, {"type": "node", "id": 2565683749, "lat": 40.7172662, "lon": -74.0125137}, {"type": "node", "id": 2565683750, "lat": 40.7172756, "lon": -74.0125375}, {"type": "node", "id": 2565683751, "lat": 40.7172756, "lon": -74.0124415}, {"type": "node", "id": 2565683753, "lat": 40.7176548, "lon": -74.0123609}, {"type": "node", "id": 2565683754, "lat": 40.7176566, "lon": -74.0121171}, {"type": "node", "id": 2565683755, "lat": 40.7176665, "lon": -74.0124519}, {"type": "node", "id": 2565683756, "lat": 40.7176696, "lon": -74.0122298}, {"type": "node", "id": 2565683757, "lat": 40.7176748, "lon": -74.0116816}, {"type": "node", "id": 2565683758, "lat": 40.7176789, "lon": -74.0123962}, {"type": "node", "id": 2565683759, "lat": 40.7176826, "lon": -74.0117501}, {"type": "node", "id": 2565683760, "lat": 40.7177042, "lon": -74.0121655}, {"type": "node", "id": 2565683761, "lat": 40.7177025, "lon": -74.0123523}, {"type": "node", "id": 2565683763, "lat": 40.7177974, "lon": -74.011858}, {"type": "node", "id": 2565683764, "lat": 40.7187894, "lon": -74.0114341}, {"type": "node", "id": 2565683765, "lat": 40.7187964, "lon": -74.0114904}, {"type": "node", "id": 2565683766, "lat": 40.7188257, "lon": -74.0117177}, {"type": "node", "id": 2565683769, "lat": 40.7189673, "lon": -74.0116862}, {"type": "node", "id": 2565683776, "lat": 40.7190196, "lon": -74.012101}, {"type": "node", "id": 2565683781, "lat": 40.7190546, "lon": -74.011459}, {"type": "node", "id": 2565683782, "lat": 40.7190573, "lon": -74.0113759}, {"type": "node", "id": 2565683784, "lat": 40.7190688, "lon": -74.0114559}, {"type": "node", "id": 2565683785, "lat": 40.719077, "lon": -74.0116384}, {"type": "node", "id": 2565683786, "lat": 40.7190874, "lon": -74.0116362}, {"type": "node", "id": 2565683787, "lat": 40.7190903, "lon": -74.0116593}, {"type": "node", "id": 2565683828, "lat": 40.7198995, "lon": -74.0117557}, {"type": "node", "id": 2565683830, "lat": 40.7199184, "lon": -74.0119042}, {"type": "node", "id": 2565683835, "lat": 40.7200006, "lon": -74.0111679}, {"type": "node", "id": 2565683845, "lat": 40.7200656, "lon": -74.0116339}, {"type": "node", "id": 2565683848, "lat": 40.7200967, "lon": -74.011148}, {"type": "node", "id": 2565683849, "lat": 40.7200757, "lon": -74.0117168}, {"type": "node", "id": 2565683853, "lat": 40.7201529, "lon": -74.0116158}, {"type": "node", "id": 2565698836, "lat": 40.7193052, "lon": -74.0100953, "tags": {"addr:city": "New York", "addr:housenumber": "369", "addr:postcode": "10013", "addr:state": "NY", "addr:street": "Greenwich Street", "amenity": "restaurant", "delivery": "yes", "indoor_seating": "yes", "name": "Benvenuto Cafe Tribeca", "opening_hours": "24/7", "outdoor_seating": "yes", "phone": "+1-212-219-2373", "website": "https://www.benvenutocafe.com/"}}, {"type": "node", "id": 2565698941, "lat": 40.7180887, "lon": -74.0115899}, {"type": "node", "id": 2565702295, "lat": 40.7201805, "lon": -74.009907, "tags": {"addr:housenumber": "71", "addr:postcode": "10013", "addr:street": "North Moore Street", "amenity": "restaurant", "indoor_seating": "yes", "name": "Yves", "outdoor_seating": "yes"}}, {"type": "node", "id": 2565708108, "lat": 40.7198226, "lon": -74.0084234, "tags": {"addr:housenumber": "120", "addr:postcode": "10013", "addr:street": "Hudson Street", "amenity": "restaurant", "indoor_seating": "yes", "internet_access": "wlan", "name": "Bubby's", "opening_hours": "Su-Th 08:00-23:00; Fr-Sa 08:00-22:00", "outdoor_seating": "yes", "phone": "+1 212 219 0666", "website": "http://bubbys.com/tribeca/"}}, {"type": "node", "id": 2565708338, "lat": 40.7182466, "lon": -74.0086102}, {"type": "node", "id": 2565708346, "lat": 40.7183103, "lon": -74.0084979}, {"type": "node", "id": 2565708347, "lat": 40.7183144, "lon": -74.0085462}, {"type": "node", "id": 2565708348, "lat": 40.718318, "lon": -74.0085542}, {"type": "node", "id": 2565708349, "lat": 40.7183219, "lon": -74.008468}, {"type": "node", "id": 2565708351, "lat": 40.7183275, "lon": -74.0085359}, {"type": "node", "id": 2565708352, "lat": 40.7183289, "lon": -74.0084834}, {"type": "node", "id": 2565708366, "lat": 40.7184549, "lon": -74.0083638}, {"type": "node", "id": 2565708372, "lat": 40.7185135, "lon": -74.0083179}, {"type": "node", "id": 2565708376, "lat": 40.7185367, "lon": -74.0084177}, {"type": "node", "id": 2565708377, "lat": 40.7185382, "lon": -74.0083724}, {"type": "node", "id": 2565708381, "lat": 40.7185729, "lon": -74.0086791}, {"type": "node", "id": 2569923700, "lat": 40.7172253, "lon": -74.0145741}, {"type": "node", "id": 2569923706, "lat": 40.7173675, "lon": -74.01488}, {"type": "node", "id": 2569923710, "lat": 40.7174433, "lon": -74.0148218}, {"type": "node", "id": 2569923714, "lat": 40.7174617, "lon": -74.0146577}, {"type": "node", "id": 2569923723, "lat": 40.7175118, "lon": -74.014768}, {"type": "node", "id": 2569923737, "lat": 40.717624, "lon": -74.0145303}, {"type": "node", "id": 2569923769, "lat": 40.7176749, "lon": -74.0146423}, {"type": "node", "id": 2569923772, "lat": 40.7176843, "lon": -74.0142138}, {"type": "node", "id": 2569923797, "lat": 40.717825, "lon": -74.0145245}, {"type": "node", "id": 2823340800, "lat": 40.7166348, "lon": -74.0120211, "tags": {"addr:city": "New York", "addr:housenumber": "200", "addr:postcode": "10007", "addr:state": "NY", "addr:street": "Chambers Street", "amenity": "veterinary", "branch": "Tribeca", "email": "Chambers@URvetCare.com", "fee": "yes", "name": "URvet Care", "phone": "+1-646-618-8900", "website": "https://urvetcare.com/locations/tribeca-clinic/"}}, {"type": "node", "id": 2843997702, "lat": 40.7204461, "lon": -74.0114231, "tags": {"amenity": "loading_dock"}}, {"type": "node", "id": 3196459934, "lat": 40.7214618, "lon": -74.0124909, "tags": {"amenity": "waste_basket"}}, {"type": "node", "id": 3196463016, "lat": 40.7201604, "lon": -74.0138737, "tags": {"amenity": "recycling", "location": "overground", "recycling_type": "container"}}, {"type": "node", "id": 3708656607, "lat": 40.7202174, "lon": -74.0103414, "tags": {"amenity": "bicycle_rental", "bicycle_rental": "docking_station", "brand": "Citi Bike", "brand:wikidata": "Q2974438", "capacity": "31", "fee": "yes", "name": "Citi Bike - Greenwich Street & N Moore Street", "network": "Citi Bike", "network:wikidata": "Q2974438", "network:wikipedia": "en:Citi Bike", "operator": "Lyft", "operator:type": "private", "operator:wikidata": "Q17077936", "operator:wikipedia": "en:Lyft", "website": "https://citibikenyc.com/"}}, {"type": "node", "id": 3708656612, "lat": 40.7187099, "lon": -74.0090009, "tags": {"amenity": "bicycle_rental", "bicycle_rental": "docking_station", "brand": "Citi Bike", "brand:wikidata": "Q2974438", "capacity": "27", "fee": "yes", "name": "Citi Bike - Harrison St & Hudson St", "network": "Citi Bike", "network:wikidata": "Q2974438", "network:wikipedia": "en:Citi Bike", "operator": "Lyft", "operator:type": "private", "operator:wikidata": "Q17077936", "operator:wikipedia": "en:Lyft", "payment:cash": "no", "payment:coins": "no", "payment:credit_cards": "yes", "payment:debit_cards": "yes", "payment:visa": "yes", "website": "https://citibikenyc.com/"}}, {"type": "node", "id": 3708656617, "lat": 40.7162873, "lon": -74.0091228, "tags": {"amenity": "bicycle_rental", "bicycle_rental": "docking_station", "brand": "Citi Bike", "brand:wikidata": "Q2974438", "capacity": "39", "fee": "yes", "name": "Citi Bike - Hudson Street & Reade Street", "network": "Citi Bike", "network:wikidata": "Q2974438", "network:wikipedia": "en:Citi Bike", "operator": "Lyft", "operator:type": "private", "operator:wikidata": "Q17077936", "operator:wikipedia": "en:Lyft", "website": "https://citibikenyc.com/"}}, {"type": "node", "id": 3708656782, "lat": 40.7176259, "lon": -74.0131717, "tags": {"amenity": "bicycle_rental", "bicycle_rental": "docking_station", "brand": "Citi Bike", "brand:wikidata": "Q2974438", "capacity": "78", "check_date": "2022-12-28", "fee": "yes", "name": "Citi Bike", "network": "Citi Bike", "network:wikidata": "Q2974438", "network:wikipedia": "en:Citi Bike", "operator": "Lyft", "operator:type": "private", "operator:wikidata": "Q17077936", "operator:wikipedia": "en:Lyft", "payment:cash": "no", "payment:credit_cards": "yes", "payment:debit_cards": "yes", "website": "https://citibikenyc.com/"}}, {"type": "node", "id": 3734070555, "lat": 40.7183098, "lon": -74.008747}, {"type": "node", "id": 4300127190, "lat": 40.7213348, "lon": -74.0097675, "tags": {"addr:city": "New York", "addr:housenumber": "413", "addr:postcode": "10013", "addr:street": "Greenwich Street", "amenity": "fast_food", "brand": "Sweetgreen", "brand:wikidata": "Q18636413", "cuisine": "salad", "name": "Sweetgreen", "takeaway": "yes"}}, {"type": "node", "id": 4326134893, "lat": 40.7211681, "lon": -74.0097607, "tags": {"addr:city": "New York", "addr:housenumber": "409", "addr:street": "Greenwich Street", "amenity": "restaurant", "name": "Wolfgang's Steakhouse"}}, {"type": "node", "id": 4475004133, "lat": 40.7188675, "lon": -74.0098866, "tags": {"addr:city": "New York", "addr:housenumber": "22", "addr:postcode": "10013", "addr:state": "NY", "addr:street": "Harrison Street", "amenity": "dentist", "check_date:opening_hours": "2023-11-06", "healthcare": "dentist", "healthcare:speciality": "orthodontics", "name": "Karpov Orthodontics", "opening_hours:signed": "no", "wheelchair": "yes"}}, {"type": "node", "id": 4739202153, "lat": 40.7199242, "lon": -74.0099897, "tags": {"addr:city": "New York", "amenity": "restaurant", "indoor_seating": "yes", "name": "Locande Verde", "outdoor_seating": "yes"}}, {"type": "node", "id": 4739221813, "lat": 40.7204523, "lon": -74.0087431, "tags": {"addr:city": "Tribeca", "addr:street": "Beach Street", "amenity": "restaurant", "cuisine": "pizza", "name": "Locande"}}, {"type": "node", "id": 4848257933, "lat": 40.7188835, "lon": -74.0101049, "tags": {"addr:city": "New York", "amenity": "cafe", "name": "Chanson le Salon", "name:en": "Chanson le Salon"}}, {"type": "node", "id": 5087627025, "lat": 40.7186778, "lon": -74.0113217, "tags": {"amenity": "parking"}}, {"type": "node", "id": 5163958322, "lat": 40.7165338, "lon": -74.008635, "tags": {"addr:housenumber": "120", "addr:street": "West Broadway", "amenity": "bank", "brand": "Citibank", "brand:wikidata": "Q857063", "name": "Citibank", "short_name": "Citi"}}, {"type": "node", "id": 5403606223, "lat": 40.7167151, "lon": -74.0089922, "tags": {"addr:housenumber": "30", "addr:street": "Hudson Street", "amenity": "restaurant", "cuisine": "japanese", "name": "Brushstroke", "opening_hours": "Mo-Th 17:30-22:30; Fr, Sa 17:30-23:00", "phone": "+1-212-791-3771", "website": "https://davidbouley.com/", "wikidata": "Q4949688"}}, {"type": "node", "id": 5527575303, "lat": 40.721372, "lon": -74.0127131, "tags": {"addr:city": "New York", "amenity": "restaurant", "name": "City Vineyard", "wheelchair": "yes"}}, {"type": "node", "id": 5621655900, "lat": 40.7167273, "lon": -74.0123014, "tags": {"addr:city": "New York", "addr:housenumber": "200", "addr:state": "NY", "addr:street": "Chambers Street", "amenity": "charging_station", "brand": "Blink", "brand:wikidata": "Q62065645", "name": "Blink", "operator": "Blink", "operator:wikidata": "Q62065645", "website": "http://beamcharging.com/beam-locations.html#38"}}, {"type": "node", "id": 5629861780, "lat": 40.7189449, "lon": -74.0129858, "tags": {"access": "yes", "amenity": "drinking_water"}}, {"type": "node", "id": 5629861801, "lat": 40.7174273, "lon": -74.0155159, "tags": {"access": "yes", "amenity": "drinking_water"}}, {"type": "node", "id": 5629862076, "lat": 40.718642, "lon": -74.0130497, "tags": {"access": "yes", "amenity": "drinking_water"}}, {"type": "node", "id": 5629862432, "lat": 40.7202094, "lon": -74.0137533, "tags": {"access": "yes", "amenity": "drinking_water", "fee": "no"}}, {"type": "node", "id": 5983976274, "lat": 40.7167457, "lon": -74.0150136, "tags": {"addr:city": "New York", "addr:housenumber": "315", "addr:postcode": "10282", "addr:state": "NY", "addr:street": "North End Avenue", "amenity": "pharmacy", "brand": "Duane Reade", "brand:wikidata": "Q5310380", "dispensing": "yes", "healthcare": "pharmacy", "name": "Duane Reade", "opening_hours": "Mo-Su 07:00-22:00", "wheelchair": "yes"}}, {"type": "node", "id": 6514469189, "lat": 40.7175076, "lon": -74.011444}, {"type": "node", "id": 6514469190, "lat": 40.7175119, "lon": -74.0114995}, {"type": "node", "id": 6514469191, "lat": 40.7174778, "lon": -74.0115657}, {"type": "node", "id": 6514469192, "lat": 40.7174468, "lon": -74.0115384}, {"type": "node", "id": 6514469193, "lat": 40.7174789, "lon": -74.0114829}, {"type": "node", "id": 6514469194, "lat": 40.7174935, "lon": -74.0114336}, {"type": "node", "id": 6769036965, "lat": 40.7182859, "lon": -74.01025, "tags": {"addr:city": "New York", "addr:housenumber": "339", "addr:street": "Greenwich Street", "amenity": "restaurant", "indoor_seating": "yes", "name": "Sarabeth's", "outdoor_seating": "yes", "phone": "+1 212 966 0421", "website": "https://sarabethsrestaurants.com/locations/tribeca/"}}, {"type": "node", "id": 7144807592, "lat": 40.7201641, "lon": -74.0117384, "tags": {"barrier": "gate"}}, {"type": "node", "id": 7700142886, "lat": 40.7184168, "lon": -74.0102722, "tags": {"amenity": "restaurant", "name": "Vcafe"}}, {"type": "node", "id": 7700147085, "lat": 40.7192662, "lon": -74.010579, "tags": {"addr:city": "New York", "addr:housenumber": "352", "addr:street": "Greenwich Street", "amenity": "pharmacy", "brand": "Duane Reade", "brand:wikidata": "Q5310380", "healthcare": "pharmacy", "name": "Duane Reade"}}, {"type": "node", "id": 7700168785, "lat": 40.7186643, "lon": -74.0102017, "tags": {"addr:housenumber": "323", "addr:street": "Greenwich Street", "amenity": "restaurant", "cuisine": "italian", "indoor_seating": "yes", "name": "Zona Tribeca", "outdoor_seating": "yes"}}, {"type": "node", "id": 8282447791, "lat": 40.7214001, "lon": -74.0144801, "tags": {"amenity": "bench", "backrest": "no", "material": "wood"}}, {"type": "node", "id": 8282447802, "lat": 40.7210893, "lon": -74.0141494, "tags": {"amenity": "bench", "backrest": "no", "material": "wood"}}, {"type": "node", "id": 8282447803, "lat": 40.7210672, "lon": -74.0139668, "tags": {"amenity": "bench", "backrest": "no", "material": "wood"}}, {"type": "node", "id": 8282447804, "lat": 40.7210477, "lon": -74.0138075, "tags": {"amenity": "bench", "backrest": "no", "material": "wood"}}, {"type": "node", "id": 8282447805, "lat": 40.7210256, "lon": -74.0136222, "tags": {"amenity": "bench", "backrest": "no", "material": "wood"}}, {"type": "node", "id": 8282447806, "lat": 40.7210061, "lon": -74.0134614, "tags": {"amenity": "bench", "backrest": "no", "material": "wood"}}, {"type": "node", "id": 8282447807, "lat": 40.7209841, "lon": -74.0132859, "tags": {"amenity": "bench", "backrest": "no", "material": "wood"}}, {"type": "node", "id": 8282447817, "lat": 40.7212938, "lon": -74.0141261, "tags": {"amenity": "bench", "backrest": "no", "material": "wood"}}, {"type": "node", "id": 8282447818, "lat": 40.7212595, "lon": -74.0140929, "tags": {"amenity": "bench", "backrest": "no", "material": "wood"}}, {"type": "node", "id": 8304373491, "lat": 40.7177584, "lon": -74.0119297, "tags": {"entrance": "main"}}, {"type": "node", "id": 8304497483, "lat": 40.7168526, "lon": -74.0115177}, {"type": "node", "id": 8304497484, "lat": 40.7168489, "lon": -74.0115274}, {"type": "node", "id": 8304497485, "lat": 40.7168429, "lon": -74.0115349}, {"type": "node", "id": 8304497486, "lat": 40.7168056, "lon": -74.0115116}, {"type": "node", "id": 8304497487, "lat": 40.7168061, "lon": -74.0115015}, {"type": "node", "id": 8304497488, "lat": 40.716809, "lon": -74.0114921}, {"type": "node", "id": 8304497489, "lat": 40.716814, "lon": -74.0114843}, {"type": "node", "id": 8304497490, "lat": 40.7168354, "lon": -74.0115393}, {"type": "node", "id": 8304497491, "lat": 40.7168272, "lon": -74.0115401}, {"type": "node", "id": 8304497492, "lat": 40.7168193, "lon": -74.0115372}, {"type": "node", "id": 8304497493, "lat": 40.7168125, "lon": -74.011531}, {"type": "node", "id": 8304497494, "lat": 40.7168078, "lon": -74.0115221}, {"type": "node", "id": 8304497495, "lat": 40.7168205, "lon": -74.0114791}, {"type": "node", "id": 8304497496, "lat": 40.716828, "lon": -74.0114768}, {"type": "node", "id": 8304497497, "lat": 40.7168357, "lon": -74.0114778}, {"type": "node", "id": 8304497498, "lat": 40.7168427, "lon": -74.011482}, {"type": "node", "id": 8304497499, "lat": 40.7168484, "lon": -74.0114888}, {"type": "node", "id": 8304497500, "lat": 40.7168522, "lon": -74.0114977}, {"type": "node", "id": 8304497501, "lat": 40.7168536, "lon": -74.0115077}, {"type": "node", "id": 8648127018, "lat": 40.7191453, "lon": -74.0089504, "tags": {"amenity": "restaurant", "indoor_seating": "yes", "name": "Tamarind", "outdoor_seating": "yes"}}, {"type": "node", "id": 8648127019, "lat": 40.7162708, "lon": -74.009711, "tags": {"amenity": "bar", "check_date:opening_hours": "2023-11-06", "indoor_seating": "yes", "name": "Bar 135", "opening_hours:signed": "no", "outdoor_seating": "yes"}}, {"type": "node", "id": 8648127118, "lat": 40.7185511, "lon": -74.0090368, "tags": {"amenity": "bar", "name": "Puffy\u2019s Tavern"}}, {"type": "node", "id": 8648127119, "lat": 40.7162462, "lon": -74.0090041, "tags": {"amenity": "bank", "brand": "Citizens Bank", "brand:wikidata": "Q5122694", "name": "Citizens Bank", "short_name": "Citizens"}}, {"type": "node", "id": 8648174918, "lat": 40.7195736, "lon": -74.0100361, "tags": {"addr:housenumber": "375", "addr:street": "Greenwich Street", "amenity": "restaurant", "indoor_seating": "yes", "name": "Tribeca Grill", "outdoor_seating": "yes"}}, {"type": "node", "id": 8648175817, "lat": 40.7208602, "lon": -74.0098439, "tags": {"addr:housenumber": "399", "addr:street": "Greenwich Street", "amenity": "bar", "name": "Greenwich st. Tavern"}}, {"type": "node", "id": 8648214218, "lat": 40.7211682, "lon": -74.0085684, "tags": {"amenity": "cafe", "name": "Interlude"}}, {"type": "node", "id": 8648214219, "lat": 40.7202542, "lon": -74.008727, "tags": {"amenity": "bank", "brand": "Citibank", "brand:wikidata": "Q857063", "name": "Citibank", "short_name": "Citi"}}, {"type": "node", "id": 8851156980, "lat": 40.719582, "lon": -74.0084712, "tags": {"addr:city": "New York", "addr:housenumber": "112", "addr:postcode": "10013", "addr:state": "NY", "addr:street": "Hudson Street", "amenity": "cafe", "cuisine": "coffee_shop", "indoor_seating": "yes", "name": "Cafe Atelier", "opening_hours": "Mo-Fr 07:00-18:00; Sa 08:00-18:00; Su 08:00-16:00", "outdoor_seating": "yes", "phone": "+1-646-895-0133", "website": "https://www.cafeateliershop.com", "wheelchair": "yes"}}, {"type": "node", "id": 9685847901, "lat": 40.7167422, "lon": -74.011736, "tags": {"access": "yes", "amenity": "bicycle_parking", "bicycle_parking": "stands", "capacity": "2"}}, {"type": "node", "id": 9685920020, "lat": 40.7170854, "lon": -74.0122915, "tags": {"access": "yes", "amenity": "bicycle_parking", "bicycle_parking": "stands", "capacity": "7", "survey:date": "2022-04-22"}}, {"type": "node", "id": 9685920118, "lat": 40.7167793, "lon": -74.0118164, "tags": {"access": "yes", "amenity": "bicycle_parking", "bicycle_parking": "stands", "capacity": "10", "survey:date": "2022-04-22"}}, {"type": "node", "id": 9685920119, "lat": 40.7168354, "lon": -74.0119423, "tags": {"access": "yes", "amenity": "bicycle_parking", "bicycle_parking": "stands", "capacity": "10", "survey:date": "2022-04-22"}}, {"type": "node", "id": 9685920317, "lat": 40.7169379, "lon": -74.0121655, "tags": {"amenity": "bench", "backrest": "yes", "colour": "Grey", "material": "metal", "seats": "3", "survey:date": "2022-04-22"}}, {"type": "node", "id": 9685920318, "lat": 40.7175033, "lon": -74.0133896, "tags": {"access": "yes", "amenity": "bicycle_parking", "bicycle_parking": "stands", "capacity": "5", "covered": "no", "survey:date": "2022-04-22"}}, {"type": "node", "id": 9685983921, "lat": 40.7172194, "lon": -74.0140448, "tags": {"access": "yes", "amenity": "bicycle_parking", "bicycle_parking": "stands", "capacity": "5", "covered": "no"}}, {"type": "node", "id": 9686028539, "lat": 40.7162442, "lon": -74.0148113, "tags": {"access": "yes", "amenity": "bicycle_parking", "bicycle_parking": "stands", "capacity": "5"}}, {"type": "node", "id": 9686042817, "lat": 40.7181795, "lon": -74.0152807, "tags": {"access": "yes", "amenity": "bicycle_parking", "bicycle_parking": "stands", "capacity": "5", "survey:date": "2022-04-22"}}, {"type": "node", "id": 9686042917, "lat": 40.7181764, "lon": -74.0152972, "tags": {"amenity": "waste_basket", "colour": "Grey, black top", "survey:date": "2022-04-22", "waste": "trash"}}, {"type": "node", "id": 9686043217, "lat": 40.7166864, "lon": -74.0137661, "tags": {"access": "yes", "amenity": "bicycle_parking", "bicycle_parking": "stands", "capacity": "5", "covered": "no", "survey:date": "2022-04-22"}}, {"type": "node", "id": 9686043317, "lat": 40.7164971, "lon": -74.0149344, "tags": {"access": "yes", "amenity": "bicycle_parking", "bicycle_parking": "stands", "capacity": "5", "survey:date": "2022-04-22"}}, {"type": "node", "id": 9686047746, "lat": 40.7167249, "lon": -74.0135309, "tags": {"access": "yes", "amenity": "bicycle_parking", "bicycle_parking": "stands", "capacity": "5"}}, {"type": "node", "id": 9686047747, "lat": 40.7174682, "lon": -74.013664, "tags": {"access": "yes", "amenity": "bicycle_parking", "capacity": "5", "covered": "no"}}, {"type": "node", "id": 9686047750, "lat": 40.7161629, "lon": -74.0153552, "tags": {"access": "yes", "amenity": "bicycle_parking", "capacity": "5"}}, {"type": "node", "id": 9686052117, "lat": 40.7165253, "lon": -74.0152014, "tags": {"access": "yes", "amenity": "drinking_water", "survey:date": "2022-04-22"}}, {"type": "node", "id": 9686052217, "lat": 40.7165028, "lon": -74.0151826, "tags": {"amenity": "waste_basket", "colour": "Grey, black top", "material": "metal", "survey:date": "2022-04-22", "waste": "trash"}}, {"type": "node", "id": 10290239862, "lat": 40.7174057, "lon": -74.0114877, "tags": {"amenity": "drinking_water", "bottle": "no", "fountain": "bubbler"}}, {"type": "node", "id": 10290239863, "lat": 40.7172293, "lon": -74.0111952, "tags": {"amenity": "public_bookcase", "public_bookcase:type": "wooden_cabinet"}}, {"type": "node", "id": 10290705664, "lat": 40.7162674, "lon": -74.0096179, "tags": {"access": "yes", "amenity": "parking_entrance", "level": "0", "parking": "underground"}}, {"type": "node", "id": 10689818357, "lat": 40.7177491, "lon": -74.011813}, {"type": "node", "id": 10689818363, "lat": 40.7176784, "lon": -74.0117122}, {"type": "node", "id": 11079100486, "lat": 40.7175985, "lon": -74.0118565, "tags": {"amenity": "bench", "backrest": "no", "material": "concrete"}}, {"type": "node", "id": 11079100487, "lat": 40.7175782, "lon": -74.01188, "tags": {"amenity": "bench", "backrest": "no", "material": "concrete"}}, {"type": "node", "id": 11079100488, "lat": 40.7175587, "lon": -74.0118713, "tags": {"amenity": "bench", "backrest": "no", "material": "concrete"}}, {"type": "node", "id": 11079100489, "lat": 40.7175353, "lon": -74.0118939, "tags": {"amenity": "bench", "backrest": "no", "material": "concrete"}}, {"type": "node", "id": 11079100490, "lat": 40.717517, "lon": -74.0118793, "tags": {"amenity": "bench", "backrest": "no", "material": "concrete"}}, {"type": "node", "id": 11079100491, "lat": 40.7174928, "lon": -74.0119068, "tags": {"amenity": "bench", "backrest": "no", "material": "concrete"}}, {"type": "node", "id": 11079100492, "lat": 40.7174744, "lon": -74.0118784, "tags": {"amenity": "bench", "backrest": "no", "material": "concrete"}}, {"type": "node", "id": 11079100493, "lat": 40.7174495, "lon": -74.0119002, "tags": {"amenity": "bench", "backrest": "no", "material": "concrete"}}, {"type": "node", "id": 11079100494, "lat": 40.7174403, "lon": -74.0118749, "tags": {"amenity": "bench", "backrest": "no", "material": "concrete"}}, {"type": "node", "id": 11079100495, "lat": 40.7174173, "lon": -74.0118885, "tags": {"amenity": "bench", "backrest": "no", "material": "concrete"}}, {"type": "node", "id": 11079100496, "lat": 40.7176125, "lon": -74.0119076, "tags": {"amenity": "bench", "backrest": "no"}}, {"type": "node", "id": 11079100497, "lat": 40.7176461, "lon": -74.0119392, "tags": {"amenity": "bench", "backrest": "no"}}, {"type": "node", "id": 11079100498, "lat": 40.7176849, "lon": -74.0119781, "tags": {"amenity": "bench", "backrest": "no"}}, {"type": "node", "id": 11079180152, "lat": 40.7168707, "lon": -74.0111404, "tags": {"access": "yes", "amenity": "drinking_water", "bottle": "no", "fee": "no", "lit": "yes"}}, {"type": "node", "id": 11079180153, "lat": 40.7170748, "lon": -74.0093657, "tags": {"amenity": "bicycle_rental", "bicycle_rental": "docking_station", "brand": "Citi Bike", "brand:wikidata": "Q2974438", "capacity": "41", "check_date": "2023-11-05", "fee": "yes", "name": "Citi Bike - Duane Street & Hudson Street", "network": "Citi Bike", "network:wikidata": "Q2974438", "operator": "Lyft", "operator:type": "private", "operator:wikidata": "Q17077936"}}, {"type": "node", "id": 11258767163, "lat": 40.7163547, "lon": -74.0098581, "tags": {"amenity": "cafe", "check_date": "2023-11-06", "check_date:opening_hours": "2023-11-06", "indoor_seating": "yes", "name": "Jack's Stir Brew Coffee", "not:brand:wikidata": "Q6110826", "opening_hours:signed": "no", "outdoor_seating": "no", "walkup_window": "yes"}}, {"type": "node", "id": 11258767164, "lat": 40.7164829, "lon": -74.0107245, "tags": {"amenity": "ice_cream", "cuisine": "frozen_yogurt", "indoor_seating": "yes", "name": "Downtown Yogurt", "outdoor_seating": "yes"}}, {"type": "node", "id": 11258774458, "lat": 40.7164801, "lon": -74.0095734, "tags": {"amenity": "restaurant", "indoor_seating": "yes", "name": "Restaurant Marc Forgione", "outdoor_seating": "yes"}}, {"type": "node", "id": 11258776467, "lat": 40.7166853, "lon": -74.01001, "tags": {"amenity": "veterinary", "name": "Reade Street Animal Hospital", "opening_hours": "Mo-Fr 08:00-17:00; Sa 09:00-14:00"}}, {"type": "node", "id": 11258782619, "lat": 40.7164051, "lon": -74.0099519, "tags": {"amenity": "clinic", "healthcare": "clinic", "name": "Pediatric Opthalmic Consultants"}}, {"type": "node", "id": 11258786347, "lat": 40.7166984, "lon": -74.0106634, "tags": {"after_school": "yes", "alt_name": "KinderCare Learning Center", "amenity": "kindergarten", "brand": "KinderCare", "brand:wikidata": "Q6410551", "fee": "yes", "isced:level": "0", "name": "KinderCare", "nursery": "yes", "preschool": "yes"}}, {"type": "node", "id": 11308590266, "lat": 40.7162297, "lon": -74.0094112, "tags": {"access": "yes", "amenity": "bicycle_parking", "bicycle_parking": "stands", "capacity": "2", "covered": "no"}}, {"type": "node", "id": 11322939770, "lat": 40.7172639, "lon": -74.009559, "tags": {"amenity": "waste_basket"}}, {"type": "node", "id": 11322939771, "lat": 40.7172306, "lon": -74.0094327, "tags": {"amenity": "waste_basket"}}, {"type": "node", "id": 11322939801, "lat": 40.717175, "lon": -74.0092763, "tags": {"amenity": "waste_basket"}}, {"type": "node", "id": 11322939802, "lat": 40.7172254, "lon": -74.0094091, "tags": {"amenity": "bench", "backrest": "yes", "material": "wood", "seats": "2"}}, {"type": "node", "id": 11322939803, "lat": 40.7172149, "lon": -74.0093894, "tags": {"amenity": "bench", "backrest": "yes", "material": "wood", "seats": "2"}}, {"type": "node", "id": 11322939804, "lat": 40.7172094, "lon": -74.0093637, "tags": {"amenity": "bench", "backrest": "yes", "material": "wood", "seats": "2"}}, {"type": "node", "id": 11322939805, "lat": 40.7172041, "lon": -74.0093362, "tags": {"amenity": "bench", "backrest": "yes", "material": "wood", "seats": "2"}}, {"type": "node", "id": 11322939806, "lat": 40.7171981, "lon": -74.0093108, "tags": {"amenity": "bench", "backrest": "yes", "material": "wood", "seats": "2"}}, {"type": "node", "id": 11322939807, "lat": 40.7171892, "lon": -74.0092881, "tags": {"amenity": "bench", "backrest": "yes", "material": "wood", "seats": "2"}}, {"type": "node", "id": 11322939820, "lat": 40.7171267, "lon": -74.0092361, "tags": {"amenity": "waste_basket"}}, {"type": "node", "id": 11322939822, "lat": 40.7172483, "lon": -74.0095583, "tags": {"amenity": "bench", "backrest": "yes", "material": "wood", "seats": "2"}}, {"type": "node", "id": 11322939823, "lat": 40.7172334, "lon": -74.0095448, "tags": {"amenity": "bench", "backrest": "yes", "material": "wood", "seats": "2"}}, {"type": "node", "id": 11322939824, "lat": 40.7172187, "lon": -74.0095288, "tags": {"amenity": "bench", "backrest": "yes", "material": "wood", "seats": "2"}}, {"type": "node", "id": 11322939825, "lat": 40.7172033, "lon": -74.0095091, "tags": {"amenity": "bench", "backrest": "yes", "material": "wood", "seats": "2"}}, {"type": "node", "id": 11322939826, "lat": 40.7171924, "lon": -74.0094864, "tags": {"amenity": "bench", "backrest": "yes", "material": "wood", "seats": "2"}}, {"type": "node", "id": 11322939827, "lat": 40.7171846, "lon": -74.0094594, "tags": {"amenity": "bench", "backrest": "yes", "material": "wood", "seats": "2"}}, {"type": "node", "id": 11322939828, "lat": 40.7171814, "lon": -74.0094346, "tags": {"amenity": "bench", "backrest": "yes", "material": "wood", "seats": "2"}}, {"type": "node", "id": 11322939829, "lat": 40.7171803, "lon": -74.0094088, "tags": {"amenity": "bench", "backrest": "yes", "material": "wood", "seats": "2"}}, {"type": "node", "id": 11322939830, "lat": 40.7171801, "lon": -74.0093888, "tags": {"amenity": "bench", "backrest": "yes", "material": "wood", "seats": "2"}}, {"type": "node", "id": 11322939831, "lat": 40.717188, "lon": -74.0093801, "tags": {"amenity": "waste_basket"}}, {"type": "node", "id": 11322939874, "lat": 40.7170523, "lon": -74.0091944, "tags": {"amenity": "waste_basket"}}, {"type": "node", "id": 11329721731, "lat": 40.7175462, "lon": -74.0104404, "tags": {"amenity": "cafe", "name": "Cafe Clementine"}}, {"type": "node", "id": 11329730736, "lat": 40.7192654, "lon": -74.0095941, "tags": {"amenity": "restaurant", "name": "Thalassa"}}, {"type": "node", "id": 11329738117, "lat": 40.7186389, "lon": -74.0098015, "tags": {"amenity": "dentist", "healthcare": "dentist", "healthcare:speciality": "orthodontics", "name": "Bronsky Orthodontics NYC"}}, {"type": "node", "id": 11329746686, "lat": 40.7177777, "lon": -74.0108468, "tags": {"amenity": "ice_cream", "brand": "Van Leeuwen Ice Cream", "brand:wikidata": "Q113632545", "diet:vegan": "yes", "indoor_seating": "yes", "name": "Van Leeuwen Ice Cream", "outdoor_seating": "yes", "takeaway": "yes"}}, {"type": "node", "id": 11329752942, "lat": 40.71886, "lon": -74.0099987, "tags": {"amenity": "restaurant", "indoor_seating": "yes", "name": "Terrior", "outdoor_seating": "yes"}}, {"type": "node", "id": 11329762787, "lat": 40.7187884, "lon": -74.0090911, "tags": {"amenity": "restaurant", "indoor_seating": "yes", "name": "Jungsik", "outdoor_seating": "no"}}, {"type": "node", "id": 11329779866, "lat": 40.7200957, "lon": -74.0087665, "tags": {"amenity": "restaurant", "indoor_seating": "yes", "name": "Mr. Chow", "outdoor_seating": "yes"}}, {"type": "node", "id": 11329790733, "lat": 40.7167674, "lon": -74.0084565, "tags": {"amenity": "restaurant", "cuisine": "sushi", "name": "Sushi of Gari"}}, {"type": "node", "id": 11329802009, "lat": 40.7168416, "lon": -74.0086416, "tags": {"addr:housenumber": "157", "addr:street": "Duane Street", "amenity": "restaurant", "check_date": "2023-11-06", "happy_hours": "Mo-Fri 16:30-18:00; Sa-Su 11:00-16:30", "indoor_seating": "yes", "name": "Khe-Yo", "outdoor_seating": "yes"}}, {"type": "node", "id": 11329802030, "lat": 40.7172588, "lon": -74.0105427, "tags": {"amenity": "restaurant", "cuisine": "italian", "name": "Gigimo"}}, {"type": "node", "id": 11440189778, "lat": 40.7166681, "lon": -74.0140814, "tags": {"amenity": "waste_basket"}}, {"type": "node", "id": 11440189779, "lat": 40.7165541, "lon": -74.0141775, "tags": {"amenity": "bench", "backrest": "yes"}}, {"type": "node", "id": 11440189780, "lat": 40.7165173, "lon": -74.0142144, "tags": {"amenity": "bench", "backrest": "yes"}}, {"type": "node", "id": 11440189781, "lat": 40.7164791, "lon": -74.0142512, "tags": {"amenity": "bench", "backrest": "yes"}}, {"type": "node", "id": 11440189782, "lat": 40.7164416, "lon": -74.0142842, "tags": {"amenity": "bench", "backrest": "yes"}}, {"type": "node", "id": 11440189783, "lat": 40.7163997, "lon": -74.0143171, "tags": {"amenity": "bench", "backrest": "yes"}}, {"type": "node", "id": 11440189784, "lat": 40.7163588, "lon": -74.0143456, "tags": {"amenity": "bench", "backrest": "yes"}}, {"type": "node", "id": 11440189785, "lat": 40.7163187, "lon": -74.0143708, "tags": {"amenity": "bench", "backrest": "yes"}}, {"type": "node", "id": 11440189786, "lat": 40.7161593, "lon": -74.0145298, "tags": {"amenity": "waste_basket"}}, {"type": "node", "id": 11440189813, "lat": 40.7160996, "lon": -74.0144818, "tags": {"amenity": "bench", "backrest": "yes"}}, {"type": "node", "id": 11440189882, "lat": 40.7161775, "lon": -74.0148615, "tags": {"access": "yes", "amenity": "bicycle_parking", "bicycle_parking": "stands", "capacity": "5"}}, {"type": "node", "id": 11440189883, "lat": 40.7161409, "lon": -74.0148888, "tags": {"access": "yes", "amenity": "bicycle_parking", "bicycle_parking": "stands", "capacity": "5"}}, {"type": "node", "id": 11440189884, "lat": 40.7162124, "lon": -74.0148354, "tags": {"access": "yes", "amenity": "bicycle_parking", "bicycle_parking": "stands", "capacity": "5"}}, {"type": "node", "id": 11440189886, "lat": 40.7161085, "lon": -74.0149179, "tags": {"access": "yes", "amenity": "bicycle_parking", "bicycle_parking": "stands", "capacity": "5"}}, {"type": "node", "id": 11440189960, "lat": 40.7168955, "lon": -74.0143012, "tags": {"amenity": "waste_basket"}}, {"type": "node", "id": 11440189969, "lat": 40.7166653, "lon": -74.0137184, "tags": {"access": "yes", "amenity": "bicycle_parking", "bicycle_parking": "stands", "capacity": "5", "covered": "no", "survey:date": "2022-04-22"}}, {"type": "node", "id": 11440189987, "lat": 40.7166289, "lon": -74.0136386, "tags": {"access": "yes", "amenity": "bicycle_parking", "bicycle_parking": "stands", "capacity": "5", "covered": "no", "survey:date": "2022-04-22"}}, {"type": "node", "id": 11440189994, "lat": 40.7164682, "lon": -74.0134237, "tags": {"amenity": "waste_basket"}}, {"type": "node", "id": 11440189995, "lat": 40.7164732, "lon": -74.0134353, "tags": {"amenity": "recycling", "recycling_type": "container"}}, {"type": "node", "id": 11445453879, "lat": 40.7164796, "lon": -74.0148345, "tags": {"amenity": "waste_basket"}}, {"type": "node", "id": 11445453921, "lat": 40.7170166, "lon": -74.0144865, "tags": {"amenity": "waste_basket"}}, {"type": "node", "id": 11445453935, "lat": 40.7171195, "lon": -74.0144057, "tags": {"amenity": "waste_basket"}}, {"type": "node", "id": 11445453975, "lat": 40.7176348, "lon": -74.0140242, "tags": {"amenity": "waste_basket"}}, {"type": "node", "id": 11445453976, "lat": 40.7175607, "lon": -74.0140354, "tags": {"amenity": "waste_basket"}}, {"type": "node", "id": 11445453977, "lat": 40.7174667, "lon": -74.0141699, "tags": {"amenity": "waste_basket"}}, {"type": "node", "id": 11445453978, "lat": 40.7174154, "lon": -74.0140654, "tags": {"amenity": "waste_basket"}}, {"type": "node", "id": 11445665716, "lat": 40.7173026, "lon": -74.0153286, "tags": {"amenity": "bench", "backrest": "yes", "material": "wood"}}, {"type": "node", "id": 11445665717, "lat": 40.7173212, "lon": -74.0153785, "tags": {"amenity": "waste_basket"}}, {"type": "node", "id": 11445665718, "lat": 40.7173171, "lon": -74.0153571, "tags": {"amenity": "bench", "backrest": "yes", "material": "wood"}}, {"type": "node", "id": 11445665719, "lat": 40.7172783, "lon": -74.0153091, "tags": {"amenity": "bench", "backrest": "yes", "material": "wood"}}, {"type": "node", "id": 11445710745, "lat": 40.7170538, "lon": -74.0152221, "tags": {"amenity": "bench", "backrest": "yes", "material": "wood"}}, {"type": "node", "id": 11445710746, "lat": 40.7170304, "lon": -74.0151982, "tags": {"amenity": "bench", "backrest": "yes", "material": "wood"}}, {"type": "node", "id": 11445710747, "lat": 40.7170099, "lon": -74.0151713, "tags": {"amenity": "bench", "backrest": "yes", "material": "wood"}}, {"type": "node", "id": 11445710757, "lat": 40.7172769, "lon": -74.0151518, "tags": {"amenity": "waste_basket"}}, {"type": "node", "id": 11445710787, "lat": 40.7169605, "lon": -74.0152169, "tags": {"amenity": "waste_basket"}}, {"type": "node", "id": 11445710836, "lat": 40.7174458, "lon": -74.0155287, "tags": {"amenity": "waste_basket"}}, {"type": "node", "id": 11445710839, "lat": 40.7173701, "lon": -74.0155182, "tags": {"amenity": "bench", "backrest": "yes", "material": "wood"}}, {"type": "node", "id": 11445710840, "lat": 40.7173982, "lon": -74.0155091, "tags": {"amenity": "bench", "backrest": "yes", "material": "wood"}}, {"type": "node", "id": 11445711072, "lat": 40.7166666, "lon": -74.0155072, "tags": {"amenity": "bench", "backrest": "yes", "material": "wood"}}, {"type": "node", "id": 11445711084, "lat": 40.7166536, "lon": -74.0152744, "tags": {"amenity": "bench", "backrest": "yes", "material": "wood"}}, {"type": "node", "id": 11445711085, "lat": 40.7166346, "lon": -74.0152526, "tags": {"amenity": "bench", "backrest": "yes", "material": "wood"}}, {"type": "node", "id": 11445711086, "lat": 40.7166194, "lon": -74.0152253, "tags": {"amenity": "bench", "backrest": "yes", "material": "wood"}}, {"type": "node", "id": 11445711095, "lat": 40.7169126, "lon": -74.0151656, "tags": {"amenity": "bench", "backrest": "yes", "material": "wood"}}, {"type": "node", "id": 11445711096, "lat": 40.7168899, "lon": -74.0151823, "tags": {"amenity": "bench", "backrest": "yes", "material": "wood"}}, {"type": "node", "id": 11445711097, "lat": 40.716866, "lon": -74.0152019, "tags": {"amenity": "bench", "backrest": "yes", "material": "wood"}}, {"type": "node", "id": 11445711098, "lat": 40.7165883, "lon": -74.0151157, "tags": {"amenity": "waste_basket"}}, {"type": "node", "id": 11445711158, "lat": 40.7166085, "lon": -74.0154436, "tags": {"amenity": "waste_basket"}}, {"type": "node", "id": 11445711163, "lat": 40.7165963, "lon": -74.0153041, "tags": {"amenity": "bench", "backrest": "yes", "material": "wood"}}, {"type": "node", "id": 11445711164, "lat": 40.7166096, "lon": -74.0153352, "tags": {"amenity": "bench", "backrest": "yes", "material": "wood"}}, {"type": "node", "id": 11445711165, "lat": 40.7166164, "lon": -74.0153769, "tags": {"amenity": "bench", "backrest": "yes", "material": "wood"}}, {"type": "node", "id": 11445711166, "lat": 40.7166149, "lon": -74.0154135, "tags": {"amenity": "bench", "backrest": "yes", "material": "wood"}}, {"type": "node", "id": 11445711823, "lat": 40.7170906, "lon": -74.0146588, "tags": {"amenity": "waste_basket"}}, {"type": "node", "id": 11445711882, "lat": 40.7161116, "lon": -74.0153531, "tags": {"access": "yes", "amenity": "bicycle_parking", "capacity": "5"}}, {"type": "node", "id": 11450026928, "lat": 40.7172032, "lon": -74.0149689, "tags": {"access": "yes", "amenity": "parking_entrance", "parking": "underground"}}, {"type": "node", "id": 11453206385, "lat": 40.7180303, "lon": -74.0154007, "tags": {"access": "yes", "amenity": "bicycle_parking", "bicycle_parking": "stands", "capacity": "5", "covered": "no"}}, {"type": "node", "id": 11453206403, "lat": 40.7181258, "lon": -74.0152188, "tags": {"access": "yes", "amenity": "bicycle_parking", "bicycle_parking": "stands", "capacity": "5", "covered": "no"}}, {"type": "node", "id": 11453206404, "lat": 40.7181364, "lon": -74.0151924, "tags": {"amenity": "waste_basket"}}, {"type": "node", "id": 11453260475, "lat": 40.7181843, "lon": -74.0154884, "tags": {"amenity": "bench", "backrest": "yes", "material": "wood"}}, {"type": "node", "id": 11453260476, "lat": 40.7181962, "lon": -74.0154237, "tags": {"amenity": "bench", "backrest": "yes", "material": "wood"}}, {"type": "node", "id": 11453260528, "lat": 40.7180439, "lon": -74.0155321, "tags": {"amenity": "bench", "backrest": "yes", "material": "wood"}}, {"type": "node", "id": 11453260529, "lat": 40.7180648, "lon": -74.0155009, "tags": {"amenity": "bench", "backrest": "yes", "material": "wood"}}, {"type": "node", "id": 11453260530, "lat": 40.7180768, "lon": -74.0154781, "tags": {"amenity": "bench", "backrest": "yes", "material": "wood"}}, {"type": "node", "id": 11453260532, "lat": 40.7181154, "lon": -74.01545, "tags": {"amenity": "bench", "backrest": "yes", "material": "wood"}}, {"type": "node", "id": 11453260533, "lat": 40.7181286, "lon": -74.0154209, "tags": {"amenity": "bench", "backrest": "yes", "material": "wood"}}, {"type": "node", "id": 11453260534, "lat": 40.7181511, "lon": -74.0153642, "tags": {"amenity": "bench", "backrest": "yes", "material": "wood"}}, {"type": "node", "id": 11453260535, "lat": 40.7181615, "lon": -74.0153335, "tags": {"amenity": "bench", "backrest": "yes", "material": "wood"}}, {"type": "node", "id": 11453260573, "lat": 40.7183468, "lon": -74.015387, "tags": {"amenity": "bench", "backrest": "yes", "material": "wood"}}, {"type": "node", "id": 11453260574, "lat": 40.718327, "lon": -74.015402, "tags": {"amenity": "bench", "backrest": "yes", "material": "wood"}}, {"type": "node", "id": 11453260618, "lat": 40.7184175, "lon": -74.0153264, "tags": {"amenity": "waste_basket"}}, {"type": "node", "id": 11453260699, "lat": 40.7182386, "lon": -74.0149045, "tags": {"amenity": "waste_basket"}}, {"type": "node", "id": 11453260700, "lat": 40.7182925, "lon": -74.0150347, "tags": {"amenity": "bench", "backrest": "yes", "material": "wood"}}, {"type": "node", "id": 11453260701, "lat": 40.7182795, "lon": -74.0150043, "tags": {"amenity": "bench", "backrest": "yes", "material": "wood"}}, {"type": "node", "id": 11453260702, "lat": 40.7182665, "lon": -74.0149765, "tags": {"amenity": "bench", "backrest": "yes", "material": "wood"}}, {"type": "node", "id": 11453260703, "lat": 40.7182555, "lon": -74.0149491, "tags": {"amenity": "bench", "backrest": "yes", "material": "wood"}}, {"type": "node", "id": 11453284239, "lat": 40.7175559, "lon": -74.0146629, "tags": {"amenity": "fountain"}}, {"type": "node", "id": 11458237342, "lat": 40.717222, "lon": -74.014536, "tags": {"amenity": "waste_basket"}}, {"type": "node", "id": 11458237346, "lat": 40.7176737, "lon": -74.0141792, "tags": {"amenity": "waste_basket"}}, {"type": "node", "id": 11458237359, "lat": 40.7172374, "lon": -74.0146001}, {"type": "node", "id": 11458237382, "lat": 40.7180516, "lon": -74.014944, "tags": {"amenity": "waste_basket"}}, {"type": "node", "id": 11458405397, "lat": 40.7170137, "lon": -74.0141654, "tags": {"amenity": "waste_basket"}}, {"type": "node", "id": 11458405431, "lat": 40.7167004, "lon": -74.0134758, "tags": {"access": "yes", "amenity": "bicycle_parking", "bicycle_parking": "stands", "capacity": "5"}}, {"type": "node", "id": 11458405443, "lat": 40.716703, "lon": -74.0133665, "tags": {"amenity": "waste_basket"}}, {"type": "node", "id": 11458405463, "lat": 40.7172164, "lon": -74.0132346, "tags": {"amenity": "waste_basket"}}, {"type": "node", "id": 11458405503, "lat": 40.7165812, "lon": -74.0130492, "tags": {"amenity": "waste_basket"}}, {"type": "node", "id": 11458405532, "lat": 40.7172428, "lon": -74.0131597, "tags": {"amenity": "waste_basket"}}, {"type": "node", "id": 11458405533, "lat": 40.7172338, "lon": -74.0131532, "tags": {"amenity": "recycling", "recycling_type": "container"}}, {"type": "node", "id": 11458405554, "lat": 40.71679, "lon": -74.0134093, "tags": {"amenity": "bench", "backrest": "no"}}, {"type": "node", "id": 11458405555, "lat": 40.7167704, "lon": -74.0135206, "tags": {"amenity": "bench", "backrest": "no"}}, {"type": "node", "id": 11458405556, "lat": 40.7167569, "lon": -74.0134873, "tags": {"amenity": "bench", "backrest": "no"}}, {"type": "node", "id": 11458405557, "lat": 40.7168267, "lon": -74.0134007, "tags": {"amenity": "bench", "backrest": "no"}}, {"type": "node", "id": 11458405558, "lat": 40.7168613, "lon": -74.0133904, "tags": {"amenity": "bench", "backrest": "no"}}, {"type": "node", "id": 11458405559, "lat": 40.7169376, "lon": -74.0133711, "tags": {"amenity": "bench", "backrest": "no"}}, {"type": "node", "id": 11458405560, "lat": 40.7169795, "lon": -74.0133609, "tags": {"amenity": "bench", "backrest": "no"}}, {"type": "node", "id": 11458405563, "lat": 40.7175095, "lon": -74.0137508, "tags": {"amenity": "post_box", "operator": "United States Postal Service", "operator:short": "USPS", "operator:type": "public", "operator:website": "https://www.usps.com", "operator:wikidata": "Q668687", "operator:wikipedia": "en:United States Postal Service"}}, {"type": "node", "id": 11458405569, "lat": 40.7175083, "lon": -74.0138189, "tags": {"amenity": "waste_basket"}}, {"type": "node", "id": 11458405584, "lat": 40.7173611, "lon": -74.013938}, {"type": "node", "id": 11458405585, "lat": 40.7173378, "lon": -74.013956}, {"type": "node", "id": 11458405586, "lat": 40.7173306, "lon": -74.0139397}, {"type": "node", "id": 11458405587, "lat": 40.7173539, "lon": -74.0139217}, {"type": "node", "id": 11458405599, "lat": 40.7172478, "lon": -74.0140224, "tags": {"amenity": "waste_basket"}}, {"type": "node", "id": 11458527733, "lat": 40.7175363, "lon": -74.013278, "tags": {"amenity": "waste_basket"}}, {"type": "node", "id": 11458527851, "lat": 40.7178967, "lon": -74.0132293, "tags": {"amenity": "waste_basket"}}, {"type": "node", "id": 11460524927, "lat": 40.7170913, "lon": -74.0124979, "tags": {"amenity": "waste_basket"}}, {"type": "node", "id": 11460524936, "lat": 40.717292, "lon": -74.0125345}, {"type": "node", "id": 11461456865, "lat": 40.7161131, "lon": -74.0123141, "tags": {"access": "yes", "amenity": "bicycle_parking", "bicycle_parking": "stands", "capacity": "6"}}, {"type": "node", "id": 11463708362, "lat": 40.7162784, "lon": -74.0110713, "tags": {"amenity": "waste_basket"}}, {"type": "node", "id": 11463714759, "lat": 40.7163322, "lon": -74.0124897, "tags": {"access": "yes", "amenity": "parking_entrance", "parking": "underground"}}, {"type": "node", "id": 11463821703, "lat": 40.7176836, "lon": -74.0122038}, {"type": "node", "id": 11463821704, "lat": 40.7177153, "lon": -74.0123882}, {"type": "node", "id": 11463821710, "lat": 40.7177049, "lon": -74.0120269}, {"type": "node", "id": 11463821714, "lat": 40.7176873, "lon": -74.0120598}, {"type": "node", "id": 11463822841, "lat": 40.7179524, "lon": -74.0123819, "tags": {"amenity": "bench", "backrest": "no", "material": "metal"}}, {"type": "node", "id": 11463822842, "lat": 40.7180881, "lon": -74.0123501, "tags": {"amenity": "bench", "backrest": "no", "material": "metal"}}, {"type": "node", "id": 11463822843, "lat": 40.7183672, "lon": -74.0122833, "tags": {"amenity": "bench", "backrest": "no", "material": "metal"}}, {"type": "node", "id": 11463822851, "lat": 40.7189458, "lon": -74.0122218, "tags": {"amenity": "waste_basket"}}, {"type": "node", "id": 11463822857, "lat": 40.718951, "lon": -74.0121161}, {"type": "node", "id": 11463822867, "lat": 40.718906, "lon": -74.012126}, {"type": "node", "id": 11463822875, "lat": 40.7190607, "lon": -74.0116657}, {"type": "node", "id": 11463822876, "lat": 40.7191305, "lon": -74.0120768}, {"type": "node", "id": 11463822879, "lat": 40.7187931, "lon": -74.0114634}, {"type": "node", "id": 11463822881, "lat": 40.7190614, "lon": -74.0114037}, {"type": "node", "id": 11463822884, "lat": 40.718875, "lon": -74.0117067}, {"type": "node", "id": 11464555848, "lat": 40.7168143, "lon": -74.0118925, "tags": {"amenity": "waste_basket"}}, {"type": "node", "id": 11464555853, "lat": 40.7169146, "lon": -74.0119252, "tags": {"amenity": "waste_basket"}}, {"type": "node", "id": 11464612390, "lat": 40.7172391, "lon": -74.0119862}, {"type": "node", "id": 11464612421, "lat": 40.7178046, "lon": -74.0117897, "tags": {"amenity": "bench", "backrest": "no", "material": "concrete"}}, {"type": "node", "id": 11464612428, "lat": 40.7182243, "lon": -74.0117194, "tags": {"amenity": "bench", "backrest": "no", "material": "concrete"}}, {"type": "node", "id": 11464612429, "lat": 40.7182553, "lon": -74.011712, "tags": {"amenity": "bench", "backrest": "no", "material": "concrete"}}, {"type": "node", "id": 11464612464, "lat": 40.7166396, "lon": -74.0115058, "tags": {"amenity": "waste_basket"}}, {"type": "node", "id": 11464612465, "lat": 40.7165526, "lon": -74.0113275, "tags": {"amenity": "waste_basket"}}, {"type": "node", "id": 11464612471, "lat": 40.7164383, "lon": -74.011079, "tags": {"amenity": "waste_basket"}}, {"type": "node", "id": 11464612476, "lat": 40.7171535, "lon": -74.0108011, "tags": {"amenity": "waste_basket"}}, {"type": "node", "id": 11464612477, "lat": 40.7172215, "lon": -74.0107857, "tags": {"amenity": "bench", "backrest": "yes", "material": "metal", "seats": "4"}}, {"type": "node", "id": 11464612478, "lat": 40.7173088, "lon": -74.0107634, "tags": {"amenity": "bench", "backrest": "yes", "material": "metal", "seats": "4"}}, {"type": "node", "id": 11464612480, "lat": 40.7173724, "lon": -74.0107491, "tags": {"access": "yes", "amenity": "bicycle_parking", "bicycle_parking": "stands", "capacity": "7"}}, {"type": "node", "id": 11464612481, "lat": 40.7175367, "lon": -74.0106977, "tags": {"amenity": "waste_basket"}}, {"type": "node", "id": 11464612838, "lat": 40.7167966, "lon": -74.0111827, "tags": {"amenity": "bench"}}, {"type": "node", "id": 11464612839, "lat": 40.7168309, "lon": -74.0111608, "tags": {"amenity": "bench"}}, {"type": "node", "id": 11464612848, "lat": 40.7173904, "lon": -74.0108239, "tags": {"amenity": "bench", "backrest": "yes", "material": "wood", "seats": "4"}}, {"type": "node", "id": 11464612849, "lat": 40.7174176, "lon": -74.010873, "tags": {"amenity": "bench", "backrest": "yes", "material": "wood", "seats": "4"}}, {"type": "node", "id": 11464612867, "lat": 40.7174347, "lon": -74.0115582, "tags": {"amenity": "waste_basket"}}, {"type": "node", "id": 11464612887, "lat": 40.7174086, "lon": -74.0114344, "tags": {"amenity": "bench"}}, {"type": "node", "id": 11464612888, "lat": 40.7174068, "lon": -74.0114026, "tags": {"amenity": "bench"}}, {"type": "node", "id": 11464612889, "lat": 40.717379, "lon": -74.0112666, "tags": {"amenity": "bench"}}, {"type": "node", "id": 11464612890, "lat": 40.7173584, "lon": -74.011228, "tags": {"amenity": "bench"}}, {"type": "node", "id": 11464612919, "lat": 40.7176272, "lon": -74.0116235, "tags": {"access": "yes", "amenity": "bicycle_parking", "bicycle_parking": "stands", "capacity": "7"}}, {"type": "node", "id": 11464612920, "lat": 40.7175975, "lon": -74.0116288, "tags": {"access": "yes", "amenity": "bicycle_parking", "bicycle_parking": "stands", "capacity": "7"}}, {"type": "node", "id": 11464612921, "lat": 40.7175795, "lon": -74.011592, "tags": {"access": "yes", "amenity": "bicycle_parking", "bicycle_parking": "stands", "capacity": "7"}}, {"type": "node", "id": 11464612943, "lat": 40.7177846, "lon": -74.0115951, "tags": {"amenity": "bench", "backrest": "yes"}}, {"type": "node", "id": 11464612944, "lat": 40.7177789, "lon": -74.0115633, "tags": {"amenity": "bench", "backrest": "yes"}}, {"type": "node", "id": 11464612945, "lat": 40.7177561, "lon": -74.0115698, "tags": {"amenity": "bench", "backrest": "yes"}}, {"type": "node", "id": 11464612946, "lat": 40.7177596, "lon": -74.0116012, "tags": {"amenity": "bench", "backrest": "yes"}}, {"type": "node", "id": 11464612955, "lat": 40.7178678, "lon": -74.0115797, "tags": {"amenity": "bench", "backrest": "yes"}}, {"type": "node", "id": 11464612956, "lat": 40.7178871, "lon": -74.0115418, "tags": {"amenity": "bench", "backrest": "yes"}}, {"type": "node", "id": 11464612957, "lat": 40.7178928, "lon": -74.0115736, "tags": {"amenity": "bench", "backrest": "yes"}}, {"type": "node", "id": 11464612959, "lat": 40.7178643, "lon": -74.0115483, "tags": {"amenity": "bench", "backrest": "yes"}}, {"type": "node", "id": 11464612968, "lat": 40.7179793, "lon": -74.0115531, "tags": {"amenity": "bench", "backrest": "yes"}}, {"type": "node", "id": 11464612969, "lat": 40.7179986, "lon": -74.0115152, "tags": {"amenity": "bench", "backrest": "yes"}}, {"type": "node", "id": 11464612970, "lat": 40.7180043, "lon": -74.011547, "tags": {"amenity": "bench", "backrest": "yes"}}, {"type": "node", "id": 11464612972, "lat": 40.7179758, "lon": -74.0115217, "tags": {"amenity": "bench", "backrest": "yes"}}, {"type": "node", "id": 11464640921, "lat": 40.7174033, "lon": -74.0105725, "tags": {"amenity": "waste_basket"}}, {"type": "node", "id": 11464657930, "lat": 40.7180663, "lon": -74.0106738, "tags": {"amenity": "bench", "backrest": "yes", "material": "metal", "seats": "4"}}, {"type": "node", "id": 11464657931, "lat": 40.7179902, "lon": -74.010586, "tags": {"amenity": "bench", "backrest": "yes", "material": "metal", "seats": "4"}}, {"type": "node", "id": 11464657933, "lat": 40.7180895, "lon": -74.0105754, "tags": {"access": "yes", "amenity": "bicycle_parking", "bicycle_parking": "stands", "capacity": "5", "covered": "no"}}, {"type": "node", "id": 11464657945, "lat": 40.7181763, "lon": -74.0105408, "tags": {"amenity": "waste_basket"}}, {"type": "node", "id": 11464657946, "lat": 40.7182135, "lon": -74.010555, "tags": {"amenity": "post_box", "operator": "United States Postal Service", "operator:short": "USPS", "operator:type": "public", "operator:website": "https://www.usps.com", "operator:wikidata": "Q668687", "operator:wikipedia": "en:United States Postal Service"}}, {"type": "node", "id": 11464657960, "lat": 40.7181765, "lon": -74.0105676, "tags": {"access": "yes", "amenity": "bicycle_parking", "bicycle_parking": "stands", "capacity": "5", "covered": "no"}}, {"type": "node", "id": 11464657961, "lat": 40.7182001, "lon": -74.0105636, "tags": {"access": "yes", "amenity": "bicycle_parking", "bicycle_parking": "stands", "capacity": "5", "covered": "no"}}, {"type": "node", "id": 11464657963, "lat": 40.7182584, "lon": -74.0106295, "tags": {"amenity": "bench", "backrest": "yes", "material": "metal", "seats": "4"}}, {"type": "node", "id": 11464657964, "lat": 40.7183263, "lon": -74.0106189, "tags": {"amenity": "bench", "backrest": "yes", "material": "metal", "seats": "4"}}, {"type": "node", "id": 11464657965, "lat": 40.7184528, "lon": -74.0105988, "tags": {"amenity": "bench", "backrest": "yes", "material": "metal", "seats": "4"}}, {"type": "node", "id": 11464657970, "lat": 40.7179381, "lon": -74.0107709, "tags": {"amenity": "parking_entrance"}}, {"type": "node", "id": 11464657994, "lat": 40.7185468, "lon": -74.0105083, "tags": {"amenity": "bench", "backrest": "yes", "material": "metal", "seats": "4"}}, {"type": "node", "id": 11464657995, "lat": 40.7186177, "lon": -74.0105009, "tags": {"amenity": "bench", "backrest": "yes", "material": "metal", "seats": "4"}}, {"type": "node", "id": 11464657997, "lat": 40.7187088, "lon": -74.0104503, "tags": {"amenity": "waste_basket"}}, {"type": "node", "id": 11464658055, "lat": 40.7187754, "lon": -74.0113309, "tags": {"access": "yes", "amenity": "parking_entrance", "parking": "underground"}}, {"type": "node", "id": 11464658062, "lat": 40.7188817, "lon": -74.0116556, "tags": {"access": "yes", "amenity": "bicycle_parking", "bicycle_parking": "stands", "capacity": "8", "covered": "no"}}, {"type": "node", "id": 11464658063, "lat": 40.7188699, "lon": -74.0115595, "tags": {"access": "yes", "amenity": "bicycle_parking", "bicycle_parking": "stands", "capacity": "8", "covered": "no"}}, {"type": "node", "id": 11464658064, "lat": 40.7188987, "lon": -74.0117014}, {"type": "node", "id": 11466076644, "lat": 40.719045, "lon": -74.0112705, "tags": {"access": "yes", "amenity": "parking_entrance", "parking": "underground"}}, {"type": "node", "id": 11466117104, "lat": 40.7190656, "lon": -74.0114303}, {"type": "node", "id": 11466636779, "lat": 40.7189191, "lon": -74.0104044, "tags": {"amenity": "waste_basket"}}, {"type": "node", "id": 11466636980, "lat": 40.7190409, "lon": -74.0105567, "tags": {"amenity": "bench", "backrest": "yes", "material": "metal", "seats": "4"}}, {"type": "node", "id": 11466636981, "lat": 40.7190985, "lon": -74.0105476, "tags": {"amenity": "bench", "backrest": "yes", "material": "metal", "seats": "4"}}, {"type": "node", "id": 11466636982, "lat": 40.7190639, "lon": -74.0104935, "tags": {"amenity": "bench", "backrest": "yes", "material": "metal", "seats": "4"}}, {"type": "node", "id": 11466636984, "lat": 40.7191525, "lon": -74.0105402, "tags": {"amenity": "bench", "backrest": "yes", "material": "metal", "seats": "4"}}, {"type": "node", "id": 11466636985, "lat": 40.7191742, "lon": -74.010477, "tags": {"amenity": "bench", "backrest": "yes", "material": "metal", "seats": "4"}}, {"type": "node", "id": 11466637026, "lat": 40.7193735, "lon": -74.0104432, "tags": {"amenity": "bench", "backrest": "yes", "material": "metal", "seats": "4"}}, {"type": "node", "id": 11466637027, "lat": 40.7195211, "lon": -74.0104186, "tags": {"amenity": "bench", "backrest": "yes", "material": "metal", "seats": "4"}}, {"type": "node", "id": 11466637069, "lat": 40.7194908, "lon": -74.0103297, "tags": {"amenity": "post_box", "operator": "United States Postal Service", "operator:short": "USPS", "operator:type": "public", "operator:website": "https://www.usps.com", "operator:wikidata": "Q668687", "operator:wikipedia": "en:United States Postal Service"}}, {"type": "node", "id": 11466637111, "lat": 40.7195975, "lon": -74.0104047, "tags": {"access": "yes", "amenity": "bicycle_parking", "bicycle_parking": "stands", "capacity": "9"}}, {"type": "node", "id": 11466637156, "lat": 40.7197895, "lon": -74.0104413, "tags": {"access": "yes", "amenity": "parking_entrance", "parking": "underground"}}, {"type": "node", "id": 11466637219, "lat": 40.7198556, "lon": -74.010363, "tags": {"access": "yes", "amenity": "bicycle_parking", "bicycle_parking": "stands", "capacity": "5"}}, {"type": "node", "id": 11466637239, "lat": 40.7199121, "lon": -74.0102803, "tags": {"amenity": "bench", "backrest": "yes", "material": "metal", "seats": "4"}}, {"type": "node", "id": 11466637241, "lat": 40.7200261, "lon": -74.0102206, "tags": {"amenity": "waste_basket"}}, {"type": "node", "id": 11466637272, "lat": 40.7202128, "lon": -74.0118453, "tags": {"access": "yes", "amenity": "bicycle_parking", "bicycle_parking": "stands", "capacity": "5"}}, {"type": "node", "id": 11466637273, "lat": 40.7202079, "lon": -74.0118003, "tags": {"access": "yes", "amenity": "bicycle_parking", "bicycle_parking": "stands", "capacity": "5"}}, {"type": "node", "id": 11466637276, "lat": 40.7200708, "lon": -74.0116764}, {"type": "node", "id": 11466637281, "lat": 40.7201591, "lon": -74.0116984}, {"type": "node", "id": 11466637282, "lat": 40.7201846, "lon": -74.0118999}, {"type": "node", "id": 11466637283, "lat": 40.7197704, "lon": -74.0119913}, {"type": "node", "id": 11466637284, "lat": 40.7197637, "lon": -74.0119384}, {"type": "node", "id": 11466637306, "lat": 40.7193649, "lon": -74.0101802, "tags": {"amenity": "waste_basket"}}, {"type": "node", "id": 11466637313, "lat": 40.7194983, "lon": -74.0101549, "tags": {"amenity": "waste_basket"}}, {"type": "node", "id": 11466637332, "lat": 40.7190337, "lon": -74.0116716}, {"type": "node", "id": 11466637361, "lat": 40.7190862, "lon": -74.0120865}, {"type": "node", "id": 11466637371, "lat": 40.7202031, "lon": -74.0100366, "tags": {"amenity": "waste_basket"}}, {"type": "node", "id": 11466637372, "lat": 40.7200083, "lon": -74.0100678, "tags": {"amenity": "waste_basket"}}, {"type": "node", "id": 11466760264, "lat": 40.7202149, "lon": -74.0119562, "tags": {"amenity": "waste_basket"}}, {"type": "node", "id": 11466760265, "lat": 40.7203985, "lon": -74.0119176, "tags": {"amenity": "waste_basket"}}, {"type": "node", "id": 11466760287, "lat": 40.7204067, "lon": -74.0117272, "tags": {"amenity": "bench", "backrest": "yes", "material": "wood"}}, {"type": "node", "id": 11466760306, "lat": 40.7204364, "lon": -74.011314, "tags": {"amenity": "loading_dock"}}, {"type": "node", "id": 11466760315, "lat": 40.7203964, "lon": -74.0112258, "tags": {"amenity": "bench", "backrest": "yes", "material": "wood"}}, {"type": "node", "id": 11466760324, "lat": 40.7203815, "lon": -74.0110434}, {"type": "node", "id": 11466760325, "lat": 40.7204042, "lon": -74.0110395}, {"type": "node", "id": 11466760326, "lat": 40.7204008, "lon": -74.0110049}, {"type": "node", "id": 11466760327, "lat": 40.7203776, "lon": -74.0110088}, {"type": "node", "id": 11466760332, "lat": 40.7203724, "lon": -74.0109503}, {"type": "node", "id": 11466760333, "lat": 40.7203931, "lon": -74.010947}, {"type": "node", "id": 11466760334, "lat": 40.72039, "lon": -74.010912}, {"type": "node", "id": 11466760335, "lat": 40.7203694, "lon": -74.0109152}, {"type": "node", "id": 11466760336, "lat": 40.7203646, "lon": -74.0108616}, {"type": "node", "id": 11466760337, "lat": 40.7203853, "lon": -74.0108584}, {"type": "node", "id": 11466760338, "lat": 40.7203819, "lon": -74.0108215}, {"type": "node", "id": 11466760339, "lat": 40.7203601, "lon": -74.0108249}, {"type": "node", "id": 11466760360, "lat": 40.7203537, "lon": -74.0110527, "tags": {"amenity": "bench", "armrest": "no", "backrest": "no", "material": "wood"}}, {"type": "node", "id": 11466760365, "lat": 40.7203555, "lon": -74.0110115}, {"type": "node", "id": 11466760366, "lat": 40.7203444, "lon": -74.0110134}, {"type": "node", "id": 11466760367, "lat": 40.7203387, "lon": -74.0109581}, {"type": "node", "id": 11466760368, "lat": 40.7203499, "lon": -74.0109561}, {"type": "node", "id": 11466760369, "lat": 40.720346, "lon": -74.0109196}, {"type": "node", "id": 11466760370, "lat": 40.7203348, "lon": -74.0109216}, {"type": "node", "id": 11466760371, "lat": 40.7203292, "lon": -74.0108662}, {"type": "node", "id": 11466760372, "lat": 40.7203403, "lon": -74.0108642}, {"type": "node", "id": 11466760373, "lat": 40.7203368, "lon": -74.0108288}, {"type": "node", "id": 11466760374, "lat": 40.7203258, "lon": -74.0108308}, {"type": "node", "id": 11466760375, "lat": 40.7203234, "lon": -74.0108079}, {"type": "node", "id": 11466760392, "lat": 40.720309, "lon": -74.0107826, "tags": {"amenity": "waste_basket"}}, {"type": "node", "id": 11466760393, "lat": 40.7203104, "lon": -74.0107907, "tags": {"amenity": "recycling", "recycling_type": "container"}}, {"type": "node", "id": 11466760398, "lat": 40.7204334, "lon": -74.0108064, "tags": {"amenity": "bench", "backrest": "yes", "material": "wood"}}, {"type": "node", "id": 11466760404, "lat": 40.7203018, "lon": -74.010705, "tags": {"amenity": "bench", "backrest": "yes", "material": "wood"}}, {"type": "node", "id": 11476951559, "lat": 40.7185957, "lon": -74.0130726, "tags": {"amenity": "recycling", "recycling_type": "container"}}, {"type": "node", "id": 11476951560, "lat": 40.7185852, "lon": -74.0130733, "tags": {"amenity": "waste_basket"}}, {"type": "node", "id": 11476951561, "lat": 40.7186555, "lon": -74.0130274, "tags": {"access": "yes", "amenity": "bicycle_parking", "bicycle_parking": "stands", "capacity": "5"}}, {"type": "node", "id": 11476951568, "lat": 40.7186513, "lon": -74.0129214, "tags": {"amenity": "bench", "backrest": "yes", "material": "metal"}}, {"type": "node", "id": 11476958174, "lat": 40.7187358, "lon": -74.0130916, "tags": {"amenity": "bench", "backrest": "yes", "material": "wood"}}, {"type": "node", "id": 11476958175, "lat": 40.7187551, "lon": -74.0130884, "tags": {"amenity": "bench", "backrest": "yes", "material": "wood"}}, {"type": "node", "id": 11476958176, "lat": 40.7187909, "lon": -74.0130787, "tags": {"amenity": "bench", "backrest": "yes", "material": "wood"}}, {"type": "node", "id": 11476958177, "lat": 40.718813, "lon": -74.0130727, "tags": {"amenity": "bench", "backrest": "yes", "material": "wood"}}, {"type": "node", "id": 11476958178, "lat": 40.7188487, "lon": -74.0130634, "tags": {"amenity": "bench", "backrest": "yes", "material": "wood"}}, {"type": "node", "id": 11476958179, "lat": 40.7188694, "lon": -74.0130602, "tags": {"amenity": "bench", "backrest": "yes", "material": "wood"}}, {"type": "node", "id": 11476958180, "lat": 40.7188994, "lon": -74.0128612, "tags": {"amenity": "bench", "backrest": "yes", "material": "metal"}}, {"type": "node", "id": 11476958212, "lat": 40.7189913, "lon": -74.0129807, "tags": {"amenity": "waste_basket"}}, {"type": "node", "id": 11476958213, "lat": 40.7189982, "lon": -74.0129727, "tags": {"amenity": "recycling", "recycling_type": "container"}}, {"type": "node", "id": 11476958245, "lat": 40.7192558, "lon": -74.0129283, "tags": {"amenity": "recycling", "recycling_type": "container"}}, {"type": "node", "id": 11476958246, "lat": 40.719247, "lon": -74.0129153, "tags": {"amenity": "waste_basket"}}, {"type": "node", "id": 11476958270, "lat": 40.7197879, "lon": -74.012817, "tags": {"amenity": "bench", "backrest": "yes", "material": "metal"}}, {"type": "node", "id": 11476958275, "lat": 40.7197595, "lon": -74.0129011, "tags": {"amenity": "waste_basket"}}, {"type": "node", "id": 11476958338, "lat": 40.7195005, "lon": -74.0129293, "tags": {"amenity": "bench", "backrest": "yes", "material": "wood"}}, {"type": "node", "id": 11476958339, "lat": 40.7195212, "lon": -74.0129261, "tags": {"amenity": "bench", "backrest": "yes", "material": "wood"}}, {"type": "node", "id": 11476958340, "lat": 40.7195597, "lon": -74.0129166, "tags": {"amenity": "bench", "backrest": "yes", "material": "wood"}}, {"type": "node", "id": 11476958341, "lat": 40.7195804, "lon": -74.0129133, "tags": {"amenity": "bench", "backrest": "yes", "material": "wood"}}, {"type": "node", "id": 11476958342, "lat": 40.7196136, "lon": -74.0129054, "tags": {"amenity": "bench", "backrest": "yes", "material": "wood"}}, {"type": "node", "id": 11476958343, "lat": 40.7196343, "lon": -74.0129021, "tags": {"amenity": "bench", "backrest": "yes", "material": "wood"}}, {"type": "node", "id": 11477226449, "lat": 40.7197887, "lon": -74.0130298, "tags": {"access": "yes", "amenity": "bicycle_parking", "bicycle_parking": "stands", "capacity": "5"}}, {"type": "node", "id": 11477226450, "lat": 40.7197827, "lon": -74.0129826, "tags": {"access": "yes", "amenity": "bicycle_parking", "bicycle_parking": "stands", "capacity": "5"}}, {"type": "node", "id": 11477226460, "lat": 40.7198826, "lon": -74.0130408, "tags": {"access": "yes", "amenity": "drinking_water"}}, {"type": "node", "id": 11477226461, "lat": 40.7198676, "lon": -74.0130603, "tags": {"amenity": "bench", "backrest": "yes", "material": "wood"}}, {"type": "node", "id": 11477226462, "lat": 40.7198619, "lon": -74.0130873, "tags": {"amenity": "bench", "backrest": "yes", "material": "wood"}}, {"type": "node", "id": 11477226463, "lat": 40.7198582, "lon": -74.013115, "tags": {"amenity": "bench", "backrest": "yes", "material": "wood"}}, {"type": "node", "id": 11477226464, "lat": 40.719865, "lon": -74.0131808, "tags": {"amenity": "bench", "backrest": "yes", "material": "wood"}}, {"type": "node", "id": 11477226465, "lat": 40.7198728, "lon": -74.0132097, "tags": {"amenity": "bench", "backrest": "yes", "material": "wood"}}, {"type": "node", "id": 11477226466, "lat": 40.7198835, "lon": -74.0132336, "tags": {"amenity": "bench", "backrest": "yes", "material": "wood"}}, {"type": "node", "id": 11477226467, "lat": 40.7199451, "lon": -74.013303, "tags": {"amenity": "bench", "backrest": "yes", "material": "wood"}}, {"type": "node", "id": 11477226468, "lat": 40.7199634, "lon": -74.0133111, "tags": {"amenity": "bench", "backrest": "yes", "material": "wood"}}, {"type": "node", "id": 11477242669, "lat": 40.7199903, "lon": -74.0133096, "tags": {"amenity": "bench", "backrest": "yes", "material": "wood"}}, {"type": "node", "id": 11477242706, "lat": 40.7200726, "lon": -74.0128842, "tags": {"amenity": "waste_basket"}}, {"type": "node", "id": 11477242707, "lat": 40.7200628, "lon": -74.0128809, "tags": {"amenity": "recycling", "recycling_type": "container"}}, {"type": "node", "id": 11477242725, "lat": 40.7200777, "lon": -74.0129548, "tags": {"amenity": "bench", "backrest": "yes", "material": "wood"}}, {"type": "node", "id": 11477242726, "lat": 40.7200723, "lon": -74.0129289, "tags": {"amenity": "bench", "backrest": "yes", "material": "wood"}}, {"type": "node", "id": 11477242727, "lat": 40.720114, "lon": -74.0129465, "tags": {"amenity": "bench", "backrest": "yes", "material": "wood"}}, {"type": "node", "id": 11477242790, "lat": 40.7201146, "lon": -74.0133308, "tags": {"amenity": "bench", "backrest": "yes", "material": "wood"}}, {"type": "node", "id": 11477242791, "lat": 40.7201393, "lon": -74.0133194, "tags": {"amenity": "bench", "backrest": "yes", "material": "wood"}}, {"type": "node", "id": 11477242792, "lat": 40.720161, "lon": -74.0133199, "tags": {"amenity": "bench", "backrest": "yes", "material": "wood"}}, {"type": "node", "id": 11477242793, "lat": 40.7202659, "lon": -74.0132957, "tags": {"amenity": "bench", "backrest": "yes", "material": "wood"}}, {"type": "node", "id": 11477242821, "lat": 40.7200953, "lon": -74.0137127, "tags": {"amenity": "bench", "backrest": "yes", "material": "wood"}}, {"type": "node", "id": 11477242822, "lat": 40.7200882, "lon": -74.0136654, "tags": {"amenity": "bench", "backrest": "yes", "material": "wood"}}, {"type": "node", "id": 11477242823, "lat": 40.720388, "lon": -74.0136001, "tags": {"amenity": "bench", "backrest": "yes", "material": "wood"}}, {"type": "node", "id": 11477242824, "lat": 40.7203954, "lon": -74.0136511, "tags": {"amenity": "bench", "backrest": "yes", "material": "wood"}}, {"type": "node", "id": 11477242827, "lat": 40.7203684, "lon": -74.0134193, "tags": {"amenity": "bench", "backrest": "yes", "material": "wood"}}, {"type": "node", "id": 11477242828, "lat": 40.720361, "lon": -74.0133683, "tags": {"amenity": "bench", "backrest": "yes", "material": "wood"}}, {"type": "node", "id": 11477242830, "lat": 40.7204795, "lon": -74.0143463, "tags": {"amenity": "bench", "backrest": "yes", "material": "wood"}}, {"type": "node", "id": 11477242831, "lat": 40.7204721, "lon": -74.0142953, "tags": {"amenity": "bench", "backrest": "yes", "material": "wood"}}, {"type": "node", "id": 11477242835, "lat": 40.7200703, "lon": -74.0127134, "tags": {"amenity": "waste_basket"}}, {"type": "node", "id": 11481423003, "lat": 40.7201566, "lon": -74.0137645, "tags": {"amenity": "bench", "backrest": "yes", "material": "wood"}}, {"type": "node", "id": 11481423004, "lat": 40.7201885, "lon": -74.013759, "tags": {"amenity": "bench", "backrest": "yes", "material": "wood"}}, {"type": "node", "id": 11481423005, "lat": 40.7203104, "lon": -74.0137326, "tags": {"amenity": "bench", "backrest": "yes", "material": "wood"}}, {"type": "node", "id": 11481423006, "lat": 40.7203406, "lon": -74.0137254, "tags": {"amenity": "bench", "backrest": "yes", "material": "wood"}}, {"type": "node", "id": 11481423007, "lat": 40.720283, "lon": -74.0137363, "tags": {"access": "yes", "amenity": "bicycle_parking", "bicycle_parking": "stands", "capacity": "5"}}, {"type": "node", "id": 11481423008, "lat": 40.7202608, "lon": -74.01374, "tags": {"access": "yes", "amenity": "bicycle_parking", "bicycle_parking": "stands", "capacity": "5"}}, {"type": "node", "id": 11481423013, "lat": 40.7201222, "lon": -74.013943, "tags": {"amenity": "bench", "backrest": "yes", "material": "wood"}}, {"type": "node", "id": 11481423014, "lat": 40.7201151, "lon": -74.0138957, "tags": {"amenity": "bench", "backrest": "yes", "material": "wood"}}, {"type": "node", "id": 11481423015, "lat": 40.7201698, "lon": -74.0138821, "tags": {"amenity": "waste_basket"}}, {"type": "node", "id": 11481480872, "lat": 40.7201666, "lon": -74.0143579, "tags": {"amenity": "bench", "backrest": "yes", "material": "wood"}}, {"type": "node", "id": 11481480874, "lat": 40.7201737, "lon": -74.0144052, "tags": {"amenity": "bench", "backrest": "yes", "material": "wood"}}, {"type": "node", "id": 11481480876, "lat": 40.7202198, "lon": -74.0145075, "tags": {"amenity": "waste_basket"}}, {"type": "node", "id": 11481480877, "lat": 40.720455, "lon": -74.014458, "tags": {"amenity": "waste_basket"}}, {"type": "node", "id": 11481480883, "lat": 40.7205085, "lon": -74.0145804, "tags": {"access": "yes", "amenity": "bicycle_parking", "bicycle_parking": "stands", "capacity": "5"}}, {"type": "node", "id": 11481480884, "lat": 40.7205246, "lon": -74.0147597, "tags": {"amenity": "bench", "backrest": "yes", "material": "wood"}}, {"type": "node", "id": 11481480885, "lat": 40.720532, "lon": -74.0148107, "tags": {"amenity": "bench", "backrest": "yes", "material": "wood"}}, {"type": "node", "id": 11481480887, "lat": 40.7205527, "lon": -74.0149923, "tags": {"amenity": "bench", "backrest": "yes", "material": "wood"}}, {"type": "node", "id": 11481480888, "lat": 40.7205601, "lon": -74.0150433, "tags": {"amenity": "bench", "backrest": "yes", "material": "wood"}}, {"type": "node", "id": 11481480890, "lat": 40.7205811, "lon": -74.0152239, "tags": {"amenity": "bench", "backrest": "yes", "material": "wood"}}, {"type": "node", "id": 11481480891, "lat": 40.7205885, "lon": -74.0152749, "tags": {"amenity": "bench", "backrest": "yes", "material": "wood"}}, {"type": "node", "id": 11481480895, "lat": 40.7206168, "lon": -74.0155048, "tags": {"amenity": "bench", "backrest": "yes", "material": "wood"}}, {"type": "node", "id": 11481480897, "lat": 40.7206094, "lon": -74.0154538, "tags": {"amenity": "bench", "backrest": "yes", "material": "wood"}}, {"type": "node", "id": 11484323780, "lat": 40.7202259, "lon": -74.0148231, "tags": {"amenity": "bench", "backrest": "yes", "material": "wood"}}, {"type": "node", "id": 11484323782, "lat": 40.720233, "lon": -74.0148704, "tags": {"amenity": "bench", "backrest": "yes", "material": "wood"}}, {"type": "node", "id": 11484323783, "lat": 40.7202544, "lon": -74.0150559, "tags": {"amenity": "bench", "backrest": "yes", "material": "wood"}}, {"type": "node", "id": 11484323785, "lat": 40.7202615, "lon": -74.0151032, "tags": {"amenity": "bench", "backrest": "yes", "material": "wood"}}, {"type": "node", "id": 11484323786, "lat": 40.7202816, "lon": -74.0152887, "tags": {"amenity": "bench", "backrest": "yes", "material": "wood"}}, {"type": "node", "id": 11484323788, "lat": 40.7202887, "lon": -74.015336, "tags": {"amenity": "bench", "backrest": "yes", "material": "wood"}}, {"type": "node", "id": 11484323789, "lat": 40.7203095, "lon": -74.0155199, "tags": {"amenity": "bench", "backrest": "yes", "material": "wood"}}, {"type": "node", "id": 11484381722, "lat": 40.7210777, "lon": -74.0126932, "tags": {"amenity": "bench", "backrest": "no", "material": "wood"}}, {"type": "node", "id": 11484381723, "lat": 40.7210165, "lon": -74.012726, "tags": {"amenity": "bench", "backrest": "no", "material": "wood"}}, {"type": "node", "id": 11484381724, "lat": 40.7209808, "lon": -74.0127016, "tags": {"amenity": "bench", "backrest": "no", "material": "wood"}}, {"type": "node", "id": 11484381725, "lat": 40.7210354, "lon": -74.0126593, "tags": {"amenity": "bench", "backrest": "no", "material": "wood"}}, {"type": "node", "id": 11484381765, "lat": 40.7211778, "lon": -74.0126822, "tags": {"amenity": "bench", "backrest": "no", "material": "wood"}}, {"type": "node", "id": 11484381766, "lat": 40.7212263, "lon": -74.0126617, "tags": {"amenity": "bench", "backrest": "no", "material": "wood"}}, {"type": "node", "id": 11484381767, "lat": 40.7212117, "lon": -74.0127308, "tags": {"amenity": "bench", "backrest": "no", "material": "wood"}}, {"type": "node", "id": 11484381768, "lat": 40.7212503, "lon": -74.0126901, "tags": {"amenity": "bench", "backrest": "no", "material": "wood"}}, {"type": "node", "id": 11484384269, "lat": 40.720977, "lon": -74.0131962, "tags": {"amenity": "waste_basket"}}, {"type": "node", "id": 11484384270, "lat": 40.7209891, "lon": -74.013195, "tags": {"amenity": "recycling", "recycling_type": "container"}}, {"type": "node", "id": 11484384271, "lat": 40.7209124, "lon": -74.0125011, "tags": {"amenity": "waste_basket"}}, {"type": "node", "id": 11484384272, "lat": 40.7209224, "lon": -74.0125028, "tags": {"amenity": "recycling", "recycling_type": "container"}}, {"type": "node", "id": 11484384343, "lat": 40.7214203, "lon": -74.0125778, "tags": {"amenity": "waste_basket"}}, {"type": "node", "id": 11484384344, "lat": 40.7214132, "lon": -74.0125782, "tags": {"amenity": "recycling", "recycling_type": "container"}}, {"type": "node", "id": 11484384345, "lat": 40.7213986, "lon": -74.0125814, "tags": {"amenity": "vending_machine", "vending": "drinks"}}, {"type": "node", "id": 11484409629, "lat": 40.7213801, "lon": -74.015032, "tags": {"amenity": "lounger"}}, {"type": "node", "id": 11484409630, "lat": 40.7213747, "lon": -74.0150182, "tags": {"amenity": "lounger"}}, {"type": "node", "id": 11484409631, "lat": 40.7213692, "lon": -74.0150053, "tags": {"amenity": "lounger"}}, {"type": "node", "id": 11484409632, "lat": 40.7213632, "lon": -74.014993, "tags": {"amenity": "lounger"}}, {"type": "node", "id": 11484409633, "lat": 40.721357, "lon": -74.0149801, "tags": {"amenity": "lounger"}}, {"type": "node", "id": 11484409634, "lat": 40.7213513, "lon": -74.0149672, "tags": {"amenity": "lounger"}}, {"type": "node", "id": 11484409635, "lat": 40.7213458, "lon": -74.0149547, "tags": {"amenity": "lounger"}}, {"type": "node", "id": 11484409636, "lat": 40.7213406, "lon": -74.0149425, "tags": {"amenity": "lounger"}}, {"type": "node", "id": 11484409637, "lat": 40.7213345, "lon": -74.0149285, "tags": {"amenity": "lounger"}}, {"type": "node", "id": 11484409638, "lat": 40.7212871, "lon": -74.0149444, "tags": {"amenity": "lounger"}}, {"type": "node", "id": 11484409639, "lat": 40.7212938, "lon": -74.01496, "tags": {"amenity": "lounger"}}, {"type": "node", "id": 11484409640, "lat": 40.7213013, "lon": -74.0149757, "tags": {"amenity": "lounger"}}, {"type": "node", "id": 11484409641, "lat": 40.721307, "lon": -74.0149885, "tags": {"amenity": "lounger"}}, {"type": "node", "id": 11484409642, "lat": 40.7213129, "lon": -74.0150015, "tags": {"amenity": "lounger"}}, {"type": "node", "id": 11484409643, "lat": 40.7213187, "lon": -74.0150143, "tags": {"amenity": "lounger"}}, {"type": "node", "id": 11484409644, "lat": 40.7213242, "lon": -74.0150269, "tags": {"amenity": "lounger"}}, {"type": "node", "id": 11484409645, "lat": 40.7213305, "lon": -74.0150399, "tags": {"amenity": "lounger"}}, {"type": "node", "id": 11484409646, "lat": 40.7213381, "lon": -74.0150571, "tags": {"amenity": "lounger"}}, {"type": "node", "id": 11484409647, "lat": 40.7213455, "lon": -74.0150732, "tags": {"amenity": "lounger"}}, {"type": "node", "id": 11484409648, "lat": 40.7213567, "lon": -74.0150987, "tags": {"amenity": "lounger"}}, {"type": "node", "id": 11484409649, "lat": 40.7213624, "lon": -74.0151109, "tags": {"amenity": "lounger"}}, {"type": "node", "id": 11484409650, "lat": 40.7213679, "lon": -74.0151234, "tags": {"amenity": "lounger"}}, {"type": "node", "id": 11484409651, "lat": 40.7213728, "lon": -74.0151371, "tags": {"amenity": "lounger"}}, {"type": "node", "id": 11484409652, "lat": 40.7213782, "lon": -74.0151501, "tags": {"amenity": "lounger"}}, {"type": "node", "id": 11484409653, "lat": 40.7213839, "lon": -74.0151624, "tags": {"amenity": "lounger"}}, {"type": "node", "id": 11484409654, "lat": 40.72139, "lon": -74.0151751, "tags": {"amenity": "lounger"}}, {"type": "node", "id": 11484444978, "lat": 40.7213233, "lon": -74.0141526, "tags": {"amenity": "waste_basket"}}, {"type": "node", "id": 11484444992, "lat": 40.7214469, "lon": -74.0148776, "tags": {"amenity": "bench", "backrest": "no", "material": "wood"}}, {"type": "node", "id": 11484444994, "lat": 40.7213985, "lon": -74.0149325, "tags": {"amenity": "waste_basket"}}, {"type": "node", "id": 11484444995, "lat": 40.7213879, "lon": -74.0149288, "tags": {"amenity": "recycling", "recycling_type": "container"}}, {"type": "node", "id": 11484444996, "lat": 40.7214579, "lon": -74.0149875, "tags": {"amenity": "bench", "backrest": "no", "material": "wood"}}, {"type": "node", "id": 11484444997, "lat": 40.7214725, "lon": -74.0151032, "tags": {"amenity": "bench", "backrest": "no", "material": "wood"}}, {"type": "node", "id": 11484445016, "lat": 40.7212447, "lon": -74.0138999, "tags": {"amenity": "bench", "backrest": "yes", "material": "wood"}}, {"type": "node", "id": 11484445017, "lat": 40.7212479, "lon": -74.0135358, "tags": {"amenity": "bench", "backrest": "no", "material": "wood"}}, {"type": "node", "id": 11484445018, "lat": 40.7212464, "lon": -74.0133283, "tags": {"amenity": "bench", "backrest": "no", "material": "wood"}}, {"type": "node", "id": 11484445171, "lat": 40.7214487, "lon": -74.0155164, "tags": {"amenity": "waste_basket"}}, {"type": "node", "id": 11484445172, "lat": 40.721449, "lon": -74.0155062, "tags": {"amenity": "recycling", "recycling_type": "container"}}, {"type": "node", "id": 11484445176, "lat": 40.7211985, "lon": -74.0150954, "tags": {"amenity": "bench", "backrest": "yes", "material": "wood"}}, {"type": "node", "id": 11489120372, "lat": 40.7205107, "lon": -74.0117573, "tags": {"amenity": "bench", "backrest": "yes", "material": "wood"}}, {"type": "node", "id": 11489120373, "lat": 40.7205322, "lon": -74.0117337, "tags": {"amenity": "bench", "backrest": "yes", "material": "wood"}}, {"type": "node", "id": 11489120374, "lat": 40.7205569, "lon": -74.0117559, "tags": {"amenity": "bench", "backrest": "yes", "material": "wood"}}, {"type": "node", "id": 11489120375, "lat": 40.7206644, "lon": -74.011742, "tags": {"amenity": "bench", "backrest": "yes", "material": "wood"}}, {"type": "node", "id": 11489120376, "lat": 40.7206418, "lon": -74.0117181, "tags": {"amenity": "bench", "backrest": "yes", "material": "wood"}}, {"type": "node", "id": 11489120377, "lat": 40.7206224, "lon": -74.0117393, "tags": {"amenity": "bench", "backrest": "yes", "material": "wood"}}, {"type": "node", "id": 11489120378, "lat": 40.7207308, "lon": -74.0117197, "tags": {"amenity": "bench", "backrest": "yes", "material": "wood"}}, {"type": "node", "id": 11489120379, "lat": 40.7207762, "lon": -74.0117257, "tags": {"amenity": "bench", "backrest": "yes", "material": "wood"}}, {"type": "node", "id": 11489120380, "lat": 40.7207532, "lon": -74.0116998, "tags": {"amenity": "bench", "backrest": "yes", "material": "wood"}}, {"type": "node", "id": 11489120381, "lat": 40.7207661, "lon": -74.0117588, "tags": {"amenity": "bench", "backrest": "no", "material": "wood"}}, {"type": "node", "id": 11489120382, "lat": 40.7206585, "lon": -74.0117771, "tags": {"amenity": "bench", "backrest": "yes", "material": "wood"}}, {"type": "node", "id": 11489120383, "lat": 40.7205497, "lon": -74.0117954, "tags": {"amenity": "bench", "backrest": "yes", "material": "wood"}}, {"type": "node", "id": 11489120384, "lat": 40.7204715, "lon": -74.0116501, "tags": {"amenity": "waste_basket"}}, {"type": "node", "id": 11489120385, "lat": 40.7204722, "lon": -74.011662, "tags": {"amenity": "recycling", "recycling_type": "container"}}, {"type": "node", "id": 11489120386, "lat": 40.7204836, "lon": -74.0117136, "tags": {"amenity": "bench", "backrest": "yes", "material": "wood"}}, {"type": "node", "id": 11489120402, "lat": 40.7208119, "lon": -74.0117083, "tags": {"access": "yes", "amenity": "drinking_water"}}, {"type": "node", "id": 11489120403, "lat": 40.7208026, "lon": -74.0116139, "tags": {"amenity": "waste_basket"}}, {"type": "node", "id": 11489120404, "lat": 40.7208055, "lon": -74.0116234, "tags": {"amenity": "recycling", "recycling_type": "container"}}, {"type": "node", "id": 11489120461, "lat": 40.7210139, "lon": -74.0117005, "tags": {"amenity": "bench", "backrest": "yes", "material": "wood"}}, {"type": "node", "id": 11489120462, "lat": 40.7211121, "lon": -74.0116836, "tags": {"amenity": "bench", "backrest": "yes", "material": "wood"}}, {"type": "node", "id": 11489120480, "lat": 40.7211563, "lon": -74.0116332, "tags": {"amenity": "waste_basket"}}, {"type": "node", "id": 11489120481, "lat": 40.7211585, "lon": -74.0116441, "tags": {"amenity": "recycling", "recycling_type": "container"}}, {"type": "node", "id": 11489120496, "lat": 40.7214433, "lon": -74.0116145, "tags": {"amenity": "bench", "backrest": "yes", "material": "wood"}}, {"type": "node", "id": 11489120497, "lat": 40.7214632, "lon": -74.0115795, "tags": {"amenity": "bench", "backrest": "yes", "material": "wood"}}, {"type": "node", "id": 11489120571, "lat": 40.7213573, "lon": -74.0104011, "tags": {"amenity": "recycling", "recycling_type": "container"}}, {"type": "node", "id": 11489120572, "lat": 40.7213572, "lon": -74.0103894, "tags": {"amenity": "waste_basket"}}, {"type": "node", "id": 11489120573, "lat": 40.7213671, "lon": -74.0104254, "tags": {"amenity": "bench", "backrest": "yes", "material": "wood"}}, {"type": "node", "id": 11489120574, "lat": 40.7213606, "lon": -74.0103577, "tags": {"amenity": "bench", "backrest": "yes", "material": "wood"}}, {"type": "node", "id": 11489120587, "lat": 40.7213601, "lon": -74.0100006, "tags": {"amenity": "waste_basket"}}, {"type": "node", "id": 11489120598, "lat": 40.7213566, "lon": -74.0103014, "tags": {"amenity": "bench", "backrest": "yes", "material": "wood"}}, {"type": "node", "id": 11489120634, "lat": 40.7206029, "lon": -74.0103889}, {"type": "node", "id": 11489120635, "lat": 40.7206037, "lon": -74.0103763}, {"type": "node", "id": 11489120636, "lat": 40.7206035, "lon": -74.0103614}, {"type": "node", "id": 11489120637, "lat": 40.7206014, "lon": -74.0103452}, {"type": "node", "id": 11489120638, "lat": 40.7205966, "lon": -74.0103269}, {"type": "node", "id": 11489120639, "lat": 40.7205911, "lon": -74.0103178}, {"type": "node", "id": 11489120640, "lat": 40.720584, "lon": -74.0103124}, {"type": "node", "id": 11489120641, "lat": 40.7205744, "lon": -74.0103126}, {"type": "node", "id": 11489120642, "lat": 40.7205662, "lon": -74.0103162}, {"type": "node", "id": 11489120643, "lat": 40.7205606, "lon": -74.0103262}, {"type": "node", "id": 11489120644, "lat": 40.7205578, "lon": -74.0103386}, {"type": "node", "id": 11489120645, "lat": 40.7205575, "lon": -74.0103577}, {"type": "node", "id": 11489120646, "lat": 40.7205606, "lon": -74.0103763}, {"type": "node", "id": 11489120647, "lat": 40.7205657, "lon": -74.0103924}, {"type": "node", "id": 11489120648, "lat": 40.7205711, "lon": -74.010406}, {"type": "node", "id": 11489120649, "lat": 40.7205774, "lon": -74.010415}, {"type": "node", "id": 11489120650, "lat": 40.7205855, "lon": -74.0104184}, {"type": "node", "id": 11489120651, "lat": 40.7205923, "lon": -74.0104173}, {"type": "node", "id": 11489120652, "lat": 40.7205972, "lon": -74.0104111}, {"type": "node", "id": 11489120653, "lat": 40.7206003, "lon": -74.0104012}, {"type": "node", "id": 11489120654, "lat": 40.7207657, "lon": -74.0103078, "tags": {"amenity": "bench", "backrest": "yes", "material": "wood"}}, {"type": "node", "id": 11489120655, "lat": 40.7207084, "lon": -74.0102712, "tags": {"amenity": "bench", "backrest": "yes", "material": "wood"}}, {"type": "node", "id": 11489120656, "lat": 40.7206603, "lon": -74.010326, "tags": {"amenity": "bench", "backrest": "yes", "material": "wood"}}, {"type": "node", "id": 11489120657, "lat": 40.7206959, "lon": -74.0103805, "tags": {"amenity": "bench", "backrest": "yes", "material": "wood"}}, {"type": "node", "id": 11489120658, "lat": 40.720737, "lon": -74.0103502, "tags": {"amenity": "bench", "backrest": "yes", "material": "wood"}}, {"type": "node", "id": 11489120659, "lat": 40.7207652, "lon": -74.0104085, "tags": {"amenity": "bench", "backrest": "yes", "material": "wood"}}, {"type": "node", "id": 11489120698, "lat": 40.7207745, "lon": -74.0106239, "tags": {"amenity": "bench", "backrest": "yes", "material": "wood"}}, {"type": "node", "id": 11489120699, "lat": 40.7207224, "lon": -74.0106131, "tags": {"amenity": "bench", "backrest": "yes", "material": "wood"}}, {"type": "node", "id": 11489120700, "lat": 40.720745, "lon": -74.0105655, "tags": {"amenity": "bench", "backrest": "yes", "material": "wood"}}, {"type": "node", "id": 11489120701, "lat": 40.7206992, "lon": -74.0105595, "tags": {"amenity": "bench", "backrest": "yes", "material": "wood"}}, {"type": "node", "id": 11489120702, "lat": 40.7207265, "lon": -74.0105103, "tags": {"amenity": "bench", "backrest": "yes", "material": "wood"}}, {"type": "node", "id": 11489120703, "lat": 40.7207453, "lon": -74.0104632, "tags": {"amenity": "bench", "backrest": "yes", "material": "wood"}}, {"type": "node", "id": 11489120704, "lat": 40.7207231, "lon": -74.0104262, "tags": {"amenity": "bench", "backrest": "yes", "material": "wood"}}, {"type": "node", "id": 11489120705, "lat": 40.7207033, "lon": -74.0104727, "tags": {"amenity": "bench", "backrest": "yes", "material": "wood"}}, {"type": "node", "id": 11489120706, "lat": 40.7206697, "lon": -74.010482, "tags": {"amenity": "bench", "backrest": "yes", "material": "wood"}}, {"type": "node", "id": 11489120707, "lat": 40.7205279, "lon": -74.010538, "tags": {"amenity": "bench", "backrest": "yes", "material": "wood"}}, {"type": "node", "id": 11489120708, "lat": 40.7205041, "lon": -74.0104426, "tags": {"amenity": "bench", "backrest": "yes", "material": "wood"}}, {"type": "node", "id": 11489120709, "lat": 40.7204658, "lon": -74.0103762, "tags": {"amenity": "bench", "backrest": "yes", "material": "wood"}}, {"type": "node", "id": 11489120710, "lat": 40.7204429, "lon": -74.0106549, "tags": {"amenity": "bench", "backrest": "yes", "material": "wood"}}, {"type": "node", "id": 11489120711, "lat": 40.7203734, "lon": -74.0106314, "tags": {"amenity": "bench", "backrest": "yes", "material": "wood"}}, {"type": "node", "id": 11489120712, "lat": 40.7203145, "lon": -74.0105721, "tags": {"amenity": "bench", "backrest": "yes", "material": "wood"}}, {"type": "node", "id": 11489120713, "lat": 40.7203006, "lon": -74.0103703, "tags": {"amenity": "bench", "backrest": "yes", "material": "wood"}}, {"type": "node", "id": 11489120739, "lat": 40.7204294, "lon": -74.0103835, "tags": {"amenity": "waste_basket"}}, {"type": "node", "id": 11489120740, "lat": 40.7204214, "lon": -74.0103755, "tags": {"amenity": "recycling", "recycling_type": "container"}}, {"type": "node", "id": 11494950131, "lat": 40.721269, "lon": -74.0084652, "tags": {"amenity": "waste_basket"}}, {"type": "node", "id": 11517225691, "lat": 40.7168014, "lon": -74.0107263, "tags": {"amenity": "waste_basket"}}, {"type": "node", "id": 11517225700, "lat": 40.7161561, "lon": -74.0092545, "tags": {"amenity": "waste_basket"}}, {"type": "node", "id": 11517225705, "lat": 40.7162333, "lon": -74.009101, "tags": {"amenity": "waste_basket"}}, {"type": "node", "id": 11517225706, "lat": 40.7161282, "lon": -74.0088608, "tags": {"amenity": "waste_basket"}}, {"type": "node", "id": 12207203839, "lat": 40.7176962, "lon": -74.0104084, "tags": {"addr:housenumber": "329", "addr:postcode": "10013", "addr:street": "Greenwich Street", "amenity": "bar", "name": "Muse Paintbar"}}, {"type": "node", "id": 12214442347, "lat": 40.7213818, "lon": -74.0107212, "tags": {"amenity": "loading_dock", "door": "overhead"}}, {"type": "node", "id": 12214442349, "lat": 40.7213723, "lon": -74.0106173, "tags": {"amenity": "loading_dock", "door": "overhead"}}, {"type": "node", "id": 12214442351, "lat": 40.7213651, "lon": -74.0105303, "tags": {"amenity": "loading_dock", "door": "overhead"}}, {"type": "node", "id": 12214442356, "lat": 40.7213606, "lon": -74.0104867, "tags": {"amenity": "loading_dock", "door": "overhead"}}, {"type": "way", "id": 250049361, "nodes": [11463822876, 11466637284, 2565683830, 2565683828, 2565683849, 11466637276, 2565683845, 2565683853, 2565683848, 2565683835, 2565683782, 11463822881, 11466117104, 2565683784, 2565683781, 2565683785, 2565683786, 2565683787, 11463822875, 11466637332, 2565683769, 11464658064, 11463822884, 2565683766, 2565683765, 11463822879, 2565683764, 2565698941, 2565683757]}, {"type": "way", "id": 250049363, "nodes": [2565683757, 10689818363, 2565683759, 10689818357, 2565683763, 8304373491, 11463821710, 11463821714, 2565683754, 2565683760, 11463821703, 2565683756, 2565683745, 2565683748, 11464612390, 2565683740, 889585150, 2565683751, 2565683738, 2565683739, 2565683741, 2565683742, 2565683743, 2565683744, 2565683746, 2565683749, 2565683750, 11460524936, 2565683755, 2565683753, 2565683761, 2565683758, 11463821704, 11463822867]}, {"type": "way", "id": 250568895, "nodes": [2569923723, 2569923714, 2569923737, 2569923769, 2569923797, 2569923772, 2569923700, 11458237359, 2569923706, 2569923710, 2569923723], "tags": {"addr:city": "New York", "addr:housenumber": "455", "addr:postcode": "10282", "addr:state": "NY", "addr:street": "North End Avenue", "amenity": "social_facility", "building": "yes", "height": "46.0", "name": "Brookdale Battery Park", "nycdoitt:bin": "1085815", "operator": "Brookdale Senior Living", "operator:type": "private", "operator:wikidata": "Q4974387", "social_facility": "group_home", "social_facility:for": "senior", "wheelchair": "yes"}}, {"type": "way", "id": 369626908, "nodes": [2565708372, 2565708377, 2565708376, 2565708381, 3734070555, 2565708338, 2565708348, 2565708347, 2565708351, 2565708346, 2565708352, 2565708349, 2565708366, 2565708372], "tags": {"access": "yes", "amenity": "parking", "fee": "yes", "parking": "surface", "surface": "asphalt"}}, {"type": "way", "id": 693854988, "nodes": [6514469189, 6514469190, 6514469191, 6514469192, 6514469193, 6514469194, 6514469189], "tags": {"access": "yes", "amenity": "toilets", "building": "yes", "toilets:disposal": "flush", "toilets:handwashing": "yes", "website": "https://www.nycgovparks.org/parks/washington-market-park/facilities/bathrooms", "wheelchair": "yes"}}, {"type": "way", "id": 893536657, "nodes": [8304497495, 8304497496, 8304497497, 8304497498, 8304497499, 8304497500, 8304497501, 8304497483, 8304497484, 8304497485, 8304497490, 8304497491, 8304497492, 8304497493, 8304497494, 8304497486, 8304497487, 8304497488, 8304497489, 8304497495], "tags": {"amenity": "shelter", "building": "yes", "shelter_type": "gazebo"}}, {"type": "way", "id": 1234496215, "nodes": [11458405584, 11458405585, 11458405586, 11458405587, 11458405584], "tags": {"amenity": "shelter", "bench": "yes", "bin": "no", "building": "yes", "lit": "yes", "shelter_type": "public_transport"}}, {"type": "way", "id": 1235023072, "nodes": [11463822867, 11463822857, 2565683776, 11466637361, 11463822876]}, {"type": "way", "id": 1235274688, "nodes": [11466637284, 11466637283, 11466637282, 7144807592, 11466637281, 2565683849, 2565683828, 2565683830, 11466637284], "tags": {"access": "private", "amenity": "parking", "parking": "surface", "surface": "asphalt"}}, {"type": "way", "id": 1237097679, "nodes": [11489120635, 11489120634, 11489120653, 11489120652, 11489120651, 11489120650, 11489120649, 11489120648, 11489120647, 11489120646, 11489120645, 11489120644, 11489120643, 11489120642, 11489120641, 11489120640, 11489120639, 11489120638, 11489120637, 11489120636, 11489120635], "tags": {"amenity": "fountain", "natural": "water"}}, {"type": "way", "id": 1319909116, "nodes": [11466760324, 11466760325, 11466760326, 11466760327], "tags": {"amenity": "bench", "backrest": "yes", "layer": "1", "material": "wood"}}, {"type": "way", "id": 1319909117, "nodes": [11466760332, 11466760333, 11466760334, 11466760335], "tags": {"amenity": "bench", "backrest": "yes", "level": "2", "material": "wood"}}, {"type": "way", "id": 1319909118, "nodes": [11466760336, 11466760337, 11466760338, 11466760339], "tags": {"amenity": "bench", "backrest": "yes", "layer": "1", "material": "wood"}}, {"type": "way", "id": 1319909119, "nodes": [11466760365, 11466760366, 11466760367, 11466760368], "tags": {"amenity": "bench", "backrest": "yes", "layer": "1", "material": "wood"}}, {"type": "way", "id": 1319909120, "nodes": [11466760369, 11466760370, 11466760371, 11466760372], "tags": {"amenity": "bench", "backrest": "yes", "layer": "1", "material": "wood"}}, {"type": "way", "id": 1319909121, "nodes": [11466760373, 11466760374, 11466760375], "tags": {"amenity": "bench", "backrest": "yes", "layer": "1", "material": "wood"}}, {"type": "relation", "id": 3361059, "members": [{"type": "way", "ref": 250049361, "role": "outer"}, {"type": "way", "ref": 250049363, "role": "outer"}, {"type": "way", "ref": 1235023072, "role": "outer"}], "tags": {"amenity": "university", "building": "yes", "height": "36.7", "layer": "1", "name": "Borough of Manhattan Community College", "nycdoitt:bin": "1066406", "short_name": "BMCC", "type": "multipolygon", "wikidata": "Q4946345"}}]}