{"version": 0.6, "generator": "Overpass API 0.7.62.4 2390de5a", "osm3s": {"timestamp_osm_base": "2024-12-15T03:51:59Z", "copyright": "The data included in this document is from www.openstreetmap.org. The data is made available under ODbL."}, "elements": [{"type": "node", "id": 419360113, "lat": 40.7144963, "lon": -74.0099323, "tags": {"amenity": "bicycle_parking", "capacity": "2", "cityracks.housenum": "65", "cityracks.large": "0", "cityracks.rackid": "4715", "cityracks.small": "1", "cityracks.street": "W Broadway"}}, {"type": "node", "id": 419360240, "lat": 40.7163633, "lon": -74.004538, "tags": {"amenity": "bicycle_parking", "capacity": "2", "cityracks.housenum": "93", "cityracks.large": "0", "cityracks.rackid": "2364", "cityracks.small": "1", "cityracks.street": "Worth St"}}, {"type": "node", "id": 419360669, "lat": 40.7161516, "lon": -74.0092997, "tags": {"amenity": "bicycle_parking", "bicycle_parking": "stands", "capacity": "2", "cityracks.housenum": "121", "cityracks.installed": "9/29/2004", "cityracks.large": "0", "cityracks.rackid": "3042", "cityracks.small": "1", "cityracks.street": "Reade St", "covered": "no"}}, {"type": "node", "id": 419361663, "lat": 40.7151058, "lon": -74.0096603, "tags": {"amenity": "bicycle_parking", "capacity": "2", "cityracks.housenum": "82", "cityracks.installed": "9/29/2004", "cityracks.large": "0", "cityracks.rackid": "3090", "cityracks.small": "1", "cityracks.street": "W Broadway"}}, {"type": "node", "id": 419361903, "lat": 40.7156028, "lon": -74.007514, "tags": {"amenity": "bicycle_parking", "bicycle_parking": "stands", "capacity": "2", "check_date": "2023-11-06", "cityracks.housenum": "178", "cityracks.installed": "7/8/2001", "cityracks.large": "0", "cityracks.rackid": "2330", "cityracks.small": "1", "cityracks.street": "Church St", "covered": "no"}}, {"type": "node", "id": 419361911, "lat": 40.7162643, "lon": -74.006991, "tags": {"amenity": "bicycle_parking", "capacity": "2", "cityracks.housenum": "200", "cityracks.installed": "7/8/2001", "cityracks.large": "0", "cityracks.rackid": "2385", "cityracks.small": "1", "cityracks.street": "Church St"}}, {"type": "node", "id": 419362029, "lat": 40.7155671, "lon": -74.0073336, "tags": {"amenity": "bicycle_parking", "capacity": "2", "cityracks.housenum": "179", "cityracks.installed": "7/8/2001", "cityracks.large": "0", "cityracks.rackid": "2484", "cityracks.small": "1", "cityracks.street": "Church St"}}, {"type": "node", "id": 419362708, "lat": 40.7164124, "lon": -74.0092673, "tags": {"amenity": "bicycle_parking", "capacity": "2", "cityracks.housenum": "19", "cityracks.large": "0", "cityracks.rackid": "2332", "cityracks.small": "1", "cityracks.street": "Hudson St"}}, {"type": "node", "id": 419363255, "lat": 40.7142388, "lon": -74.0047615, "tags": {"amenity": "bicycle_parking", "capacity": "2", "cityracks.housenum": "22", "cityracks.large": "0", "cityracks.rackid": "2470", "cityracks.small": "1", "cityracks.street": "Reade St"}}, {"type": "node", "id": 419364003, "lat": 40.7153173, "lon": -74.0077376, "tags": {"amenity": "bicycle_parking", "capacity": "2", "cityracks.housenum": "168", "cityracks.installed": "9/29/2004", "cityracks.large": "0", "cityracks.rackid": "3049", "cityracks.small": "1", "cityracks.street": "Church St"}}, {"type": "node", "id": 419364195, "lat": 40.7143514, "lon": -74.0038453, "tags": {"amenity": "bicycle_parking", "bicycle_parking": "stands", "brand": "dot_u_rack", "capacity": "2", "cityracks.housenum": "52", "cityracks.installed": "5/22/2000", "cityracks.large": "0", "cityracks.rackid": "2487", "cityracks.small": "1", "cityracks.street": "Duane St", "covered": "no"}}, {"type": "node", "id": 419364460, "lat": 40.71476, "lon": -74.0097215, "tags": {"amenity": "bicycle_parking", "capacity": "5", "cityracks.housenum": "73", "cityracks.installed": "7/8/2001", "cityracks.large": "1", "cityracks.rackid": "2475", "cityracks.small": "0", "cityracks.street": "W Broadway"}}, {"type": "node", "id": 419364593, "lat": 40.7146339, "lon": -74.0074886, "tags": {"amenity": "bicycle_parking", "capacity": "2", "cityracks.housenum": "94", "cityracks.installed": "7/8/2001", "cityracks.large": "0", "cityracks.rackid": "2488", "cityracks.small": "1", "cityracks.street": "Chambers St"}}, {"type": "node", "id": 419364640, "lat": 40.7158033, "lon": -74.0081836, "tags": {"amenity": "bicycle_parking", "capacity": "2", "cityracks.housenum": "100", "cityracks.large": "0", "cityracks.rackid": "51", "cityracks.small": "1", "cityracks.street": "Reade St"}}, {"type": "node", "id": 419364719, "lat": 40.7160157, "lon": -74.0104736, "tags": {"amenity": "bicycle_parking", "capacity": "2", "cityracks.housenum": "156", "cityracks.installed": "1/8/2007", "cityracks.large": "0", "cityracks.rackid": "3082", "cityracks.small": "1", "cityracks.street": "Chambers St"}}, {"type": "node", "id": 419364738, "lat": 40.7153859, "lon": -74.0087729, "tags": {"amenity": "bicycle_parking", "capacity": "2", "cityracks.housenum": "125", "cityracks.large": "0", "cityracks.rackid": "2320", "cityracks.small": "1", "cityracks.street": "Chambers St"}}, {"type": "node", "id": 419365380, "lat": 40.7146778, "lon": -74.0075788, "tags": {"amenity": "bicycle_parking", "capacity": "5", "cityracks.housenum": "96", "cityracks.installed": "1/8/2007", "cityracks.large": "1", "cityracks.rackid": "3092", "cityracks.small": "0", "cityracks.street": "Chambers St"}}, {"type": "node", "id": 419365840, "lat": 40.7158031, "lon": -74.008185, "tags": {"amenity": "bicycle_parking", "capacity": "7", "cityracks.housenum": "100", "cityracks.large": "1", "cityracks.rackid": "2311,2358", "cityracks.small": "1", "cityracks.street": "Reade St"}}, {"type": "node", "id": 419366413, "lat": 40.7155973, "lon": -74.0080803, "tags": {"amenity": "bicycle_parking", "capacity": "2", "cityracks.housenum": "99", "cityracks.installed": "7/8/2001", "cityracks.large": "0", "cityracks.rackid": "2367", "cityracks.small": "1", "cityracks.street": "Reade St"}}, {"type": "node", "id": 419366608, "lat": 40.7145511, "lon": -74.0073069, "tags": {"amenity": "bicycle_parking", "capacity": "2", "cityracks.housenum": "90", "cityracks.installed": "12/8/2009", "cityracks.large": "0", "cityracks.rackid": "4746", "cityracks.small": "1", "cityracks.street": "Chambers St"}}, {"type": "node", "id": 419366645, "lat": 40.7161243, "lon": -74.0072002, "tags": {"amenity": "bicycle_parking", "capacity": "2", "cityracks.housenum": "129", "cityracks.installed": "9/29/2004", "cityracks.large": "0", "cityracks.rackid": "3044", "cityracks.small": "1", "cityracks.street": "Duane St"}}, {"type": "node", "id": 419366678, "lat": 40.7152189, "lon": -74.0086843, "tags": {"amenity": "bicycle_parking", "bicycle_parking": "stands", "capacity": "2", "cityracks.housenum": "118", "cityracks.installed": "12/8/2009", "cityracks.large": "0", "cityracks.rackid": "4751", "cityracks.small": "1", "cityracks.street": "Chambers", "covered": "no"}}, {"type": "node", "id": 419366778, "lat": 40.7163166, "lon": -74.0044406, "tags": {"amenity": "bicycle_parking", "capacity": "2", "cityracks.housenum": "95", "cityracks.large": "0", "cityracks.rackid": "2366", "cityracks.small": "1", "cityracks.street": "Worth St"}}, {"type": "node", "id": 419366858, "lat": 40.7157624, "lon": -74.0098896, "tags": {"amenity": "bicycle_parking", "bicycle_parking": "stands", "capacity": "2", "cityracks.housenum": "144", "cityracks.installed": "7/8/2001", "cityracks.large": "0", "cityracks.rackid": "2469", "cityracks.small": "1", "cityracks.street": "Chambers St", "covered": "no"}}, {"type": "node", "id": 419366930, "lat": 40.715387, "lon": -74.0087719, "tags": {"amenity": "bicycle_parking", "capacity": "2", "cityracks.housenum": "125", "cityracks.installed": "12/8/2009", "cityracks.large": "0", "cityracks.rackid": "4749", "cityracks.small": "1", "cityracks.street": "Chambers"}}, {"type": "node", "id": 419367236, "lat": 40.7153062, "lon": -74.0103024, "tags": {"amenity": "bicycle_parking", "capacity": "2", "cityracks.housenum": "80", "cityracks.installed": "9/29/2004", "cityracks.large": "0", "cityracks.rackid": "3089", "cityracks.small": "1", "cityracks.street": "Warren St"}}, {"type": "node", "id": 419367658, "lat": 40.715143, "lon": -74.0082374, "tags": {"amenity": "bicycle_parking", "bicycle_parking": "stands", "capacity": "2", "check_date": "2023-02-23", "cityracks.housenum": "111", "cityracks.installed": "12/8/2009", "cityracks.large": "0", "cityracks.rackid": "4750", "cityracks.small": "1", "cityracks.street": "Chambers", "covered": "no"}}, {"type": "node", "id": 889261788, "lat": 40.7114053, "lon": -74.0088277}, {"type": "node", "id": 889261960, "lat": 40.7115528, "lon": -74.0102847}, {"type": "node", "id": 889261987, "lat": 40.7119591, "lon": -74.0100482}, {"type": "node", "id": 889435992, "lat": 40.7143268, "lon": -74.0097038, "tags": {"addr:housenumber": "57", "addr:postcode": "10007", "addr:street": "Murray Street", "amenity": "pub", "contact:facebook": "monkmcginns", "contact:instagram": "monkmcginnsnyc", "name": "Monk McGinns", "phone": "+1 212 791-9676"}}, {"type": "node", "id": 889438158, "lat": 40.7143712, "lon": -74.0098061, "tags": {"amenity": "stripclub", "name": "FlashDancers"}}, {"type": "node", "id": 889464923, "lat": 40.7149435, "lon": -74.0098751}, {"type": "node", "id": 889469733, "lat": 40.7149567, "lon": -74.0094239, "tags": {"amenity": "cafe", "brand": "Le Pain Quotidien", "brand:wikidata": "Q2046903", "check_date": "2023-07-31", "cuisine": "coffee_shop", "name": "Le Pain Quotidien", "takeaway": "yes"}}, {"type": "node", "id": 889472802, "lat": 40.715522, "lon": -74.008983, "tags": {"addr:city": "New York", "addr:housenumber": "125", "addr:postcode": "10007", "addr:state": "NY", "addr:street": "Chambers Street", "amenity": "cafe", "branch": "Chambers and West Broadway", "brand": "Starbucks", "brand:wikidata": "Q37158", "cuisine": "coffee_shop", "diet:vegan": "yes", "drink:soy_milk": "yes", "indoor_seating": "yes", "name": "Starbucks", "official_name": "Starbucks Coffee", "opening_hours": "Mo-Sa 06:00-19:00; Su 06:00-18:30", "outdoor_seating": "no", "phone": "+1 212-791-6368", "ref": "8692", "takeaway": "yes", "website": "https://www.starbucks.com/store-locator/store/8692/chambers-and-west-broadway-125-chambers-street-new-york-ny-100071331-us", "wheelchair": "yes"}}, {"type": "node", "id": 1253070414, "lat": 40.7140526, "lon": -74.0047471}, {"type": "node", "id": 1253070827, "lat": 40.7137081, "lon": -74.0050316}, {"type": "node", "id": 1272961632, "lat": 40.7160601, "lon": -74.0093501, "tags": {"addr:city": "New York", "addr:housenumber": "5", "addr:postcode": "10013", "addr:state": "NY", "addr:street": "Hudson Street", "amenity": "pharmacy", "healthcare": "pharmacy", "name": "Kings Pharmacy"}}, {"type": "node", "id": 2242624721, "lat": 40.7126187, "lon": -74.0059823}, {"type": "node", "id": 2567571411, "lat": 40.7148884, "lon": -74.0059052, "tags": {"addr:housenumber": "291", "addr:postcode": "10007", "addr:street": "Broadway", "addr:unit": "Suite 810", "amenity": "doctors", "healthcare": "doctor", "healthcare:speciality": "podiatry", "name": "Foot Doctor of New York", "opening_hours": "Mo-Fr 09:00-18:00", "operator": "Raphael Lilker, DPM", "phone": "+1-212-484-0922", "website": "https://www.footdocny.com"}}, {"type": "node", "id": 2567571470, "lat": 40.7145793, "lon": -74.0036617}, {"type": "node", "id": 2567571472, "lat": 40.7145868, "lon": -74.0034547}, {"type": "node", "id": 2567571476, "lat": 40.7146298, "lon": -74.0035448}, {"type": "node", "id": 2567571484, "lat": 40.714709, "lon": -74.0034775}, {"type": "node", "id": 2567571485, "lat": 40.7147147, "lon": -74.003346}, {"type": "node", "id": 2567571487, "lat": 40.7147347, "lon": -74.0035297}, {"type": "node", "id": 2567571489, "lat": 40.7147843, "lon": -74.0034875}, {"type": "node", "id": 2567571493, "lat": 40.7148215, "lon": -74.0041542}, {"type": "node", "id": 2567571499, "lat": 40.7148631, "lon": -74.0034206}, {"type": "node", "id": 2567571521, "lat": 40.7150546, "lon": -74.0039563}, {"type": "node", "id": 2567571526, "lat": 40.715087, "lon": -74.0039285}, {"type": "node", "id": 2567571530, "lat": 40.7151054, "lon": -74.0039131}, {"type": "node", "id": 2567571539, "lat": 40.7152208, "lon": -74.0061555}, {"type": "node", "id": 2567571549, "lat": 40.7152862, "lon": -74.0061048}, {"type": "node", "id": 2567571550, "lat": 40.7152912, "lon": -74.0063123}, {"type": "node", "id": 2567571562, "lat": 40.7154135, "lon": -74.006006}, {"type": "node", "id": 2567571569, "lat": 40.7154839, "lon": -74.0061628}, {"type": "node", "id": 2632446787, "lat": 40.7134916, "lon": -74.0079247, "tags": {"addr:city": "New York", "addr:housenumber": "9", "addr:postcode": "10007", "addr:street": "Murray Street", "amenity": "library", "contact:email": "newamsterdam@nypl.org", "name": "New Amsterdam Library", "opening_hours": "Mo-Th 10:00-19:00; Fr, Sa 10:00-17:00", "operator": "New York Public Library", "operator:short": "NYPL", "operator:type": "public", "operator:wikidata": "Q219555", "operator:wikipedia": "en:New York Public Library", "phone": "+1 212-732-8186", "website": "https://www.nypl.org/locations/new-amsterdam", "wheelchair": "yes", "wikidata": "Q17018044", "wikipedia": "en:List of New York Public Library branches"}}, {"type": "node", "id": 2641379134, "lat": 40.7152802, "lon": -74.009614, "tags": {"addr:housenumber": "86A", "addr:postcode": "10007", "addr:street": "West Broadway", "amenity": "restaurant", "check_date": "2023-07-31", "cuisine": "sushi", "name": "JR Sushi 2", "phone": "+1-212-233-8338", "website": "http://jrsushi.com/"}}, {"type": "node", "id": 2821289715, "lat": 40.7129231, "lon": -74.0071139, "tags": {"barrier": "gate"}}, {"type": "node", "id": 2821326392, "lat": 40.7116433, "lon": -74.0066898, "tags": {"addr:city": "New York", "addr:housenumber": "38", "addr:postcode": "10038", "addr:state": "NY", "addr:street": "Park Row", "addr:unit": "4", "amenity": "cafe", "branch": "Park Row at Beekman St", "brand": "Starbucks", "brand:wikidata": "Q37158", "cuisine": "coffee_shop", "internet_access": "wlan", "name": "Starbucks", "official_name": "Starbucks Coffee", "opening_hours": "Mo-Fr 05:30-20:30; Sa 06:30-20:30; Su 07:30-19:30", "phone": "+1 212-608-8073", "ref": "12020", "takeaway": "yes", "website": "https://www.starbucks.com/store-locator/store/12020/park-row-at-beekman-st-38-park-row-4-new-york-ny-100381551-us"}}, {"type": "node", "id": 2821335216, "lat": 40.714713, "lon": -74.0077745, "tags": {"addr:city": "New York", "addr:housenumber": "100", "addr:postcode": "10007", "addr:state": "NY", "addr:street": "Chambers Street", "air_conditioning": "yes", "alt_name": "Dunkin' Donuts", "amenity": "fast_food", "brand": "Dunkin'", "brand:wikidata": "Q847743", "cuisine": "donut;coffee_shop", "delivery": "no", "drink:coffee": "yes", "drive_through": "no", "fax": "+1 212-619-1221", "indoor_seating": "yes", "level": "0", "name": "Dunkin'", "opening_hours": "24/7", "outdoor_seating": "no", "phone": "+1 212-608-1601", "ref": "341501", "smoking": "no", "takeaway": "yes", "website": "https://locations.dunkindonuts.com/en/ny/new-york/100-chambers-st/341501"}}, {"type": "node", "id": 2821335221, "lat": 40.7144985, "lon": -74.0062757, "tags": {"addr:city": "New York", "addr:housenumber": "281", "addr:postcode": "10007", "addr:state": "NY", "addr:street": "Broadway", "air_conditioning": "yes", "alt_name": "Chipotle Mexican Grill", "amenity": "fast_food", "brand": "Chipotle", "brand:wikidata": "Q465751", "cuisine": "mexican", "diet:vegan": "yes", "diet:vegetarian": "yes", "drive_through": "no", "level": "0", "name": "Chipotle", "official_name": "Chipotle Mexican Grill", "opening_hours": "Mo-Su 10:45-22:00", "outdoor_seating": "no", "payment:american_express": "yes", "payment:cash": "yes", "payment:coins": "yes", "payment:contactless": "yes", "payment:credit_cards": "yes", "payment:discover_card": "yes", "payment:mastercard": "yes", "payment:notes": "yes", "payment:visa": "yes", "phone": "+1-212-385-3506", "smoking": "no", "takeaway": "yes", "website": "https://locations.chipotle.com/ny/new-york/281-broadway", "wheelchair": "yes"}}, {"type": "node", "id": 2821335225, "lat": 40.7146483, "lon": -74.0061262, "tags": {"addr:city": "New York", "addr:housenumber": "287", "addr:postcode": "10007", "addr:state": "NY", "addr:street": "Broadway", "air_conditioning": "yes", "amenity": "bank", "atm": "yes", "branch": "City Hall", "brand": "TD Bank", "brand:wikidata": "Q7669891", "check_date": "2024-01-29", "currency:CAD": "yes", "currency:EUR": "yes", "currency:GBP": "yes", "currency:USD": "yes", "drive_through": "no", "internet_access": "wlan", "level": "0", "name": "TD Bank", "opening_hours": "Mo-Fr 8:00-18:00; Sa 09:30-13:00; PH off", "opening_hours:atm": "24/7", "payment:cash": "yes", "payment:credit_cards": "yes", "phone": "+1-212-608-5034", "reservation": "yes", "short_name": "TD", "smoking": "no", "website": "https://locations.td.com/us/287-broadway-city-hall", "wheelchair": "yes"}}, {"type": "node", "id": 2821338438, "lat": 40.713952, "lon": -74.0045174}, {"type": "node", "id": 2821338439, "lat": 40.7136013, "lon": -74.0047958}, {"type": "node", "id": 2823341443, "lat": 40.7145563, "lon": -74.0102744}, {"type": "node", "id": 2823341444, "lat": 40.714591, "lon": -74.0103516}, {"type": "node", "id": 2823341450, "lat": 40.7147138, "lon": -74.010152}, {"type": "node", "id": 2823341453, "lat": 40.7147594, "lon": -74.0101166}, {"type": "node", "id": 2823341454, "lat": 40.7147941, "lon": -74.0101938}, {"type": "node", "id": 2823341457, "lat": 40.7148164, "lon": -74.0099729}, {"type": "node", "id": 2823341458, "lat": 40.7148382, "lon": -74.0101596}, {"type": "node", "id": 2823341461, "lat": 40.7148491, "lon": -74.0100468}, {"type": "node", "id": 2823341465, "lat": 40.7148839, "lon": -74.0102313}, {"type": "node", "id": 2823341469, "lat": 40.7149205, "lon": -74.0103127}, {"type": "node", "id": 2823341488, "lat": 40.7150106, "lon": -74.0100269}, {"type": "node", "id": 2823341495, "lat": 40.715045, "lon": -74.010106}, {"type": "node", "id": 2823341501, "lat": 40.7150817, "lon": -74.0101874}, {"type": "node", "id": 2823341570, "lat": 40.715442, "lon": -74.0097869}, {"type": "node", "id": 2823341573, "lat": 40.7154716, "lon": -74.009764}, {"type": "node", "id": 2823341574, "lat": 40.7154763, "lon": -74.0098632}, {"type": "node", "id": 2823341575, "lat": 40.7154855, "lon": -74.0097532}, {"type": "node", "id": 2823341586, "lat": 40.7156073, "lon": -74.0096589}, {"type": "node", "id": 2823341588, "lat": 40.7156116, "lon": -74.0096556}, {"type": "node", "id": 2823341600, "lat": 40.7156413, "lon": -74.0097354}, {"type": "node", "id": 2823341603, "lat": 40.7156458, "lon": -74.0097319}, {"type": "node", "id": 2823452277, "lat": 40.7111349, "lon": -74.0090543}, {"type": "node", "id": 2823452280, "lat": 40.7111499, "lon": -74.0091111}, {"type": "node", "id": 2823452282, "lat": 40.7111591, "lon": -74.0091032}, {"type": "node", "id": 2823452285, "lat": 40.711321, "lon": -74.0094587}, {"type": "node", "id": 2823452286, "lat": 40.7113806, "lon": -74.0094077}, {"type": "node", "id": 2823452287, "lat": 40.7113915, "lon": -74.00943}, {"type": "node", "id": 2823452288, "lat": 40.7114354, "lon": -74.0093612}, {"type": "node", "id": 2823452289, "lat": 40.7114462, "lon": -74.0093831}, {"type": "node", "id": 2823452291, "lat": 40.7114957, "lon": -74.0093095}, {"type": "node", "id": 2823452416, "lat": 40.7121648, "lon": -74.0095553}, {"type": "node", "id": 2823452418, "lat": 40.7121793, "lon": -74.0095854}, {"type": "node", "id": 2823452423, "lat": 40.7122127, "lon": -74.0096552}, {"type": "node", "id": 2823452430, "lat": 40.7122928, "lon": -74.0098222}, {"type": "node", "id": 2823452439, "lat": 40.7124451, "lon": -74.0093214}, {"type": "node", "id": 2823452443, "lat": 40.7125731, "lon": -74.0095883}, {"type": "node", "id": 2824696370, "lat": 40.7112884, "lon": -74.0102748, "tags": {"addr:housenumber": "41", "addr:postcode": "10007", "addr:street": "Church Street", "amenity": "cafe", "name": "\u00c9picerie Boulud", "name:en": "\u00c9picerie Boulud"}}, {"type": "node", "id": 2825233200, "lat": 40.7137279, "lon": -74.0084336, "tags": {"addr:housenumber": "25", "addr:postcode": "10007", "addr:street": "Murray Street", "amenity": "cafe", "cuisine": "japanese;bakery", "name": "Takahachi Bakery", "wheelchair": "no"}}, {"type": "node", "id": 2825233381, "lat": 40.7113859, "lon": -74.00478}, {"type": "node", "id": 2825233383, "lat": 40.7114357, "lon": -74.0046983}, {"type": "node", "id": 2825233621, "lat": 40.7132691, "lon": -74.0040783}, {"type": "node", "id": 2825233626, "lat": 40.7133286, "lon": -74.0042485}, {"type": "node", "id": 2825233627, "lat": 40.7133421, "lon": -74.0042388}, {"type": "node", "id": 2825233639, "lat": 40.7134588, "lon": -74.0045335}, {"type": "node", "id": 2825233642, "lat": 40.7134722, "lon": -74.0045253}, {"type": "node", "id": 2825233656, "lat": 40.7135408, "lon": -74.0046762}, {"type": "node", "id": 2825233665, "lat": 40.7136255, "lon": -74.0037986}, {"type": "node", "id": 2825233678, "lat": 40.713693, "lon": -74.0039472}, {"type": "node", "id": 2825233679, "lat": 40.7137027, "lon": -74.0039397}, {"type": "node", "id": 2825233687, "lat": 40.7137666, "lon": -74.0068295, "tags": {"amenity": "bank", "brand": "Bank of America", "brand:wikidata": "Q487907", "name": "Bank of America", "source": "survey", "website": "https://locators.bankofamerica.com/ny/newyork/financial-centers-new-york-15776.html", "wheelchair": "yes"}}, {"type": "node", "id": 2825233696, "lat": 40.7138233, "lon": -74.0042339}, {"type": "node", "id": 2825233698, "lat": 40.7138329, "lon": -74.0042263}, {"type": "node", "id": 2825233705, "lat": 40.7138972, "lon": -74.0043966}, {"type": "node", "id": 2825233747, "lat": 40.7142029, "lon": -74.0061165, "tags": {"amenity": "clock", "display": "analog", "support": "wall_mounted"}}, {"type": "node", "id": 2830647396, "lat": 40.7130415, "lon": -74.0074818, "tags": {"addr:city": "New York", "addr:housenumber": "250", "addr:postcode": "10007", "addr:state": "NY", "addr:street": "Broadway", "air_conditioning": "yes", "amenity": "bank", "atm": "yes", "branch": "City Hall", "brand": "Citibank", "brand:wikidata": "Q857063", "currency:CAD": "yes", "currency:USD": "yes", "drive_through": "no", "fax": "+1-646-291-3786", "name": "Citibank", "opening_hours": "Mo-Fr 09:00-17:00; PH off", "opening_hours:atm": "24/7", "operator": "Citibank", "phone": "+1-646-502-4187", "short_name": "Citi", "smoking": "no", "wheelchair": "yes"}}, {"type": "node", "id": 2940356649, "lat": 40.7112916, "lon": -74.008923}, {"type": "node", "id": 2940356653, "lat": 40.711315, "lon": -74.0089703}, {"type": "node", "id": 2940356654, "lat": 40.7113246, "lon": -74.0089621}, {"type": "node", "id": 2940356682, "lat": 40.7114111, "lon": -74.0094698}, {"type": "node", "id": 2940356708, "lat": 40.7114658, "lon": -74.0094229}, {"type": "node", "id": 2940367599, "lat": 40.7110261, "lon": -74.0091488}, {"type": "node", "id": 3575499039, "lat": 40.7144017, "lon": -74.005909, "tags": {"addr:city": "New York", "addr:housenumber": "280", "addr:postcode": "10007", "addr:state": "NY", "addr:street": "Broadway", "air_conditioning": "yes", "amenity": "fast_food", "brand": "Potbelly", "brand:wikidata": "Q7234777", "check_date": "2024-01-29", "cuisine": "sandwich", "delivery": "yes", "drive_through": "no", "highchair": "yes", "internet_access": "wlan", "internet_access:fee": "no", "name": "Potbelly", "official_name": "Potbelly Sandwich Works", "opening_hours": "Mo-Fr 11:00-20:00; Sa 11:00-17:00", "outdoor_seating": "no", "payment:cash": "yes", "payment:credit_cards": "yes", "phone": "+1 646-289-4206", "smoking": "no", "takeaway": "yes", "website": "https://www.potbelly.com/locations/new-york/reade-broadway", "wheelchair": "yes"}}, {"type": "node", "id": 3586711273, "lat": 40.7128808, "lon": -74.0101153, "tags": {"amenity": "bicycle_rental", "bicycle_rental": "docking_station", "brand": "Citi Bike", "brand:wikidata": "Q2974438", "capacity": "23", "check_date": "2022-12-28", "fee": "yes", "name": "Citi Bike - Barclay St & Church St", "network": "Citi Bike", "network:wikidata": "Q2974438", "network:wikipedia": "en:Citi Bike", "operator": "Lyft", "operator:type": "private", "operator:wikidata": "Q17077936", "operator:wikipedia": "en:Lyft", "payment:cash": "no", "payment:coins": "no", "payment:credit_cards": "yes", "payment:debit_cards": "yes", "website": "https://citibikenyc.com/", "wheelchair": "yes"}}, {"type": "node", "id": 3618700293, "lat": 40.7121836, "lon": -74.0072242, "tags": {"highway": "street_lamp", "lamp_mount": "lamppost"}}, {"type": "node", "id": 3637093539, "lat": 40.7120307, "lon": -74.0097553, "tags": {"addr:city": "New York", "addr:housenumber": "26", "addr:street": "Vesey Street", "amenity": "restaurant", "atm": "yes", "cuisine": "pizza", "indoor_seating": "yes", "internet_access": "wlan", "name": "Stage Door Deli", "outdoor_seating": "no", "phone": "+1-212-791-5252", "wheelchair": "yes"}}, {"type": "node", "id": 3708656292, "lat": 40.7127347, "lon": -74.0046281, "tags": {"amenity": "bicycle_rental", "bicycle_rental": "docking_station", "brand": "Citi Bike", "brand:wikidata": "Q2974438", "capacity": "35", "check_date": "2022-12-28", "fee": "yes", "name": "Citi Bike - Centre St & Chambers St", "network": "Citi Bike", "network:wikidata": "Q2974438", "network:wikipedia": "en:Citi Bike", "operator": "Lyft", "operator:type": "private", "operator:wikidata": "Q17077936", "operator:wikipedia": "en:Lyft", "payment:cash": "no", "payment:coins": "no", "payment:credit_cards": "yes", "payment:debit_cards": "yes", "website": "https://citibikenyc.com/"}}, {"type": "node", "id": 3708656617, "lat": 40.7162873, "lon": -74.0091228, "tags": {"amenity": "bicycle_rental", "bicycle_rental": "docking_station", "brand": "Citi Bike", "brand:wikidata": "Q2974438", "capacity": "39", "fee": "yes", "name": "Citi Bike - Hudson Street & Reade Street", "network": "Citi Bike", "network:wikidata": "Q2974438", "network:wikipedia": "en:Citi Bike", "operator": "Lyft", "operator:type": "private", "operator:wikidata": "Q17077936", "operator:wikipedia": "en:Lyft", "website": "https://citibikenyc.com/"}}, {"type": "node", "id": 3708656693, "lat": 40.7145646, "lon": -74.005737, "tags": {"amenity": "bicycle_rental", "bicycle_rental": "docking_station", "brand": "Citi Bike", "brand:wikidata": "Q2974438", "capacity": "39", "fee": "yes", "name": "Citi Bike - Reade Street & Broadway", "network": "Citi Bike", "network:wikidata": "Q2974438", "network:wikipedia": "en:Citi Bike", "operator": "Lyft", "operator:type": "private", "operator:wikidata": "Q17077936", "operator:wikipedia": "en:Lyft", "website": "https://citibikenyc.com/"}}, {"type": "node", "id": 3708656707, "lat": 40.711519, "lon": -74.0056121, "tags": {"amenity": "bicycle_rental", "bicycle_rental": "docking_station", "brand": "Citi Bike", "brand:wikidata": "Q2974438", "capacity": "32", "check_date": "2022-12-28", "fee": "yes", "name": "Citi Bike - Spruce St & Nassau St", "network": "Citi Bike", "network:wikidata": "Q2974438", "network:wikipedia": "en:Citi Bike", "operator": "Lyft", "operator:type": "private", "operator:wikidata": "Q17077936", "operator:wikipedia": "en:Lyft", "payment:cash": "no", "payment:coins": "no", "payment:credit_cards": "yes", "payment:debit_cards": "yes", "website": "https://citibikenyc.com/"}}, {"type": "node", "id": 3708656772, "lat": 40.7147343, "lon": -74.0090961, "tags": {"amenity": "bicycle_rental", "bicycle_rental": "docking_station", "brand": "Citi Bike", "brand:wikidata": "Q2974438", "capacity": "46", "check_date": "2022-12-28", "fee": "yes", "name": "Citi Bike - Warren St & W Broadway", "network": "Citi Bike", "network:wikidata": "Q2974438", "network:wikipedia": "en:Citi Bike", "operator": "Lyft", "operator:type": "private", "operator:wikidata": "Q17077936", "operator:wikipedia": "en:Lyft", "payment:credit_cards": "yes", "payment:debit_cards": "yes", "website": "https://citibikenyc.com/"}}, {"type": "node", "id": 3735556933, "lat": 40.7148037, "lon": -74.0100816}, {"type": "node", "id": 3762820097, "lat": 40.7147552, "lon": -74.0034283}, {"type": "node", "id": 3762820098, "lat": 40.7147623, "lon": -74.0034427}, {"type": "node", "id": 3938479922, "lat": 40.712179, "lon": -74.008181, "tags": {"amenity": "cafe", "brand": "Starbucks", "brand:wikidata": "Q37158", "check_date": "2019-11-02", "cuisine": "coffee_shop", "name": "Starbucks", "official_name": "Starbucks Coffee", "takeaway": "yes", "wheelchair": "yes"}}, {"type": "node", "id": 4015724687, "lat": 40.7159896, "lon": -74.0100064, "tags": {"amenity": "fast_food", "check_date:opening_hours": "2023-08-29", "cuisine": "pizza", "diet:vegan": "no", "diet:vegetarian": "yes", "indoor_seating": "yes", "name": "I Pizza NY", "opening_hours:signed": "no", "outdoor_seating": "no", "wheelchair": "yes"}}, {"type": "node", "id": 4121328209, "lat": 40.713682, "lon": -74.0042954}, {"type": "node", "id": 4121328210, "lat": 40.7135109, "lon": -74.0041873}, {"type": "node", "id": 4121328211, "lat": 40.7135922, "lon": -74.0043664}, {"type": "node", "id": 4121328212, "lat": 40.7136007, "lon": -74.0041163}, {"type": "node", "id": 4754091360, "lat": 40.715906, "lon": -74.0050867, "tags": {"addr:city": "New York", "addr:country": "US", "addr:housenumber": "319", "addr:postcode": "10007", "addr:state": "NY", "addr:street": "Broadway", "amenity": "fast_food", "brand": "Pret A Manger", "brand:wikidata": "Q2109109", "cuisine": "sandwich", "drive_through": "no", "internet_access": "yes", "internet_access:fee": "no", "name": "Pret A Manger", "opening_hours": "Mo-Fr 05:30-21:00; Sa 07:30-19:30; Su 09:30-17:00", "opening_hours:covid19": "Mo-Fr 07:00-15:30; Sa off; Su off", "operator": "Pret A Manger (USA) Ltd", "phone": "+1-646-370-4908", "short_name": "Pret", "takeaway": "yes", "website": "https://www.pret.com", "wheelchair": "yes"}}, {"type": "node", "id": 4849652021, "lat": 40.7112644, "lon": -74.0066645, "tags": {"addr:city": "New York", "addr:housenumber": "5", "addr:street": "Beekman Street", "amenity": "restaurant", "indoor_seating": "yes", "name": "Le Gratin", "outdoor_seating": "no"}}, {"type": "node", "id": 4900466379, "lat": 40.7111702, "lon": -74.0044727}, {"type": "node", "id": 4900466385, "lat": 40.7113734, "lon": -74.004433}, {"type": "node", "id": 4900466392, "lat": 40.7107004, "lon": -74.0038381}, {"type": "node", "id": 4922112707, "lat": 40.7127141, "lon": -74.0038708, "tags": {"amenity": "community_centre", "name": "CB1", "wheelchair": "yes"}}, {"type": "node", "id": 4971985122, "lat": 40.7161674, "lon": -74.0071773, "tags": {"addr:housenumber": "200", "addr:street": "Church Street", "air_conditioning": "yes", "amenity": "restaurant", "cuisine": "american", "name": "Tribeca's Kitchen", "opening_hours": "Mo-Su 06:00-00:00", "phone": "2122275100", "takeaway": "yes", "website": "http://www.tribecaskitchen.com/"}}, {"type": "node", "id": 5035490093, "lat": 40.7116907, "lon": -74.0102079}, {"type": "node", "id": 5058255280, "lat": 40.7138176, "lon": -74.0038136, "tags": {"access": "yes", "amenity": "bicycle_parking", "bicycle_parking": "stands", "brand": "dot_wave_rack", "capacity": "4"}}, {"type": "node", "id": 5126272537, "lat": 40.7130523, "lon": -74.0096369, "tags": {"addr:postcode": "10007", "amenity": "cafe", "brand": "Aroma Espresso Bar", "brand:wikidata": "Q2909872", "cuisine": "coffee_shop", "name": "Aroma Espresso Bar", "name:en": "Aroma Espresso Bar", "takeaway": "yes"}}, {"type": "node", "id": 5135832276, "lat": 40.7127568, "lon": -74.0099493, "tags": {"access": "yes", "amenity": "bicycle_parking", "bicycle_parking": "stands", "brand": "3_wave", "capacity": "10", "covered": "no"}}, {"type": "node", "id": 5135833553, "lat": 40.7132755, "lon": -74.0094853, "tags": {"access": "yes", "amenity": "bicycle_parking", "bicycle_parking": "stands", "capacity": "5", "covered": "no"}}, {"type": "node", "id": 5135833559, "lat": 40.7131874, "lon": -74.0094597, "tags": {"access": "yes", "amenity": "bicycle_parking", "bicycle_parking": "stands", "capacity": "2", "covered": "no"}}, {"type": "node", "id": 5161079151, "lat": 40.7147069, "lon": -74.0039213, "tags": {"entrance": "yes"}}, {"type": "node", "id": 5163985623, "lat": 40.715813, "lon": -74.0087939, "tags": {"addr:housenumber": "95", "addr:street": "West Broadway", "amenity": "restaurant", "name": "Serafina", "wheelchair": "yes"}}, {"type": "node", "id": 5322770746, "lat": 40.713588, "lon": -74.0081258, "tags": {"addr:housenumber": "17", "addr:street": "Murray Street", "amenity": "bar", "name": "Dark Horse", "website": "https://www.darkhorseny.com"}}, {"type": "node", "id": 5400495618, "lat": 40.7127376, "lon": -74.0085794, "tags": {"addr:housenumber": "22", "addr:street": "Park Place", "addr:zip": "10007", "amenity": "restaurant", "cuisine": "breakfast", "name": "B & Co", "seats": "yes", "toilets": "yes"}}, {"type": "node", "id": 5415647133, "lat": 40.715278, "lon": -74.0074529, "tags": {"addr:city": "New York", "addr:housenumber": "165", "addr:postcode": "10007", "addr:state": "NY", "addr:street": "Church Street", "air_conditioning": "yes", "amenity": "cafe", "bar": "no", "check_date": "2023-10-05", "cuisine": "coffee_shop", "name": "Hungry Ghost", "opening_hours": "Mo-Fr 06:30-19:00; Sa-Su 07:00-19:00", "outdoor_seating": "no", "reservation": "no", "smoking": "no", "takeaway": "only", "website": "https://www.hungryghostcoffee.com/location/tribeca/"}}, {"type": "node", "id": 5519996240, "lat": 40.7121663, "lon": -74.0072104}, {"type": "node", "id": 5519996241, "lat": 40.7121584, "lon": -74.0072213}, {"type": "node", "id": 5519996242, "lat": 40.7121445, "lon": -74.0072245}, {"type": "node", "id": 5519996243, "lat": 40.7121318, "lon": -74.0072146}, {"type": "node", "id": 5519996244, "lat": 40.7121273, "lon": -74.0071988}, {"type": "node", "id": 5519996245, "lat": 40.7121309, "lon": -74.0071823}, {"type": "node", "id": 5519996247, "lat": 40.7121125, "lon": -74.0071677, "tags": {"highway": "street_lamp", "lamp_mount": "lamppost"}}, {"type": "node", "id": 5519996248, "lat": 40.7121256, "lon": -74.0071385}, {"type": "node", "id": 5519996249, "lat": 40.7121158, "lon": -74.0071234}, {"type": "node", "id": 5519996250, "lat": 40.7121161, "lon": -74.0071087}, {"type": "node", "id": 5519996251, "lat": 40.7121253, "lon": -74.0070952}, {"type": "node", "id": 5519996252, "lat": 40.7121351, "lon": -74.0070929}, {"type": "node", "id": 5519996253, "lat": 40.7121443, "lon": -74.0070979}, {"type": "node", "id": 5519996254, "lat": 40.7121549, "lon": -74.0070747, "tags": {"highway": "street_lamp", "lamp_mount": "lamppost"}}, {"type": "node", "id": 5519996255, "lat": 40.7121744, "lon": -74.0070903}, {"type": "node", "id": 5519996256, "lat": 40.7121869, "lon": -74.0070755}, {"type": "node", "id": 5519996257, "lat": 40.7121989, "lon": -74.0070757}, {"type": "node", "id": 5519996258, "lat": 40.7122089, "lon": -74.0070854}, {"type": "node", "id": 5519996259, "lat": 40.7122124, "lon": -74.007104}, {"type": "node", "id": 5519996260, "lat": 40.7122081, "lon": -74.007117}, {"type": "node", "id": 5519996261, "lat": 40.7122261, "lon": -74.0071312, "tags": {"highway": "street_lamp", "lamp_mount": "lamppost"}}, {"type": "node", "id": 5519996262, "lat": 40.7122163, "lon": -74.0071525}, {"type": "node", "id": 5519996263, "lat": 40.7122274, "lon": -74.0071723}, {"type": "node", "id": 5519996264, "lat": 40.7122254, "lon": -74.0071897}, {"type": "node", "id": 5519996265, "lat": 40.7122181, "lon": -74.0072003}, {"type": "node", "id": 5519996266, "lat": 40.7122063, "lon": -74.0072048}, {"type": "node", "id": 5519996267, "lat": 40.7121947, "lon": -74.0072}, {"type": "node", "id": 5519996268, "lat": 40.7122229, "lon": -74.0071596}, {"type": "node", "id": 5519996273, "lat": 40.7120371, "lon": -74.0070217, "tags": {"amenity": "drinking_water", "wheelchair": "yes"}}, {"type": "node", "id": 5519996274, "lat": 40.7130254, "lon": -74.0062278}, {"type": "node", "id": 5519996275, "lat": 40.7127755, "lon": -74.0064455}, {"type": "node", "id": 5519996276, "lat": 40.7127133, "lon": -74.0063211}, {"type": "node", "id": 5519996277, "lat": 40.7127656, "lon": -74.0062755}, {"type": "node", "id": 5519996278, "lat": 40.7127084, "lon": -74.006161}, {"type": "node", "id": 5519996279, "lat": 40.7126875, "lon": -74.006179}, {"type": "node", "id": 5519996280, "lat": 40.7125975, "lon": -74.0060005}, {"type": "node", "id": 5519996282, "lat": 40.7125612, "lon": -74.005867}, {"type": "node", "id": 5519996283, "lat": 40.712508, "lon": -74.0059134}, {"type": "node", "id": 5519996284, "lat": 40.712445, "lon": -74.0057875}, {"type": "node", "id": 5519996285, "lat": 40.7126963, "lon": -74.0055687}, {"type": "node", "id": 5519996286, "lat": 40.7128167, "lon": -74.0058093}, {"type": "node", "id": 5519996287, "lat": 40.7128392, "lon": -74.0057897}, {"type": "node", "id": 5519996288, "lat": 40.7129289, "lon": -74.0059683}, {"type": "node", "id": 5519996289, "lat": 40.7129057, "lon": -74.0059886}, {"type": "node", "id": 5520006613, "lat": 40.7135327, "lon": -74.0065022, "tags": {"amenity": "drinking_water", "fountain": "bubbler"}}, {"type": "node", "id": 5520366543, "lat": 40.7133701, "lon": -74.0081717, "tags": {"addr:housenumber": "10", "addr:street": "Murray Street", "amenity": "restaurant", "name": "Healthy Joe\u2019s", "phone": "+1-212-962-1813"}}, {"type": "node", "id": 5520380022, "lat": 40.7133082, "lon": -74.0080416, "tags": {"addr:housenumber": "10", "addr:street": "Murray Street", "amenity": "restaurant", "cuisine": "indian", "name": "Aahar"}}, {"type": "node", "id": 5549105921, "lat": 40.7139689, "lon": -74.0089327, "tags": {"addr:city": "New York", "addr:housenumber": "130", "addr:postcode": "10007", "addr:state": "NY", "addr:street": "Church Street", "alt_name": "Dunkin' Donuts", "amenity": "fast_food", "brand": "Dunkin'", "brand:wikidata": "Q847743", "cuisine": "donut;coffee_shop", "drive_through": "no", "indoor_seating": "yes", "name": "Dunkin'", "opening_hours": "Mo-Fr 05:30-22:00; Sa-Su 06:00-21:00", "outdoor_seating": "no", "phone": "+1 212-608-3512", "ref": "340611", "takeaway": "yes", "website": "https://locations.dunkindonuts.com/en/ny/new-york/130-church-st/340611"}}, {"type": "node", "id": 5640199665, "lat": 40.7140838, "lon": -74.0036284, "tags": {"addr:housenumber": "2", "addr:postcode": "10007", "addr:street": "Lafayette Street", "amenity": "fast_food", "atm": "yes", "cuisine": "american;salad;pizza", "name": "Corte Cafe", "phone": "+1 212 766 3200"}}, {"type": "node", "id": 5804900565, "lat": 40.7119174, "lon": -74.0094303, "tags": {"access": "yes", "amenity": "parking", "fee": "yes", "parking": "multi-storey", "wheelchair": "yes"}}, {"type": "node", "id": 5857617398, "lat": 40.7147175, "lon": -74.0071909, "tags": {"addr:city": "New York", "addr:housenumber": "87", "addr:postcode": "10007", "addr:state": "NY", "addr:street": "Chambers Street", "amenity": "clinic", "branch": "Chambers", "brand": "CityMD", "healthcare": "clinic", "name": "CityMD", "opening_hours": "24/7 off \"Temporarily closed for construction\"", "operator": "CityMD", "operator:type": "private", "operator:wikidata": "Q22295471", "operator:wikipedia": "en:CityMD", "phone": "+1 212-335-0594", "website": "https://www.citymd.com/urgent-care-locations/ny/new-york/chambers/037"}}, {"type": "node", "id": 5950163185, "lat": 40.715602, "lon": -74.0076362, "tags": {"amenity": "restaurant", "check_date:opening_hours": "2023-11-06", "cuisine": "mediterranean", "diet:kosher": "yes", "diet:vegetarian": "yes", "indoor_seating": "yes", "name": "Nish Nush", "opening_hours": "Mo-Su 11:00-20:00", "opening_hours:signed": "no", "outdoor_seating": "yes", "phone": "+1-848-294-1690", "website": "https://nishnushnyc.com/", "wheelchair": "yes"}}, {"type": "node", "id": 5978556732, "lat": 40.711246, "lon": -74.0063142, "tags": {"addr:city": "New York", "addr:housenumber": "140", "addr:postcode": "10038", "addr:state": "NY", "addr:street": "Nassau Street", "amenity": "cafe", "name": "Variety Coffee", "phone": "+1-212-267-0207", "website": "https://varietycoffeeroasters.com/"}}, {"type": "node", "id": 5978556762, "lat": 40.7141063, "lon": -74.0090225, "tags": {"addr:housenumber": "41", "addr:street": "Murray Street", "amenity": "pub", "cuisine": "mexican", "name": "Boss Tweeds", "website": "https://bosstweeds.nyc/"}}, {"type": "node", "id": 5978556764, "lat": 40.713344, "lon": -74.0083078, "tags": {"addr:housenumber": "14", "addr:street": "Murray Street", "amenity": "post_office", "brand": "The UPS Store", "brand:wikidata": "Q7771029", "name": "The UPS Store", "operator": "The UPS Store", "operator:type": "private", "operator:wikidata": "Q7771029", "operator:wikipedia": "en:The UPS Store", "shop": "copyshop", "short_name": "UPS"}}, {"type": "node", "id": 5978556765, "lat": 40.7120013, "lon": -74.0083763, "tags": {"amenity": "bank", "brand": "First Republic Bank", "brand:wikidata": "Q5453752", "name": "First Republic Bank", "wheelchair": "yes"}}, {"type": "node", "id": 5978792516, "lat": 40.7147978, "lon": -74.009995, "tags": {"addr:housenumber": "66", "addr:street": "West Broadway", "amenity": "restaurant", "check_date": "2023-07-31", "level": "0", "name": "Della's", "wheelchair": "no"}}, {"type": "node", "id": 6061610718, "lat": 40.7152236, "lon": -74.0088979, "tags": {"amenity": "pub", "cuisine": "pub", "name": "Mudville 9", "phone": "+1-212-964-9464", "website": "https://www.mudville9.com/", "wheelchair": "yes"}}, {"type": "node", "id": 6150654567, "lat": 40.7118402, "lon": -74.0059383}, {"type": "node", "id": 6150654568, "lat": 40.7118616, "lon": -74.005907}, {"type": "node", "id": 6150654569, "lat": 40.7119434, "lon": -74.0053073}, {"type": "node", "id": 6150654570, "lat": 40.7119284, "lon": -74.0052258}, {"type": "node", "id": 6150654571, "lat": 40.7118666, "lon": -74.0051957}, {"type": "node", "id": 6150654572, "lat": 40.7115938, "lon": -74.0056974}, {"type": "node", "id": 6307163185, "lat": 40.7132245, "lon": -74.0095284, "tags": {"amenity": "fast_food", "brand": "Pret A Manger", "brand:wikidata": "Q2109109", "cuisine": "sandwich", "indoor_seating": "yes", "name": "Pret A Manger", "outdoor_seating": "no", "short_name": "Pret", "takeaway": "yes"}}, {"type": "node", "id": 6371402585, "lat": 40.7153692, "lon": -74.0069849, "tags": {"amenity": "bar", "name": "1803NYC"}}, {"type": "node", "id": 6458076485, "lat": 40.7120859, "lon": -74.0098739, "tags": {"amenity": "bus_station", "bus": "yes", "name": "The Oculus", "public_transport": "station"}}, {"type": "node", "id": 6534305184, "lat": 40.714205, "lon": -74.006486, "tags": {"access": "yes", "addr:housenumber": "80", "addr:postcode": "10007", "addr:street": "Chambers Street", "amenity": "post_box", "colour": "blue", "covered": "no", "drive_through": "no", "indoor": "no", "level": "0", "operator": "United States Postal Service", "operator:short": "USPS", "operator:type": "public", "operator:website": "https://www.usps.com", "operator:wikidata": "Q668687", "operator:wikipedia": "en:United States Postal Service", "post_box:type": "pillar", "short_name": "USPS", "support": "ground"}}, {"type": "node", "id": 6534314085, "lat": 40.7144154, "lon": -74.0064321, "tags": {"amenity": "post_box", "colour": "gray", "drive_through": "no", "indoor": "yes", "level": "0", "post_box:type": "wall", "support": "wall_mounted"}}, {"type": "node", "id": 6918687642, "lat": 40.714816, "lon": -74.0091158, "tags": {"amenity": "dentist", "healthcare": "dentist", "name": "Tribeca Dental Studio"}}, {"type": "node", "id": 7700135685, "lat": 40.7151708, "lon": -74.0104716, "tags": {"addr:housenumber": "81", "addr:street": "Warren Street", "amenity": "restaurant", "cuisine": "tacos", "name": "Taq", "phone": "+1 212-301-7824"}}, {"type": "node", "id": 7951278059, "lat": 40.7151717, "lon": -74.0055942, "tags": {"amenity": "post_box", "operator": "United States Postal Service", "operator:short": "USPS", "operator:type": "public", "operator:website": "https://www.usps.com", "operator:wikidata": "Q668687", "operator:wikipedia": "en:United States Postal Service", "short_name": "USPS"}}, {"type": "node", "id": 7951278060, "lat": 40.7155518, "lon": -74.0059444, "tags": {"amenity": "post_box", "brand": "FedEx", "brand:wikidata": "Q459477", "operator": "FedEx", "operator:type": "private", "operator:wikidata": "Q459477", "operator:wikipedia": "en:FedEx"}}, {"type": "node", "id": 7951278061, "lat": 40.7158586, "lon": -74.0062744, "tags": {"access": "yes", "amenity": "bicycle_parking", "bicycle_parking": "stands", "capacity": "7", "covered": "no", "operator:type": "private"}}, {"type": "node", "id": 7951278062, "lat": 40.7153984, "lon": -74.0054967, "tags": {"amenity": "pharmacy", "brand": "Duane Reade", "brand:wikidata": "Q5310380", "dispensing": "yes", "healthcare": "pharmacy", "name": "Duane Reade"}}, {"type": "node", "id": 8095882129, "lat": 40.7118745, "lon": -74.0094667, "tags": {"amenity": "parking_entrance", "parking": "underground"}}, {"type": "node", "id": 8226530660, "lat": 40.7132312, "lon": -74.0073045, "tags": {"addr:city": "New York", "addr:housenumber": "253", "addr:postcode": "10007", "addr:state": "NY", "addr:street": "Broadway", "air_conditioning": "yes", "amenity": "bank", "atm": "yes", "branch": "City Hall", "brand": "Chase", "brand:wikidata": "Q524629", "drive_through": "no", "internet_access": "no", "level": "0", "name": "Chase", "opening_hours": "Mo-Fr 09:00-17:00; PH off", "opening_hours:atm": "24/7", "phone": "+1-212-577-7020", "smoking": "no", "website": "https://locator.chase.com/ny/new-york/253-broadway", "wheelchair": "yes"}}, {"type": "node", "id": 8262309192, "lat": 40.7128475, "lon": -74.0071796}, {"type": "node", "id": 8262936548, "lat": 40.7114398, "lon": -74.0094452}, {"type": "node", "id": 8279851463, "lat": 40.7118585, "lon": -74.0094969, "tags": {"amenity": "bicycle_parking", "bicycle_parking": "stands", "capacity": "2", "colour": "silver", "covered": "yes", "fee": "no", "indoor": "no", "material": "metal", "model": "DOT Large Hoop", "operator": "DOT"}}, {"type": "node", "id": 8281893493, "lat": 40.7103113, "lon": -74.0043085}, {"type": "node", "id": 8281893494, "lat": 40.7102985, "lon": -74.0042953}, {"type": "node", "id": 8281893495, "lat": 40.710292, "lon": -74.0042704}, {"type": "node", "id": 8281893496, "lat": 40.7102923, "lon": -74.0042571}, {"type": "node", "id": 8281893497, "lat": 40.7103002, "lon": -74.0042315}, {"type": "node", "id": 8281893498, "lat": 40.7103222, "lon": -74.0042045}, {"type": "node", "id": 8281893499, "lat": 40.7105114, "lon": -74.0039956}, {"type": "node", "id": 8281893500, "lat": 40.7105977, "lon": -74.0039105}, {"type": "node", "id": 8281893501, "lat": 40.7106706, "lon": -74.0038562}, {"type": "node", "id": 8281893503, "lat": 40.7110872, "lon": -74.004466}, {"type": "node", "id": 8281893504, "lat": 40.7111012, "lon": -74.0044473}, {"type": "node", "id": 8281893505, "lat": 40.7111316, "lon": -74.0044621}, {"type": "node", "id": 8281893506, "lat": 40.7112087, "lon": -74.004476}, {"type": "node", "id": 8281893507, "lat": 40.7112611, "lon": -74.0044754}, {"type": "node", "id": 8281893508, "lat": 40.7113041, "lon": -74.0044691}, {"type": "node", "id": 8281893510, "lat": 40.711491, "lon": -74.0046189}, {"type": "node", "id": 8281893511, "lat": 40.7118593, "lon": -74.0051843}, {"type": "node", "id": 8281922017, "lat": 40.7119388, "lon": -74.0052632}, {"type": "node", "id": 8281922018, "lat": 40.711942, "lon": -74.0053478}, {"type": "node", "id": 8281922023, "lat": 40.7118283, "lon": -74.0059377}, {"type": "node", "id": 8281922024, "lat": 40.7118146, "lon": -74.0059304}, {"type": "node", "id": 8281922025, "lat": 40.7117216, "lon": -74.0058311, "tags": {"barrier": "kerb", "kerb": "lowered", "tactile_paving": "no", "wheelchair": "yes"}}, {"type": "node", "id": 8281922038, "lat": 40.7113422, "lon": -74.0044524}, {"type": "node", "id": 8281922096, "lat": 40.7116774, "lon": -74.0057832, "tags": {"barrier": "kerb", "kerb": "lowered", "tactile_paving": "yes", "wheelchair": "yes"}}, {"type": "node", "id": 8281922098, "lat": 40.7118501, "lon": -74.0059319, "tags": {"barrier": "kerb", "kerb": "lowered", "tactile_paving": "yes", "wheelchair": "yes"}}, {"type": "node", "id": 8318797999, "lat": 40.7150992, "lon": -74.0040459, "tags": {"amenity": "parking_entrance"}}, {"type": "node", "id": 8333736446, "lat": 40.7156689, "lon": -74.0075739, "tags": {"amenity": "restaurant", "check_date:opening_hours": "2023-11-06", "cuisine": "indian", "indoor_seating": "yes", "name": "Dilli Bistro", "opening_hours:signed": "no", "outdoor_seating": "no"}}, {"type": "node", "id": 8333736447, "lat": 40.7157083, "lon": -74.0075514, "tags": {"addr:housenumber": "178", "addr:street": "Church Street", "amenity": "restaurant", "check_date:opening_hours": "2023-11-06", "cuisine": "turkish", "indoor_seating": "yes", "name": "Soup & Gyro", "opening_hours:signed": "no", "outdoor_seating": "yes"}}, {"type": "node", "id": 8333736448, "lat": 40.7157901, "lon": -74.0070493, "tags": {"amenity": "restaurant", "name": "Burrito Mariachi"}}, {"type": "node", "id": 8333736449, "lat": 40.7158255, "lon": -74.0069978, "tags": {"amenity": "fast_food", "cuisine": "juice", "name": "Hawa Smoothie"}}, {"type": "node", "id": 8333736450, "lat": 40.7157534, "lon": -74.0070887, "tags": {"amenity": "restaurant", "check_date:opening_hours": "2023-11-06", "indoor_seating": "yes", "name": "Akimoto Sushi", "opening_hours:signed": "no", "outdoor_seating": "no"}}, {"type": "node", "id": 8333736452, "lat": 40.7156736, "lon": -74.0071471, "tags": {"amenity": "restaurant", "indoor_seating": "yes", "name": "Fresh Curry", "outdoor_seating": "no"}}, {"type": "node", "id": 8333736453, "lat": 40.7156466, "lon": -74.0071734, "tags": {"addr:city": "New York", "addr:housenumber": "181", "addr:postcode": "10013", "addr:state": "NY", "addr:street": "Church Street", "amenity": "fast_food", "brand": "Domino's", "brand:wikidata": "Q839466", "cuisine": "pizza", "indoor_seating": "yes", "name": "Domino's", "opening_hours": "Su-Th 10:30-24:00, Fr,Sa 10:30-01:00", "outdoor_seating": "no", "phone": "+1 212-566-8888", "ref": "3682", "takeaway": "yes", "website": "https://pizza.dominos.com/new-york/new-york/181-church-street"}}, {"type": "node", "id": 8333736454, "lat": 40.7154979, "lon": -74.0072818, "tags": {"amenity": "restaurant", "name": "1803 NYC"}}, {"type": "node", "id": 8333736457, "lat": 40.7150577, "lon": -74.0076117, "tags": {"addr:city": "New York", "addr:housenumber": "165", "addr:postcode": "10007", "addr:state": "NY", "addr:street": "Church Street", "amenity": "fast_food", "brand": "Subway", "brand:wikidata": "Q244457", "cuisine": "sandwich", "indoor_seating": "yes", "name": "Subway", "opening_hours": "Mo-Fr 08:30-22:30; Sa-Su 10:00-22:00", "outdoor_seating": "no", "phone": "+1 212-406-7582", "takeaway": "yes", "website": "https://restaurants.subway.com/united-states/ny/new-york/165-church-st"}}, {"type": "node", "id": 8333736458, "lat": 40.7148666, "lon": -74.0066475, "tags": {"amenity": "restaurant", "name": "Maxwell's"}}, {"type": "node", "id": 8333736459, "lat": 40.7143289, "lon": -74.0077874, "tags": {"amenity": "restaurant", "name": "Gran Morsi"}}, {"type": "node", "id": 8333736460, "lat": 40.713638, "lon": -74.0080761, "tags": {"amenity": "restaurant", "name": "Dark Horse"}}, {"type": "node", "id": 8333736461, "lat": 40.7130755, "lon": -74.0083507, "tags": {"amenity": "restaurant", "name": "Little Italy Pizza"}}, {"type": "node", "id": 8333736462, "lat": 40.7126108, "lon": -74.008134, "tags": {"amenity": "bar", "name": "Five & Dime"}}, {"type": "node", "id": 8644302518, "lat": 40.7143494, "lon": -74.0086532, "tags": {"amenity": "restaurant", "indoor_seating": "yes", "name": "Los Tacos No. 1", "outdoor_seating": "no"}}, {"type": "node", "id": 8644307517, "lat": 40.7137611, "lon": -74.009094, "tags": {"addr:city": "New York", "addr:housenumber": "120", "addr:postcode": "10007", "addr:state": "NY", "addr:street": "Church Street", "amenity": "cafe", "branch": "Church Street & Murray", "brand": "Starbucks", "brand:wikidata": "Q37158", "cuisine": "coffee_shop", "name": "Starbucks", "official_name": "Starbucks Coffee", "phone": "+1 212-513-1451", "ref": "11040", "takeaway": "yes", "website": "https://www.starbucks.com/store-locator/store/11040/church-street-murray-120-church-street-new-york-ny-100072402-us"}}, {"type": "node", "id": 8644307617, "lat": 40.7140947, "lon": -74.0087963, "tags": {"addr:city": "New York", "addr:housenumber": "130", "addr:postcode": "10007", "addr:state": "NY", "addr:street": "Church Street", "amenity": "post_office", "brand": "DHL", "brand:wikidata": "Q489815", "name": "DHL", "operator": "DHL", "operator:type": "private", "operator:wikidata": "Q489815", "operator:wikipedia": "en:DHL"}}, {"type": "node", "id": 8644307717, "lat": 40.7151424, "lon": -74.0079858, "tags": {"addr:housenumber": "154", "addr:postcode": "10013", "addr:street": "Church Street", "amenity": "restaurant", "check_date": "2023-02-23", "indoor_seating": "yes", "level": "0", "name": "Little Italy Pizza", "outdoor_seating": "no"}}, {"type": "node", "id": 8648127019, "lat": 40.7162708, "lon": -74.009711, "tags": {"amenity": "bar", "check_date:opening_hours": "2023-11-06", "indoor_seating": "yes", "name": "Bar 135", "opening_hours:signed": "no", "outdoor_seating": "yes"}}, {"type": "node", "id": 8648127119, "lat": 40.7162462, "lon": -74.0090041, "tags": {"amenity": "bank", "brand": "Citizens Bank", "brand:wikidata": "Q5122694", "name": "Citizens Bank", "short_name": "Citizens"}}, {"type": "node", "id": 8648230017, "lat": 40.7141066, "lon": -74.0092265, "tags": {"amenity": "restaurant", "cuisine": "indian", "name": "Benares", "website": "https://www.benaresnyc.com/"}}, {"type": "node", "id": 8765317221, "lat": 40.7132343, "lon": -74.0088443, "tags": {"addr:housenumber": "25", "addr:street": "Park Place", "amenity": "restaurant", "name": "Lenwich"}}, {"type": "node", "id": 8765333020, "lat": 40.7127837, "lon": -74.0077783, "tags": {"amenity": "pharmacy", "brand": "Duane Reade", "brand:wikidata": "Q5310380", "healthcare": "pharmacy", "name": "Duane Reade"}}, {"type": "node", "id": 8765403718, "lat": 40.7128883, "lon": -74.0080601, "tags": {"addr:city": "New York", "addr:housenumber": "5", "addr:postcode": "10007", "addr:state": "NY", "addr:street": "Park Place", "alt_name": "Dunkin' Donuts", "amenity": "fast_food", "brand": "Dunkin'", "brand:wikidata": "Q847743", "cuisine": "donut;coffee_shop", "drive_through": "no", "name": "Dunkin'", "opening_hours": "Mo-Fr 05:30-18:00; Sa-Su 06:00-16:00", "phone": "+1 212-732-0406", "ref": "307107", "takeaway": "yes", "website": "https://locations.dunkindonuts.com/en/ny/new-york/250-broadway/307107"}}, {"type": "node", "id": 8765413917, "lat": 40.7146549, "lon": -74.0077106, "tags": {"amenity": "restaurant", "cuisine": "indian", "indoor_seating": "yes", "name": "Saffron", "outdoor_seating": "no"}}, {"type": "node", "id": 8769344317, "lat": 40.7154591, "lon": -74.0088142, "tags": {"amenity": "fast_food", "brand": "Sweetgreen", "brand:wikidata": "Q18636413", "cuisine": "salad", "indoor_seating": "yes", "name": "Sweetgreen", "outdoor_seating": "yes", "takeaway": "yes"}}, {"type": "node", "id": 8769373117, "lat": 40.715417, "lon": -74.0077674, "tags": {"addr:housenumber": "168", "addr:postcode": "10013", "addr:street": "Church Street", "amenity": "atm", "brand": "Bank of America", "brand:wikidata": "Q487907", "name": "Bank of America", "operator": "Bank of America", "operator:wikidata": "Q487907", "operator:wikipedia": "en:Bank of America", "website": "https://locators.bankofamerica.com/ny/newyork/atm-new-york-107796.html"}}, {"type": "node", "id": 8857482017, "lat": 40.7150927, "lon": -74.0085798, "tags": {"amenity": "restaurant", "cuisine": "chinese", "indoor_seating": "no", "name": "Chinared", "outdoor_seating": "no", "takeaway": "only"}}, {"type": "node", "id": 8861668918, "lat": 40.7132893, "lon": -74.0096484, "tags": {"amenity": "cafe", "name": "Salad Box"}}, {"type": "node", "id": 8883769317, "lat": 40.7148605, "lon": -74.0059829, "tags": {"addr:city": "New York", "addr:housenumber": "291", "addr:postcode": "10007", "addr:state": "NY", "addr:street": "Broadway", "air_conditioning": "yes", "amenity": "cafe", "bar": "no", "branch": "Broadway & Reade", "brand": "Starbucks", "brand:wikidata": "Q37158", "check_date": "2024-01-29", "cuisine": "coffee_shop", "delivery": "yes", "drive_through": "no", "highchair": "no", "internet_access": "wlan", "internet_access:fee": "no", "level": "0", "name": "Starbucks", "official_name": "Starbucks Coffee", "outdoor_seating": "no", "payment:app": "yes", "payment:cash": "yes", "payment:credit_cards": "yes", "phone": "+1 212-406-5315", "ref": "18526", "smoking": "no", "takeaway": "yes", "website": "https://www.starbucks.com/store-locator/store/18526/broadway-reade-291-broadway-new-york-ny-100071814-us"}}, {"type": "node", "id": 8883778718, "lat": 40.7160212, "lon": -74.0049448, "tags": {"addr:city": "New York", "addr:housenumber": "321", "addr:postcode": "10007", "addr:state": "NY", "addr:street": "Broadway", "alt_name": "Dunkin' Donuts", "amenity": "fast_food", "brand": "Dunkin'", "brand:wikidata": "Q847743", "cuisine": "donut;coffee_shop", "drive_through": "no", "name": "Dunkin'", "opening_hours": "24/7", "phone": "+1 212-577-7550", "ref": "307108", "takeaway": "yes", "website": "https://locations.dunkindonuts.com/en/ny/new-york/321-broadway/307108"}}, {"type": "node", "id": 8883778719, "lat": 40.7161952, "lon": -74.0048063, "tags": {"addr:city": "New York", "addr:housenumber": "325", "addr:postcode": "10007", "addr:state": "NY", "addr:street": "Broadway", "amenity": "fast_food", "brand": "Burger King", "brand:wikidata": "Q177054", "cuisine": "burger", "internet_access": "wlan", "name": "Burger King", "opening_hours": "Mo-Fr 09:00-19:00", "phone": "+1 212-346-0954", "ref": "20333", "takeaway": "yes", "website": "https://www.bk.com/store-locator/store/restaurant_13923"}}, {"type": "node", "id": 8883780917, "lat": 40.7163789, "lon": -74.0049643, "tags": {"addr:city": "New York", "addr:housenumber": "90", "addr:postcode": "10007", "addr:state": "NY", "addr:street": "Worth Street", "addr:unit": "7", "amenity": "fast_food", "brand": "Subway", "brand:wikidata": "Q244457", "cuisine": "sandwich", "name": "Subway", "opening_hours": "Mo-Fr 08:00-20:00; Sa-Su 10:00-18:00", "phone": "+1 212-513-0937", "takeaway": "yes", "website": "https://restaurants.subway.com/united-states/ny/new-york/90-worth-street"}}, {"type": "node", "id": 8883795718, "lat": 40.7160631, "lon": -74.0085698, "tags": {"addr:street": "West Broadway", "amenity": "cafe", "name": "Bluestone Lane"}}, {"type": "node", "id": 9106019885, "lat": 40.7155885, "lon": -74.0053623, "tags": {"addr:city": "New York", "addr:housenumber": "311", "addr:postcode": "10007", "addr:state": "NY", "addr:street": "Broadway", "amenity": "fast_food", "cuisine": "wings", "level": "0", "name": "Atomic Wings", "opening_hours": "11:00-23:00", "phone": "+1-212-571-7667", "website": "https://www.atomicwings.com"}}, {"type": "node", "id": 9148457104, "lat": 40.7127772, "lon": -74.0073432, "tags": {"amenity": "bicycle_parking", "bicycle_parking": "bollard", "brand": "dot_small_hoop", "capacity": "2", "covered": "no"}}, {"type": "node", "id": 9148457105, "lat": 40.7122289, "lon": -74.0080549, "tags": {"access": "yes", "amenity": "bicycle_parking", "bicycle_parking": "stands", "capacity": "2", "covered": "no"}}, {"type": "node", "id": 9148457108, "lat": 40.7132415, "lon": -74.0069527, "tags": {"amenity": "bicycle_parking", "bicycle_parking": "bollard", "brand": "dot_small_hoop", "capacity": "2", "covered": "no"}}, {"type": "node", "id": 9148457112, "lat": 40.7139678, "lon": -74.0063134, "tags": {"amenity": "bicycle_parking", "bicycle_parking": "bollard", "brand": "dot_small_hoop", "capacity": "2", "covered": "no"}}, {"type": "node", "id": 9148457114, "lat": 40.7136576, "lon": -74.0065972, "tags": {"amenity": "bicycle_parking", "bicycle_parking": "bollard", "brand": "dot_small_hoop", "capacity": "2", "covered": "no"}}, {"type": "node", "id": 9148457115, "lat": 40.7114841, "lon": -74.008324, "tags": {"amenity": "clock"}}, {"type": "node", "id": 9148467018, "lat": 40.7136428, "lon": -74.0069806, "tags": {"amenity": "bicycle_parking", "bicycle_parking": "stands", "capacity": "5", "covered": "no"}}, {"type": "node", "id": 9149294704, "lat": 40.7160997, "lon": -74.0038958, "tags": {"access": "yes", "amenity": "parking", "fee": "yes", "layer": "-1", "parking": "underground"}}, {"type": "node", "id": 9364517338, "lat": 40.7121631, "lon": -74.0072164}, {"type": "node", "id": 9364517339, "lat": 40.7121517, "lon": -74.0072245}, {"type": "node", "id": 9364517340, "lat": 40.7121397, "lon": -74.0072226}, {"type": "node", "id": 9364517341, "lat": 40.7121353, "lon": -74.0072192}, {"type": "node", "id": 9364517342, "lat": 40.7121286, "lon": -74.0072072}, {"type": "node", "id": 9364517343, "lat": 40.7121281, "lon": -74.0071898}, {"type": "node", "id": 9364517344, "lat": 40.7121798, "lon": -74.0070806}, {"type": "node", "id": 9364517345, "lat": 40.7122002, "lon": -74.0072035}, {"type": "node", "id": 9364517346, "lat": 40.7122125, "lon": -74.0072038}, {"type": "node", "id": 9364517347, "lat": 40.7122223, "lon": -74.0071956}, {"type": "node", "id": 9364517348, "lat": 40.7122274, "lon": -74.0071812}, {"type": "node", "id": 9364517349, "lat": 40.7122258, "lon": -74.0071656}, {"type": "node", "id": 9364517350, "lat": 40.7122199, "lon": -74.0071556}, {"type": "node", "id": 9364517351, "lat": 40.7122109, "lon": -74.0071109}, {"type": "node", "id": 9364517352, "lat": 40.7122124, "lon": -74.0070975}, {"type": "node", "id": 9364517353, "lat": 40.7122112, "lon": -74.0070912}, {"type": "node", "id": 9364517354, "lat": 40.7122045, "lon": -74.0070795}, {"type": "node", "id": 9364517355, "lat": 40.7121929, "lon": -74.0070744}, {"type": "node", "id": 9364517356, "lat": 40.7121832, "lon": -74.0070776}, {"type": "node", "id": 9364517357, "lat": 40.7121767, "lon": -74.0070851}, {"type": "node", "id": 9364517358, "lat": 40.7121213, "lon": -74.0071348}, {"type": "node", "id": 9364517359, "lat": 40.7121179, "lon": -74.0071296}, {"type": "node", "id": 9364517360, "lat": 40.7121151, "lon": -74.007116}, {"type": "node", "id": 9364517361, "lat": 40.7121183, "lon": -74.0071032}, {"type": "node", "id": 9364517362, "lat": 40.7121214, "lon": -74.0070986}, {"type": "node", "id": 9364517363, "lat": 40.7121301, "lon": -74.0070932}, {"type": "node", "id": 9364517364, "lat": 40.71214, "lon": -74.0070945}, {"type": "node", "id": 9364517367, "lat": 40.7120567, "lon": -74.0079513, "tags": {"amenity": "waste_basket"}}, {"type": "node", "id": 9364517405, "lat": 40.7118587, "lon": -74.0059197}, {"type": "node", "id": 9364519628, "lat": 40.7119127, "lon": -74.0051906}, {"type": "node", "id": 9364519629, "lat": 40.7118949, "lon": -74.0051572}, {"type": "node", "id": 9364519631, "lat": 40.7118761, "lon": -74.0051811}, {"type": "node", "id": 9364519696, "lat": 40.7125249, "lon": -74.0046362, "tags": {"amenity": "bench", "backrest": "yes", "material": "wood"}}, {"type": "node", "id": 9368522372, "lat": 40.7120005, "lon": -74.0076678, "tags": {"amenity": "waste_basket"}}, {"type": "node", "id": 9368522406, "lat": 40.7119003, "lon": -74.0075848, "tags": {"amenity": "waste_basket"}}, {"type": "node", "id": 9368527017, "lat": 40.7121295, "lon": -74.0074334, "tags": {"amenity": "bench", "backrest": "yes"}}, {"type": "node", "id": 9368527018, "lat": 40.7119979, "lon": -74.0073403, "tags": {"amenity": "bench", "backrest": "yes"}}, {"type": "node", "id": 9368527019, "lat": 40.7122555, "lon": -74.0068884, "tags": {"amenity": "bench", "backrest": "yes"}}, {"type": "node", "id": 9368527020, "lat": 40.7123143, "lon": -74.0069294, "tags": {"amenity": "bench", "backrest": "yes"}}, {"type": "node", "id": 9368527036, "lat": 40.7125968, "lon": -74.0066768}, {"type": "node", "id": 9368527064, "lat": 40.7127799, "lon": -74.0070441}, {"type": "node", "id": 9368527069, "lat": 40.7128189, "lon": -74.0065165}, {"type": "node", "id": 9368527070, "lat": 40.7130583, "lon": -74.0069967}, {"type": "node", "id": 9368527073, "lat": 40.7128195, "lon": -74.0071233}, {"type": "node", "id": 9368527083, "lat": 40.7126412, "lon": -74.0060873, "tags": {"access": "permit", "entrance": "main"}}, {"type": "node", "id": 9368823842, "lat": 40.7128854, "lon": -74.0058825, "tags": {"access": "permit", "entrance": "yes"}}, {"type": "node", "id": 9368823990, "lat": 40.7127426, "lon": -74.0065503}, {"type": "node", "id": 9368823991, "lat": 40.7127539, "lon": -74.0065729}, {"type": "node", "id": 9368824105, "lat": 40.7127833, "lon": -74.0065473}, {"type": "node", "id": 9368824112, "lat": 40.7126508, "lon": -74.00663}, {"type": "node", "id": 9368824113, "lat": 40.7126769, "lon": -74.0066073}, {"type": "node", "id": 9368824114, "lat": 40.7130006, "lon": -74.006881}, {"type": "node", "id": 9369042307, "lat": 40.7128882, "lon": -74.0071442}, {"type": "node", "id": 9369042329, "lat": 40.7129358, "lon": -74.004618, "tags": {"amenity": "bench"}}, {"type": "node", "id": 9369042330, "lat": 40.7130608, "lon": -74.0047386, "tags": {"amenity": "bench"}}, {"type": "node", "id": 9369042331, "lat": 40.7130151, "lon": -74.0044335, "tags": {"amenity": "bench", "backrest": "yes"}}, {"type": "node", "id": 9369042332, "lat": 40.713016, "lon": -74.0046614, "tags": {"amenity": "bench"}}, {"type": "node", "id": 9373577338, "lat": 40.7133294, "lon": -74.0060562, "tags": {"amenity": "bench", "backrest": "yes", "material": "wood"}}, {"type": "node", "id": 9373577362, "lat": 40.7134689, "lon": -74.0063747, "tags": {"amenity": "bench", "backrest": "yes"}}, {"type": "node", "id": 9374424913, "lat": 40.7129565, "lon": -74.007085}, {"type": "node", "id": 9390091096, "lat": 40.7125904, "lon": -74.0043918, "tags": {"amenity": "bench"}}, {"type": "node", "id": 9390091097, "lat": 40.7124505, "lon": -74.0041316, "tags": {"amenity": "bench"}}, {"type": "node", "id": 9390091098, "lat": 40.7123969, "lon": -74.0041919, "tags": {"amenity": "bench"}}, {"type": "node", "id": 9390091099, "lat": 40.7122461, "lon": -74.0043385, "tags": {"amenity": "bench"}}, {"type": "node", "id": 9561251815, "lat": 40.7113257, "lon": -74.0055508, "tags": {"amenity": "bicycle_parking", "bicycle_parking": "stands", "capacity": "2", "colour": "silver", "covered": "yes", "fee": "no", "indoor": "no", "material": "metal", "model": "DOT Large Hoop", "operator": "DOT"}}, {"type": "node", "id": 9595746867, "lat": 40.7135748, "lon": -74.0066715, "tags": {"amenity": "waste_basket", "waste": "trash;plastic;paper"}}, {"type": "node", "id": 9595746868, "lat": 40.7134221, "lon": -74.0067945, "tags": {"amenity": "waste_basket", "waste": "trash;plastic;paper"}}, {"type": "node", "id": 9595746869, "lat": 40.7135197, "lon": -74.0065784, "tags": {"amenity": "waste_basket"}}, {"type": "node", "id": 9595762792, "lat": 40.7122275, "lon": -74.0058864, "tags": {"amenity": "waste_basket", "waste": "trash"}}, {"type": "node", "id": 9595779582, "lat": 40.7132618, "lon": -74.0040632, "tags": {"amenity": "waste_basket", "colour": "green", "material": "metal", "waste": "trash"}}, {"type": "node", "id": 9597497852, "lat": 40.7139902, "lon": -74.0074109, "tags": {"amenity": "recycling", "recycling_type": "container"}}, {"type": "node", "id": 9597497853, "lat": 40.7127007, "lon": -74.0098393, "tags": {"amenity": "waste_basket"}}, {"type": "node", "id": 9597526119, "lat": 40.7120208, "lon": -74.0064485, "tags": {"amenity": "waste_basket", "waste": "trash;recycling;plastic"}}, {"type": "node", "id": 9597526120, "lat": 40.7118028, "lon": -74.0062623, "tags": {"amenity": "waste_basket", "material": "metal", "waste": "trash;recycling"}}, {"type": "node", "id": 9597526121, "lat": 40.7116888, "lon": -74.0067454, "tags": {"amenity": "waste_basket", "material": "metal", "waste": "trash;recycling"}}, {"type": "node", "id": 9597529721, "lat": 40.7146456, "lon": -74.0073615, "tags": {"amenity": "recycling", "recycling_type": "container"}}, {"type": "node", "id": 9678386366, "lat": 40.7114795, "lon": -74.0046366}, {"type": "node", "id": 9678399187, "lat": 40.7126591, "lon": -74.0041321, "tags": {"amenity": "bicycle_parking", "bicycle_parking": "stands", "capacity": "50"}}, {"type": "node", "id": 9678399188, "lat": 40.71223, "lon": -74.0059144, "tags": {"access": "private", "amenity": "bicycle_parking", "bicycle_parking": "stands", "capacity": "2", "model": "dot_large_hoop"}}, {"type": "node", "id": 9678399189, "lat": 40.7122364, "lon": -74.0059269, "tags": {"access": "private", "amenity": "bicycle_parking", "bicycle_parking": "stands", "capacity": "2", "model": "dot_large_hoop"}}, {"type": "node", "id": 9678399190, "lat": 40.7122587, "lon": -74.006137, "tags": {"access": "private", "amenity": "bicycle_parking", "bicycle_parking": "stands", "capacity": "8", "model": "dot_shed"}}, {"type": "node", "id": 9678571389, "lat": 40.7124798, "lon": -74.0078499, "tags": {"amenity": "waste_basket", "manufacturer": "Big Belly", "material": "metal", "waste": "trash;mixed"}}, {"type": "node", "id": 9678571391, "lat": 40.7128443, "lon": -74.0071538, "tags": {"access": "private", "amenity": "bicycle_parking", "bicycle_parking": "stands", "brand": "comb", "capacity": "4", "covered": "no"}}, {"type": "node", "id": 9678571392, "lat": 40.7125579, "lon": -74.0091561, "tags": {"access": "yes", "amenity": "bicycle_parking", "bicycle_parking": "stands", "brand": "dot_large_hoop", "capacity": "2"}}, {"type": "node", "id": 9678571395, "lat": 40.7116956, "lon": -74.0091362, "tags": {"amenity": "bicycle_parking", "bicycle_parking": "stands", "brand": "dot_large_hoop", "capacity": "2", "covered": "no"}}, {"type": "node", "id": 9678571396, "lat": 40.711639, "lon": -74.0090224, "tags": {"amenity": "bicycle_parking", "bicycle_parking": "stands", "brand": "dot_large_hoop", "capacity": "2", "covered": "no"}}, {"type": "node", "id": 9678571397, "lat": 40.7116128, "lon": -74.0089527, "tags": {"amenity": "bench", "backrest": "yes", "material": "metal", "operator": "NYCDOT"}}, {"type": "node", "id": 9678571408, "lat": 40.7131199, "lon": -74.0074794, "tags": {"access": "yes", "amenity": "bicycle_parking", "bicycle_parking": "stands", "brand": "dot_wave_rack", "capacity": "5", "covered": "no"}}, {"type": "node", "id": 9678572786, "lat": 40.7129504, "lon": -74.0070129, "tags": {"access": "private", "amenity": "bicycle_parking", "bicycle_parking": "stands", "brand": "dot_large_hoop", "capacity": "2", "covered": "no"}}, {"type": "node", "id": 9678572787, "lat": 40.7129415, "lon": -74.0069953, "tags": {"access": "private", "amenity": "bicycle_parking", "bicycle_parking": "stands", "brand": "dot_large_hoop", "capacity": "2", "covered": "no"}}, {"type": "node", "id": 9678572788, "lat": 40.7132069, "lon": -74.0069816, "tags": {"amenity": "bicycle_parking", "bicycle_parking": "bollard", "brand": "dot_small_hoop", "capacity": "2", "covered": "no"}}, {"type": "node", "id": 9678572789, "lat": 40.7139465, "lon": -74.0063313, "tags": {"amenity": "bicycle_parking", "bicycle_parking": "bollard", "brand": "dot_small_hoop", "capacity": "2", "covered": "no"}}, {"type": "node", "id": 9678572790, "lat": 40.7139287, "lon": -74.006345, "tags": {"amenity": "bicycle_parking", "bicycle_parking": "bollard", "brand": "dot_small_hoop", "capacity": "2", "covered": "no"}}, {"type": "node", "id": 9678572791, "lat": 40.7136969, "lon": -74.0065674, "tags": {"amenity": "bicycle_parking", "bicycle_parking": "bollard", "brand": "dot_small_hoop", "capacity": "2", "covered": "no"}}, {"type": "node", "id": 9678572792, "lat": 40.7133088, "lon": -74.0068929, "tags": {"amenity": "bicycle_parking", "bicycle_parking": "bollard", "brand": "dot_small_hoop", "capacity": "2", "covered": "no"}}, {"type": "node", "id": 9678572793, "lat": 40.7133419, "lon": -74.0068661, "tags": {"amenity": "bicycle_parking", "bicycle_parking": "bollard", "brand": "dot_small_hoop", "capacity": "2", "covered": "no"}}, {"type": "node", "id": 9678572795, "lat": 40.7144575, "lon": -74.0059712, "tags": {"access": "yes", "amenity": "bicycle_parking", "bicycle_parking": "stands", "brand": "dot_large_hoop", "capacity": "8", "covered": "no"}}, {"type": "node", "id": 9686252294, "lat": 40.7130412, "lon": -74.0092692, "tags": {"amenity": "bicycle_parking", "capacity": "2"}}, {"type": "node", "id": 9793800631, "lat": 40.7151232, "lon": -74.0103245, "tags": {"addr:city": "New York", "addr:housenumber": "77", "addr:postcode": "10007", "addr:state": "NY", "addr:street": "Warren Street", "amenity": "restaurant", "name": "WarrenPeace", "phone": "+18455925334", "website": "https://warrenpeaceny.com/"}}, {"type": "node", "id": 9909827199, "lat": 40.7137838, "lon": -74.003717, "tags": {"amenity": "waste_basket"}}, {"type": "node", "id": 9909852149, "lat": 40.7132571, "lon": -74.0041105, "tags": {"amenity": "waste_basket"}}, {"type": "node", "id": 9909882064, "lat": 40.7136351, "lon": -74.0037792, "tags": {"amenity": "waste_basket", "waste": "trash"}}, {"type": "node", "id": 9925032217, "lat": 40.7116064, "lon": -74.0058517, "tags": {"amenity": "post_box", "brand": "USPS", "brand:wikidata": "Q668687", "name": "USPS", "operator": "United States Postal Service", "operator:short": "USPS", "operator:type": "public", "operator:website": "https://www.usps.com", "operator:wikidata": "Q668687", "operator:wikipedia": "en:United States Postal Service", "survey:date": "2022-08-01"}}, {"type": "node", "id": 9925038418, "lat": 40.7112657, "lon": -74.0042749, "tags": {"amenity": "waste_basket", "colour": "Grey", "material": "metal", "survey:date": "2022-08-01", "waste": "litter"}}, {"type": "node", "id": 9925050824, "lat": 40.7111178, "lon": -74.0041486, "tags": {"amenity": "bench", "backrest": "yes"}}, {"type": "node", "id": 9925050831, "lat": 40.7110955, "lon": -74.0041316, "tags": {"amenity": "bench", "backrest": "yes"}}, {"type": "node", "id": 9925050832, "lat": 40.7111473, "lon": -74.0041902, "tags": {"amenity": "bench", "backrest": "yes"}}, {"type": "node", "id": 9925050835, "lat": 40.7111605, "lon": -74.0042147, "tags": {"amenity": "bench", "backrest": "yes"}}, {"type": "node", "id": 10285334703, "lat": 40.7122355, "lon": -74.0105234, "tags": {"amenity": "bicycle_rental", "bicycle_rental": "docking_station", "brand": "Citi Bike", "brand:wikidata": "Q2974438", "capacity": "44", "check_date": "2022-12-28", "fee": "yes", "name": "Citi Bike - Vesey St & Church St", "network": "Citi Bike", "network:wikidata": "Q2974438", "network:wikipedia": "en:Citi Bike", "operator": "Lyft", "operator:type": "private", "operator:wikidata": "Q17077936", "operator:wikipedia": "en:Lyft", "payment:cash": "no", "payment:coins": "no", "payment:credit_cards": "yes", "payment:debit_cards": "yes", "website": "https://citibikenyc.com/", "wheelchair": "yes"}}, {"type": "node", "id": 10290106674, "lat": 40.7117529, "lon": -74.0101733, "tags": {"barrier": "gate", "wheelchair": "yes"}}, {"type": "node", "id": 10290106685, "lat": 40.7119016, "lon": -74.0099171, "tags": {"barrier": "gate", "locked": "yes", "wheelchair": "no"}}, {"type": "node", "id": 10290106707, "lat": 40.7116157, "lon": -74.0092896, "tags": {"barrier": "gate", "wheelchair": "no"}}, {"type": "node", "id": 10290135830, "lat": 40.711462, "lon": -74.0094153}, {"type": "node", "id": 10290135831, "lat": 40.7114066, "lon": -74.0094606}, {"type": "node", "id": 10290135851, "lat": 40.7113071, "lon": -74.0089543}, {"type": "node", "id": 10290135854, "lat": 40.7113084, "lon": -74.008909, "tags": {"barrier": "gate"}}, {"type": "node", "id": 10290135855, "lat": 40.7113455, "lon": -74.0088141, "tags": {"amenity": "waste_basket"}}, {"type": "node", "id": 10290135858, "lat": 40.7112688, "lon": -74.0089421, "tags": {"barrier": "gate", "material": "metal", "wheelchair": "no"}}, {"type": "node", "id": 10290135864, "lat": 40.7111589, "lon": -74.0090343, "tags": {"barrier": "gate", "material": "metal", "wheelchair": "no"}}, {"type": "node", "id": 10290135867, "lat": 40.7112369, "lon": -74.0096026, "tags": {"barrier": "gate", "wheelchair": "no"}}, {"type": "node", "id": 10290135869, "lat": 40.7111008, "lon": -74.0093355, "tags": {"access": "yes", "amenity": "bicycle_parking", "bicycle_parking": "stands", "brand": "dot_large_hoop", "capacity": "12", "covered": "no"}}, {"type": "node", "id": 10290135871, "lat": 40.711061, "lon": -74.0092239}, {"type": "node", "id": 10290135878, "lat": 40.711125, "lon": -74.0093616}, {"type": "node", "id": 10290135903, "lat": 40.7117808, "lon": -74.0101563}, {"type": "node", "id": 10290135905, "lat": 40.7117277, "lon": -74.0101873}, {"type": "node", "id": 10290135936, "lat": 40.7111429, "lon": -74.0094001}, {"type": "node", "id": 10290135937, "lat": 40.7118161, "lon": -74.0101349}, {"type": "node", "id": 10290135938, "lat": 40.7110432, "lon": -74.0091856}, {"type": "node", "id": 10290705664, "lat": 40.7162674, "lon": -74.0096179, "tags": {"access": "yes", "amenity": "parking_entrance", "level": "0", "parking": "underground"}}, {"type": "node", "id": 10291808133, "lat": 40.7133775, "lon": -74.0094211, "tags": {"amenity": "bicycle_rental", "bicycle_rental": "docking_station", "brand": "Citi Bike", "brand:wikidata": "Q2974438", "capacity": "49", "check_date": "2022-12-28", "fee": "yes", "name": "Citi Bike - Park Place & Church Street", "network": "Citi Bike", "network:wikidata": "Q2974438", "network:wikipedia": "en:Citi Bike", "operator": "Lyft", "operator:type": "private", "operator:wikidata": "Q17077936", "operator:wikipedia": "en:Lyft", "payment:credit_cards": "yes", "payment:debit_cards": "yes", "website": "https://citibikenyc.com/"}}, {"type": "node", "id": 10297364788, "lat": 40.712374, "lon": -74.0047386, "tags": {"amenity": "bench", "backrest": "yes", "material": "wood"}}, {"type": "node", "id": 10297381513, "lat": 40.711855, "lon": -74.0059274}, {"type": "node", "id": 10297381514, "lat": 40.7118268, "lon": -74.0062011}, {"type": "node", "id": 10297381515, "lat": 40.7118124, "lon": -74.0061953}, {"type": "node", "id": 10297381516, "lat": 40.7118236, "lon": -74.0061473}, {"type": "node", "id": 10297381517, "lat": 40.711838, "lon": -74.0061531}, {"type": "node", "id": 10297381590, "lat": 40.7118054, "lon": -74.0073162, "tags": {"amenity": "waste_basket"}}, {"type": "node", "id": 10297381595, "lat": 40.7117077, "lon": -74.0066952}, {"type": "node", "id": 10297381596, "lat": 40.7116933, "lon": -74.0066894}, {"type": "node", "id": 10297381597, "lat": 40.7117045, "lon": -74.0066415}, {"type": "node", "id": 10297381598, "lat": 40.7117189, "lon": -74.0066473}, {"type": "node", "id": 10301662094, "lat": 40.7111063, "lon": -74.010467, "tags": {"amenity": "bench", "backrest": "yes"}}, {"type": "node", "id": 10301698979, "lat": 40.711307, "lon": -74.010267, "tags": {"amenity": "bench", "backrest": "yes"}}, {"type": "node", "id": 10301698982, "lat": 40.7112011, "lon": -74.0100867, "tags": {"access": "customers", "amenity": "parking_entrance", "parking": "underground"}}, {"type": "node", "id": 10619086494, "lat": 40.7130439, "lon": -74.01008, "tags": {"addr:city": "New York", "addr:housenumber": "75", "addr:postcode": "10007", "addr:state": "NY", "addr:street": "Barclay Street", "amenity": "restaurant", "contact:instagram": "https://instagram.com/itotribeca", "cuisine": "sushi", "email": "info@itotribeca.com", "name": "Ito", "opening_hours": "Tu-Sa 18:00-20:45", "reservation": "recommended", "website": "https://itotribeca.com/", "website:booking": "https://itotribeca.com/#reservations"}}, {"type": "node", "id": 10689649468, "lat": 40.7136895, "lon": -74.008996, "tags": {"access": "yes", "amenity": "bicycle_parking", "bicycle_parking": "stands", "capacity": "18"}}, {"type": "node", "id": 10689649469, "lat": 40.7148558, "lon": -74.008068, "tags": {"amenity": "bicycle_parking", "bicycle_parking": "stands", "capacity": "18"}}, {"type": "node", "id": 10689719841, "lat": 40.7153619, "lon": -74.0076789, "tags": {"amenity": "bicycle_parking", "bicycle_parking": "stands", "capacity": "18"}}, {"type": "node", "id": 10879834506, "lat": 40.7129272, "lon": -74.0051814, "tags": {"amenity": "waste_basket"}}, {"type": "node", "id": 10879834507, "lat": 40.7129982, "lon": -74.0052978, "tags": {"amenity": "waste_basket"}}, {"type": "node", "id": 10879834606, "lat": 40.7130699, "lon": -74.0055042, "tags": {"amenity": "waste_basket"}}, {"type": "node", "id": 10885572120, "lat": 40.7141588, "lon": -74.0065583, "tags": {"addr:city": "New York", "addr:housenumber": "86", "addr:postcode": "10007", "addr:state": "NY", "addr:street": "Chambers Street", "air_conditioning": "yes", "amenity": "bank", "atm": "yes", "branch": "Manhattan Branch", "brand": "Municipal Credit Union", "brand:wikidata": "Q6936232", "brand:wikipedia": "en:Municipal Credit Union", "drive_through": "no", "level": "0", "name": "Municipal Credit Union", "opening_hours": "Mo-Fr 08:30-16:30", "phone": "+1-212-693-4900", "website": "https://www.nymcu.org/", "wheelchair": "yes"}}, {"type": "node", "id": 10885572124, "lat": 40.7143922, "lon": -74.0069888, "tags": {"amenity": "loading_dock"}}, {"type": "node", "id": 10925414979, "lat": 40.7111052, "lon": -74.0037045}, {"type": "node", "id": 10925414980, "lat": 40.7111173, "lon": -74.0037222}, {"type": "node", "id": 10925414981, "lat": 40.7110826, "lon": -74.0037632}, {"type": "node", "id": 10925414982, "lat": 40.7110706, "lon": -74.0037456}, {"type": "node", "id": 10925414983, "lat": 40.7111195, "lon": -74.0037253}, {"type": "node", "id": 10925414984, "lat": 40.7111315, "lon": -74.0037429}, {"type": "node", "id": 10925414985, "lat": 40.7110969, "lon": -74.003784}, {"type": "node", "id": 10925414986, "lat": 40.7110849, "lon": -74.0037663}, {"type": "node", "id": 10925414987, "lat": 40.7111347, "lon": -74.0037486}, {"type": "node", "id": 10925414988, "lat": 40.7111467, "lon": -74.0037662}, {"type": "node", "id": 10925414989, "lat": 40.7111121, "lon": -74.0038073}, {"type": "node", "id": 10925414990, "lat": 40.7111001, "lon": -74.0037896}, {"type": "node", "id": 10925414991, "lat": 40.7111504, "lon": -74.0037712}, {"type": "node", "id": 10925414992, "lat": 40.7111624, "lon": -74.0037889}, {"type": "node", "id": 10925414993, "lat": 40.7111278, "lon": -74.0038299}, {"type": "node", "id": 10925414994, "lat": 40.7111158, "lon": -74.0038122}, {"type": "node", "id": 10925414995, "lat": 40.7111678, "lon": -74.0037951}, {"type": "node", "id": 10925414996, "lat": 40.7111796, "lon": -74.0038142}, {"type": "node", "id": 10925414997, "lat": 40.7111412, "lon": -74.0038555}, {"type": "node", "id": 10925414998, "lat": 40.7111294, "lon": -74.0038364}, {"type": "node", "id": 10925414999, "lat": 40.7111852, "lon": -74.0038195}, {"type": "node", "id": 10925415000, "lat": 40.711197, "lon": -74.0038386}, {"type": "node", "id": 10925415001, "lat": 40.7111586, "lon": -74.0038799}, {"type": "node", "id": 10925415002, "lat": 40.7111468, "lon": -74.0038608}, {"type": "node", "id": 10925415003, "lat": 40.7112004, "lon": -74.0038428}, {"type": "node", "id": 10925415004, "lat": 40.7112122, "lon": -74.0038619}, {"type": "node", "id": 10925424105, "lat": 40.7111738, "lon": -74.0039032}, {"type": "node", "id": 10925424106, "lat": 40.711162, "lon": -74.0038841}, {"type": "node", "id": 10925424107, "lat": 40.7112147, "lon": -74.0038661}, {"type": "node", "id": 10925424108, "lat": 40.7112265, "lon": -74.0038852}, {"type": "node", "id": 10925424109, "lat": 40.7111881, "lon": -74.0039265}, {"type": "node", "id": 10925424110, "lat": 40.7111762, "lon": -74.0039073}, {"type": "node", "id": 10925424111, "lat": 40.7112303, "lon": -74.0038913}, {"type": "node", "id": 10925424112, "lat": 40.7112422, "lon": -74.0039104}, {"type": "node", "id": 10925424113, "lat": 40.7112037, "lon": -74.0039517}, {"type": "node", "id": 10925424114, "lat": 40.7111919, "lon": -74.0039326}, {"type": "node", "id": 10925424115, "lat": 40.7112431, "lon": -74.0039159}, {"type": "node", "id": 10925424116, "lat": 40.7112549, "lon": -74.003935}, {"type": "node", "id": 10925424117, "lat": 40.7112165, "lon": -74.0039763}, {"type": "node", "id": 10925424118, "lat": 40.7112047, "lon": -74.0039571}, {"type": "node", "id": 10925424119, "lat": 40.7112583, "lon": -74.0039398}, {"type": "node", "id": 10925424120, "lat": 40.7112701, "lon": -74.0039589}, {"type": "node", "id": 10925424121, "lat": 40.7112317, "lon": -74.0040002}, {"type": "node", "id": 10925424122, "lat": 40.7112199, "lon": -74.0039811}, {"type": "node", "id": 10925424123, "lat": 40.7112759, "lon": -74.0039657}, {"type": "node", "id": 10925424124, "lat": 40.7112878, "lon": -74.0039848}, {"type": "node", "id": 10925424125, "lat": 40.7112493, "lon": -74.0040261}, {"type": "node", "id": 10925424126, "lat": 40.7112375, "lon": -74.004007}, {"type": "node", "id": 10925424127, "lat": 40.7112902, "lon": -74.0039851}, {"type": "node", "id": 10925424128, "lat": 40.711302, "lon": -74.0040042}, {"type": "node", "id": 10925424129, "lat": 40.7112636, "lon": -74.0040455}, {"type": "node", "id": 10925424130, "lat": 40.7112517, "lon": -74.0040264}, {"type": "node", "id": 10925424131, "lat": 40.7113058, "lon": -74.0040071}, {"type": "node", "id": 10925424132, "lat": 40.7113177, "lon": -74.0040262}, {"type": "node", "id": 10925424133, "lat": 40.7112793, "lon": -74.0040675}, {"type": "node", "id": 10925424134, "lat": 40.7112674, "lon": -74.0040483}, {"type": "node", "id": 10925424135, "lat": 40.7113215, "lon": -74.0040329}, {"type": "node", "id": 10925424136, "lat": 40.7113333, "lon": -74.0040521}, {"type": "node", "id": 10925424137, "lat": 40.7112949, "lon": -74.0040934}, {"type": "node", "id": 10925424138, "lat": 40.7112831, "lon": -74.0040742}, {"type": "node", "id": 10925424139, "lat": 40.7113367, "lon": -74.0040556}, {"type": "node", "id": 10925424140, "lat": 40.7113485, "lon": -74.0040747}, {"type": "node", "id": 10925424141, "lat": 40.7113101, "lon": -74.004116}, {"type": "node", "id": 10925424142, "lat": 40.7112983, "lon": -74.0040969}, {"type": "node", "id": 10925424143, "lat": 40.7113514, "lon": -74.0040769}, {"type": "node", "id": 10925424144, "lat": 40.7113633, "lon": -74.004096}, {"type": "node", "id": 10925424145, "lat": 40.7113248, "lon": -74.0041373}, {"type": "node", "id": 10925424146, "lat": 40.711313, "lon": -74.0041182}, {"type": "node", "id": 10925424147, "lat": 40.7113657, "lon": -74.0041021}, {"type": "node", "id": 10925424148, "lat": 40.7113775, "lon": -74.0041213}, {"type": "node", "id": 10925424149, "lat": 40.7113391, "lon": -74.0041626}, {"type": "node", "id": 10925424150, "lat": 40.7113273, "lon": -74.0041434}, {"type": "node", "id": 10925424151, "lat": 40.7113823, "lon": -74.0041261}, {"type": "node", "id": 10925424152, "lat": 40.7113941, "lon": -74.0041452}, {"type": "node", "id": 10925424153, "lat": 40.7113557, "lon": -74.0041865}, {"type": "node", "id": 10925424154, "lat": 40.7113439, "lon": -74.0041674}, {"type": "node", "id": 10925424155, "lat": 40.711401, "lon": -74.0041526}, {"type": "node", "id": 10925424156, "lat": 40.7114128, "lon": -74.0041717}, {"type": "node", "id": 10925424157, "lat": 40.7113744, "lon": -74.004213}, {"type": "node", "id": 10925424158, "lat": 40.7113626, "lon": -74.0041939}, {"type": "node", "id": 10925424159, "lat": 40.7114711, "lon": -74.0042664}, {"type": "node", "id": 10925424160, "lat": 40.7114829, "lon": -74.0042856}, {"type": "node", "id": 10925424161, "lat": 40.7114445, "lon": -74.0043269}, {"type": "node", "id": 10925424162, "lat": 40.7114327, "lon": -74.0043077}, {"type": "node", "id": 10925424163, "lat": 40.7114147, "lon": -74.0041772}, {"type": "node", "id": 10925424164, "lat": 40.7114265, "lon": -74.0041963}, {"type": "node", "id": 10925424165, "lat": 40.7113881, "lon": -74.0042376}, {"type": "node", "id": 10925424166, "lat": 40.7113763, "lon": -74.0042185}, {"type": "node", "id": 10925424167, "lat": 40.7114284, "lon": -74.0041998}, {"type": "node", "id": 10925424168, "lat": 40.7114402, "lon": -74.0042189}, {"type": "node", "id": 10925424169, "lat": 40.7114018, "lon": -74.0042602}, {"type": "node", "id": 10925424170, "lat": 40.71139, "lon": -74.0042411}, {"type": "node", "id": 10925424171, "lat": 40.7114441, "lon": -74.0042231}, {"type": "node", "id": 10925424172, "lat": 40.7114559, "lon": -74.0042422}, {"type": "node", "id": 10925424173, "lat": 40.7114175, "lon": -74.0042835}, {"type": "node", "id": 10925424174, "lat": 40.7114057, "lon": -74.0042644}, {"type": "node", "id": 10925424175, "lat": 40.7114578, "lon": -74.0042457}, {"type": "node", "id": 10925424176, "lat": 40.7114696, "lon": -74.0042649}, {"type": "node", "id": 10925424177, "lat": 40.7114312, "lon": -74.0043062}, {"type": "node", "id": 10925424178, "lat": 40.7114194, "lon": -74.004287}, {"type": "node", "id": 10925424179, "lat": 40.7112579, "lon": -74.0038976}, {"type": "node", "id": 10925424181, "lat": 40.7111664, "lon": -74.003716}, {"type": "node", "id": 10925424182, "lat": 40.7111336, "lon": -74.0036684}, {"type": "node", "id": 10925424183, "lat": 40.7111801, "lon": -74.0035971}, {"type": "node", "id": 10925424184, "lat": 40.7113631, "lon": -74.0038458}, {"type": "node", "id": 10925424185, "lat": 40.7116078, "lon": -74.0041809}, {"type": "node", "id": 10925424186, "lat": 40.7115514, "lon": -74.0043012}, {"type": "node", "id": 10925424187, "lat": 40.7115249, "lon": -74.0042941}, {"type": "node", "id": 11033251598, "lat": 40.7118912, "lon": -74.0051616}, {"type": "node", "id": 11033251601, "lat": 40.7118817, "lon": -74.0051735}, {"type": "node", "id": 11033251602, "lat": 40.7118865, "lon": -74.0051675}, {"type": "node", "id": 11051616167, "lat": 40.7115305, "lon": -74.0083754, "tags": {"amenity": "waste_basket"}}, {"type": "node", "id": 11079239441, "lat": 40.7153064, "lon": -74.009587, "tags": {"addr:housenumber": "86", "addr:street": "West Broadway", "amenity": "money_transfer", "brand": "Western Union", "brand:wikidata": "Q861042", "check_date": "2023-07-31", "name": "Western Union"}}, {"type": "node", "id": 11079239444, "lat": 40.7152376, "lon": -74.0091966, "tags": {"amenity": "restaurant", "check_date": "2023-07-31", "indoor_seating": "yes", "level": "0", "name": "The Smyth", "outdoor_seating": "yes"}}, {"type": "node", "id": 11079239445, "lat": 40.7151386, "lon": -74.0092889, "tags": {"amenity": "bar", "check_date": "2023-07-31", "name": "Galerie Bar"}}, {"type": "node", "id": 11079239448, "lat": 40.7157333, "lon": -74.0094096, "tags": {"addr:housenumber": "139", "addr:postcode": "10007", "addr:street": "Chambers Street", "amenity": "clinic", "healthcare": "clinic", "level": "0", "name": "MEDRITE Urgent Care", "opening_hours": "Mo-Fr 08:00-20:00; Sa, Su 09:00-18:00", "phone": "+1 212-785-0001", "website": "https://medriteurgentcare.com/center/medrite-tribeca-urgent-care/"}}, {"type": "node", "id": 11079239449, "lat": 40.7157871, "lon": -74.0095636, "tags": {"addr:housenumber": "143", "addr:street": "Chambers Street", "amenity": "fast_food", "check_date": "2023-07-31", "cuisine": "bagel", "level": "0", "name": "Zucker's Bagels and Smoked Fish", "wheelchair": "yes"}}, {"type": "node", "id": 11079239450, "lat": 40.7156736, "lon": -74.0098705, "tags": {"amenity": "dentist", "check_date": "2023-07-31", "healthcare": "dentist", "name": "Tribeca Dental Design"}}, {"type": "node", "id": 11155025499, "lat": 40.7160032, "lon": -74.0100419, "tags": {"amenity": "ice_cream", "cuisine": "frozen_yogurt", "diet:vegan": "yes", "indoor_seating": "yes", "name": "16 Handles", "opening_hours": "Su-We 12:00-23:00; Th-Sa 12:00-24:00", "outdoor_seating": "yes", "wheelchair": "yes"}}, {"type": "node", "id": 11157811380, "lat": 40.7113229, "lon": -74.0067467, "tags": {"amenity": "restaurant", "indoor_seating": "yes", "name": "Temple Room", "outdoor_seating": "no"}}, {"type": "node", "id": 11175620697, "lat": 40.7137152, "lon": -74.0091331, "tags": {"amenity": "fast_food", "cuisine": "burger", "name": "Burger Village"}}, {"type": "node", "id": 11175655140, "lat": 40.7120646, "lon": -74.0098164, "tags": {"amenity": "fast_food", "cuisine": "juice", "indoor_seating": "yes", "name": "Hawa Smoothie", "opening_hours": "Mo-Fr 07:00-20:00; Sa,Su 09:00-18:00", "outdoor_seating": "no"}}, {"type": "node", "id": 11175661173, "lat": 40.7152715, "lon": -74.0083889, "tags": {"amenity": "clinic", "healthcare": "clinic", "name": "DC37 Health Center"}}, {"type": "node", "id": 11175680754, "lat": 40.7142671, "lon": -74.008695, "tags": {"amenity": "cafe", "diet:vegan": "no", "diet:vegetarian": "yes", "indoor_seating": "yes", "name": "Birch Coffee", "opening_hours": "Mo-Fr 07:00-16:00; Sa,Su 07:30-16:00", "outdoor_seating": "no", "wheelchair": "yes"}}, {"type": "node", "id": 11175682842, "lat": 40.7128293, "lon": -74.0093508, "tags": {"amenity": "restaurant", "indoor_seating": "yes", "name": "Cut by Wolfgang Puck", "outdoor_seating": "yes"}}, {"type": "node", "id": 11177161040, "lat": 40.7129344, "lon": -74.0046403, "tags": {"amenity": "bench", "armrest": "yes", "backrest": "yes"}}, {"type": "node", "id": 11177161041, "lat": 40.7129366, "lon": -74.0045924, "tags": {"amenity": "bench", "armrest": "yes", "backrest": "yes"}}, {"type": "node", "id": 11177161042, "lat": 40.7129372, "lon": -74.0045639, "tags": {"amenity": "bench", "armrest": "yes", "backrest": "yes"}}, {"type": "node", "id": 11177161043, "lat": 40.7129366, "lon": -74.0045385, "tags": {"amenity": "bench", "armrest": "yes", "backrest": "yes"}}, {"type": "node", "id": 11177171009, "lat": 40.7123858, "lon": -74.0052394, "tags": {"amenity": "bench", "armrest": "yes", "backrest": "yes"}}, {"type": "node", "id": 11177171010, "lat": 40.7124006, "lon": -74.0052162, "tags": {"amenity": "bench", "armrest": "yes", "backrest": "yes"}}, {"type": "node", "id": 11177171011, "lat": 40.7124147, "lon": -74.0051937, "tags": {"amenity": "bench", "armrest": "yes", "backrest": "yes"}}, {"type": "node", "id": 11177196887, "lat": 40.713005, "lon": -74.0044399, "tags": {"amenity": "bench", "armrest": "yes", "backrest": "yes"}}, {"type": "node", "id": 11177196888, "lat": 40.712996, "lon": -74.0044472, "tags": {"amenity": "bench", "armrest": "yes", "backrest": "yes"}}, {"type": "node", "id": 11240615923, "lat": 40.7164263, "lon": -74.0062223, "tags": {"access": "private", "addr:city": "New York", "addr:housenumber": "33", "addr:postcode": "10007", "addr:state": "NY", "addr:street": "Thomas Street", "amenity": "parking_entrance", "parking": "underground"}}, {"type": "node", "id": 11241887323, "lat": 40.714543, "lon": -74.0073743, "tags": {"amenity": "restaurant", "name": "Artesano Peruvian Cuisine"}}, {"type": "node", "id": 11241889728, "lat": 40.7148019, "lon": -74.0073766, "tags": {"amenity": "clinic", "healthcare": "clinic", "healthcare:speciality": "fertility", "name": "Ferny"}}, {"type": "node", "id": 11241897898, "lat": 40.7145461, "lon": -74.0068199, "tags": {"addr:city": "New York", "addr:housenumber": "79", "addr:postcode": "10007", "addr:state": "NY", "addr:street": "Chambers Street", "air_conditioning": "yes", "amenity": "fast_food", "branch": "Tribeca", "cuisine": "greek", "diet:gluten_free": "yes", "diet:halal": "no", "diet:kosher": "no", "diet:lactose_free": "yes", "diet:pescetarian": "no", "diet:vegan": "yes", "diet:vegetarian": "yes", "drive_through": "no", "level": "0", "name": "The Hummus & Pita Co.", "outdoor_seating": "no", "phone": "+1-212-571-6700", "smoking": "no", "website": "https://www.hummusandpitas.com/", "website:menu": "https://www.hummusandpitas.com/new-york-menu"}}, {"type": "node", "id": 11258747427, "lat": 40.7153921, "lon": -74.0086592, "tags": {"amenity": "dentist", "healthcare": "dentist", "name": "Tribeca Dental Club"}}, {"type": "node", "id": 11258767163, "lat": 40.7163547, "lon": -74.0098581, "tags": {"amenity": "cafe", "check_date": "2023-11-06", "check_date:opening_hours": "2023-11-06", "indoor_seating": "yes", "name": "Jack's Stir Brew Coffee", "not:brand:wikidata": "Q6110826", "opening_hours:signed": "no", "outdoor_seating": "no", "walkup_window": "yes"}}, {"type": "node", "id": 11258782619, "lat": 40.7164051, "lon": -74.0099519, "tags": {"amenity": "clinic", "healthcare": "clinic", "name": "Pediatric Opthalmic Consultants"}}, {"type": "node", "id": 11258782637, "lat": 40.7151337, "lon": -74.0081532, "tags": {"addr:housenumber": "107", "addr:postcode": "10013", "addr:street": "Chambers Street", "amenity": "cafe", "cuisine": "bubble_tea", "name": "Chun Yang"}}, {"type": "node", "id": 11308541308, "lat": 40.715678, "lon": -74.0092439, "tags": {"amenity": "clock", "check_date": "2023-11-02", "date": "no", "display": "analog", "faces": "2", "lit": "yes", "name": "Seth Thomas Tower Clock", "start_date": "2020-12-01", "support": "pole", "visibility": "house", "website": "https://www.bogardusplaza.org/clock"}}, {"type": "node", "id": 11308557859, "lat": 40.7158478, "lon": -74.0093272, "tags": {"amenity": "waste_basket"}}, {"type": "node", "id": 11308557860, "lat": 40.7158756, "lon": -74.0092874, "tags": {"amenity": "bench", "backrest": "no", "material": "plastic", "seats": "6"}}, {"type": "node", "id": 11308590188, "lat": 40.7159577, "lon": -74.0092791, "tags": {"amenity": "bench", "backrest": "no", "material": "plastic", "seats": "5"}}, {"type": "node", "id": 11308590202, "lat": 40.7160555, "lon": -74.0092675, "tags": {"amenity": "bench", "backrest": "yes", "material": "plastic", "seats": "6"}}, {"type": "node", "id": 11308590223, "lat": 40.7158699, "lon": -74.009193, "tags": {"amenity": "waste_basket"}}, {"type": "node", "id": 11308590224, "lat": 40.7158567, "lon": -74.0091961, "tags": {"amenity": "recycling", "recycling_type": "container"}}, {"type": "node", "id": 11308590227, "lat": 40.7156149, "lon": -74.0092872, "tags": {"amenity": "waste_basket"}}, {"type": "node", "id": 11308590228, "lat": 40.7157376, "lon": -74.0093053, "tags": {"amenity": "waste_basket"}}, {"type": "node", "id": 11308590229, "lat": 40.7157576, "lon": -74.0093046, "tags": {"amenity": "recycling", "recycling_type": "container"}}, {"type": "node", "id": 11308590241, "lat": 40.7158379, "lon": -74.0091103, "tags": {"amenity": "bench", "backrest": "no", "material": "metal", "seats": "3"}}, {"type": "node", "id": 11308590255, "lat": 40.7160257, "lon": -74.0091533, "tags": {"amenity": "bench", "backrest": "yes", "material": "stone", "seats": "6"}}, {"type": "node", "id": 11308590260, "lat": 40.7160602, "lon": -74.0090291, "tags": {"amenity": "recycling", "recycling_type": "container"}}, {"type": "node", "id": 11308590261, "lat": 40.7160671, "lon": -74.0090445, "tags": {"amenity": "waste_basket"}}, {"type": "node", "id": 11308590266, "lat": 40.7162297, "lon": -74.0094112, "tags": {"access": "yes", "amenity": "bicycle_parking", "bicycle_parking": "stands", "capacity": "2", "covered": "no"}}, {"type": "node", "id": 11329584542, "lat": 40.7155431, "lon": -74.0063754, "tags": {"amenity": "dentist", "healthcare": "dentist", "name": "BW Dental"}}, {"type": "node", "id": 11329608813, "lat": 40.7155745, "lon": -74.0064461, "tags": {"amenity": "doctors", "healthcare": "doctor", "name": "New York Sports and Joint Orthopedic Specialists"}}, {"type": "node", "id": 11347777627, "lat": 40.7102937, "lon": -74.0042479, "tags": {"barrier": "kerb", "kerb": "lowered", "tactile_paving": "yes", "wheelchair": "yes"}}, {"type": "node", "id": 11347777630, "lat": 40.7102941, "lon": -74.004284, "tags": {"barrier": "kerb", "kerb": "lowered", "tactile_paving": "yes", "wheelchair": "yes"}}, {"type": "node", "id": 11347850276, "lat": 40.711023, "lon": -74.0050565, "tags": {"barrier": "kerb", "kerb": "lowered", "tactile_paving": "yes", "wheelchair": "yes"}}, {"type": "node", "id": 11349150979, "lat": 40.7110837, "lon": -74.0061799, "tags": {"amenity": "bench", "backrest": "yes", "material": "wood", "seats": "2"}}, {"type": "node", "id": 11349150980, "lat": 40.711097, "lon": -74.0061534, "tags": {"amenity": "bench", "backrest": "yes", "material": "wood", "seats": "2"}}, {"type": "node", "id": 11349150981, "lat": 40.7111086, "lon": -74.0061308, "tags": {"amenity": "bench", "backrest": "yes", "material": "wood", "seats": "2"}}, {"type": "node", "id": 11349150982, "lat": 40.7111187, "lon": -74.0060941, "tags": {"amenity": "bench", "backrest": "yes", "material": "wood", "seats": "2"}}, {"type": "node", "id": 11349150983, "lat": 40.711119, "lon": -74.0060702, "tags": {"amenity": "bench", "backrest": "yes", "material": "wood", "seats": "2"}}, {"type": "node", "id": 11349150984, "lat": 40.711118, "lon": -74.0061116, "tags": {"amenity": "waste_basket"}}, {"type": "node", "id": 11349150985, "lat": 40.7111639, "lon": -74.0060199, "tags": {"amenity": "bench", "backrest": "no", "material": "wood", "seats": "6"}}, {"type": "node", "id": 11349151009, "lat": 40.7110957, "lon": -74.0059993, "tags": {"amenity": "waste_basket"}}, {"type": "node", "id": 11349151012, "lat": 40.7110833, "lon": -74.0060218, "tags": {"amenity": "bench", "backrest": "yes", "material": "wood", "seats": "2"}}, {"type": "node", "id": 11349151013, "lat": 40.7111073, "lon": -74.0059768, "tags": {"amenity": "bench", "backrest": "yes", "material": "wood", "seats": "2"}}, {"type": "node", "id": 11349151014, "lat": 40.711124, "lon": -74.0059523, "tags": {"amenity": "bench", "backrest": "yes", "material": "wood", "seats": "2"}}, {"type": "node", "id": 11349151015, "lat": 40.7111395, "lon": -74.0059268, "tags": {"amenity": "bench", "backrest": "yes", "material": "wood", "seats": "2"}}, {"type": "node", "id": 11349151018, "lat": 40.7110833, "lon": -74.0059079, "tags": {"amenity": "bench", "backrest": "yes", "material": "wood", "seats": "2"}}, {"type": "node", "id": 11349151019, "lat": 40.7110872, "lon": -74.0058885, "tags": {"amenity": "waste_basket"}}, {"type": "node", "id": 11349151038, "lat": 40.7113318, "lon": -74.005673, "tags": {"amenity": "bench", "backrest": "no", "material": "wood", "seats": "6"}}, {"type": "node", "id": 11349151040, "lat": 40.7112339, "lon": -74.0058211, "tags": {"amenity": "bench", "backrest": "yes", "material": "wood", "seats": "2"}}, {"type": "node", "id": 11349151041, "lat": 40.7112865, "lon": -74.0057266, "tags": {"amenity": "bench", "backrest": "yes", "material": "wood", "seats": "2"}}, {"type": "node", "id": 11349151042, "lat": 40.7112966, "lon": -74.0057026, "tags": {"amenity": "bench", "backrest": "yes", "material": "wood", "seats": "2"}}, {"type": "node", "id": 11349151043, "lat": 40.7112807, "lon": -74.0057435, "tags": {"amenity": "waste_basket"}}, {"type": "node", "id": 11349151060, "lat": 40.7112764, "lon": -74.0055779, "tags": {"amenity": "bench", "backrest": "yes", "material": "wood", "seats": "2"}}, {"type": "node", "id": 11349151061, "lat": 40.711276, "lon": -74.0056529, "tags": {"amenity": "bench", "backrest": "yes", "material": "wood", "seats": "2"}}, {"type": "node", "id": 11349151062, "lat": 40.7112945, "lon": -74.0056279, "tags": {"amenity": "bench", "backrest": "yes", "material": "wood", "seats": "2"}}, {"type": "node", "id": 11349151063, "lat": 40.7113085, "lon": -74.0056041, "tags": {"amenity": "bench", "backrest": "yes", "material": "wood", "seats": "2"}}, {"type": "node", "id": 11349151064, "lat": 40.7112539, "lon": -74.0057178, "tags": {"amenity": "bench", "backrest": "yes", "material": "wood", "seats": "2"}}, {"type": "node", "id": 11349151065, "lat": 40.7112633, "lon": -74.0056875, "tags": {"amenity": "bench", "backrest": "yes", "material": "wood", "seats": "2"}}, {"type": "node", "id": 11349151068, "lat": 40.711197, "lon": -74.0056988, "tags": {"amenity": "bench", "backrest": "yes", "material": "wood", "seats": "2"}}, {"type": "node", "id": 11349151069, "lat": 40.7112141, "lon": -74.005675, "tags": {"amenity": "bench", "backrest": "yes", "material": "wood", "seats": "2"}}, {"type": "node", "id": 11349151070, "lat": 40.7112313, "lon": -74.0056523, "tags": {"amenity": "bench", "backrest": "yes", "material": "wood", "seats": "2"}}, {"type": "node", "id": 11349151071, "lat": 40.7112534, "lon": -74.0056035, "tags": {"amenity": "bench", "backrest": "yes", "material": "wood", "seats": "2"}}, {"type": "node", "id": 11349151072, "lat": 40.7112394, "lon": -74.0056315, "tags": {"amenity": "waste_basket"}}, {"type": "node", "id": 11349151073, "lat": 40.7111961, "lon": -74.0056297, "tags": {"amenity": "bench", "backrest": "yes", "material": "wood", "seats": "2"}}, {"type": "node", "id": 11349151078, "lat": 40.7111545, "lon": -74.0057256, "tags": {"amenity": "bench", "backrest": "yes", "material": "wood", "seats": "2"}}, {"type": "node", "id": 11349151079, "lat": 40.7110841, "lon": -74.0058358, "tags": {"amenity": "bench", "backrest": "yes", "material": "wood", "seats": "2"}}, {"type": "node", "id": 11349151113, "lat": 40.7114116, "lon": -74.0057003, "tags": {"access": "customers", "amenity": "parking_entrance", "parking": "underground"}}, {"type": "node", "id": 11349151116, "lat": 40.7116, "lon": -74.0058393, "tags": {"amenity": "waste_basket"}}, {"type": "node", "id": 11349509501, "lat": 40.7115775, "lon": -74.0056364}, {"type": "node", "id": 11349509502, "lat": 40.7115889, "lon": -74.0056851}, {"type": "node", "id": 11349509503, "lat": 40.7115837, "lon": -74.0056478}, {"type": "node", "id": 11349509504, "lat": 40.7116405, "lon": -74.0057164, "tags": {"access": "yes", "amenity": "bicycle_parking", "bicycle_parking": "stands", "capacity": "6", "covered": "no"}}, {"type": "node", "id": 11349528487, "lat": 40.7114824, "lon": -74.0047474}, {"type": "node", "id": 11349528488, "lat": 40.7115206, "lon": -74.0046853}, {"type": "node", "id": 11349528489, "lat": 40.7117691, "lon": -74.0050458}, {"type": "node", "id": 11349528544, "lat": 40.7114425, "lon": -74.0045967}, {"type": "node", "id": 11349528545, "lat": 40.7114589, "lon": -74.0045682}, {"type": "node", "id": 11349528546, "lat": 40.7114507, "lon": -74.0045825, "tags": {"barrier": "gate"}}, {"type": "node", "id": 11349528551, "lat": 40.7111659, "lon": -74.0045487}, {"type": "node", "id": 11349528555, "lat": 40.7114115, "lon": -74.004492, "tags": {"barrier": "gate"}}, {"type": "node", "id": 11349528559, "lat": 40.7112126, "lon": -74.0045978}, {"type": "node", "id": 11349528561, "lat": 40.7113366, "lon": -74.0047281}, {"type": "node", "id": 11349528618, "lat": 40.7107244, "lon": -74.0038771}, {"type": "node", "id": 11349528619, "lat": 40.7110289, "lon": -74.0044047}, {"type": "node", "id": 11349528726, "lat": 40.7108919, "lon": -74.0041674}, {"type": "node", "id": 11349528760, "lat": 40.7105846, "lon": -74.0039235}, {"type": "node", "id": 11349528761, "lat": 40.7116651, "lon": -74.0057706}, {"type": "node", "id": 11349528772, "lat": 40.7107057, "lon": -74.0038467}, {"type": "node", "id": 11349528775, "lat": 40.7107145, "lon": -74.0038611}, {"type": "node", "id": 11350103542, "lat": 40.712921, "lon": -74.0050117, "tags": {"amenity": "waste_basket"}}, {"type": "node", "id": 11350103543, "lat": 40.7128778, "lon": -74.0049003, "tags": {"amenity": "waste_basket"}}, {"type": "node", "id": 11350133284, "lat": 40.7132305, "lon": -74.0059161, "tags": {"amenity": "bench", "backrest": "yes", "material": "wood"}}, {"type": "node", "id": 11350133285, "lat": 40.7132062, "lon": -74.0059045, "tags": {"amenity": "bench", "backrest": "yes", "material": "wood"}}, {"type": "node", "id": 11350133289, "lat": 40.7133175, "lon": -74.0060268, "tags": {"amenity": "bench", "backrest": "yes", "material": "wood"}}, {"type": "node", "id": 11350133290, "lat": 40.713304, "lon": -74.0059988, "tags": {"amenity": "bench", "backrest": "yes", "material": "wood"}}, {"type": "node", "id": 11350133291, "lat": 40.713304, "lon": -74.0061538, "tags": {"amenity": "bench", "backrest": "yes", "material": "wood"}}, {"type": "node", "id": 11350133292, "lat": 40.713274, "lon": -74.0061388, "tags": {"amenity": "bench", "backrest": "yes", "material": "wood"}}, {"type": "node", "id": 11350133293, "lat": 40.7133195, "lon": -74.0061599, "tags": {"amenity": "waste_basket"}}, {"type": "node", "id": 11350133303, "lat": 40.7132595, "lon": -74.0060179, "tags": {"amenity": "bench", "backrest": "yes", "material": "wood"}}, {"type": "node", "id": 11350133304, "lat": 40.7132414, "lon": -74.0059892, "tags": {"amenity": "bench", "backrest": "yes", "material": "wood"}}, {"type": "node", "id": 11350133305, "lat": 40.713215, "lon": -74.0059701, "tags": {"amenity": "bench", "backrest": "yes", "material": "wood"}}, {"type": "node", "id": 11350133306, "lat": 40.7131912, "lon": -74.0059578, "tags": {"amenity": "bench", "backrest": "yes", "material": "wood"}}, {"type": "node", "id": 11350133307, "lat": 40.7130442, "lon": -74.0057078, "tags": {"amenity": "bench", "backrest": "yes", "material": "wood"}}, {"type": "node", "id": 11350133308, "lat": 40.7130297, "lon": -74.0056682, "tags": {"amenity": "bench", "backrest": "yes", "material": "wood"}}, {"type": "node", "id": 11350133309, "lat": 40.7130235, "lon": -74.005574, "tags": {"amenity": "bench", "backrest": "yes", "material": "wood"}}, {"type": "node", "id": 11350133310, "lat": 40.7130219, "lon": -74.0055275, "tags": {"amenity": "bench", "backrest": "yes", "material": "wood"}}, {"type": "node", "id": 11350133311, "lat": 40.7130229, "lon": -74.0056184, "tags": {"amenity": "waste_basket"}}, {"type": "node", "id": 11350133313, "lat": 40.7130685, "lon": -74.0055323, "tags": {"amenity": "bench", "backrest": "yes", "material": "wood"}}, {"type": "node", "id": 11350133314, "lat": 40.7130685, "lon": -74.0055788, "tags": {"amenity": "bench", "backrest": "yes", "material": "wood"}}, {"type": "node", "id": 11350133319, "lat": 40.7130027, "lon": -74.0054435, "tags": {"amenity": "bench", "backrest": "yes", "material": "wood"}}, {"type": "node", "id": 11350133320, "lat": 40.7129846, "lon": -74.005406, "tags": {"amenity": "bench", "backrest": "yes", "material": "wood"}}, {"type": "node", "id": 11350133321, "lat": 40.7130535, "lon": -74.005449, "tags": {"amenity": "bench", "backrest": "yes", "material": "wood"}}, {"type": "node", "id": 11350133322, "lat": 40.7130374, "lon": -74.0054114, "tags": {"amenity": "bench", "backrest": "yes", "material": "wood"}}, {"type": "node", "id": 11350133323, "lat": 40.7130193, "lon": -74.0053725, "tags": {"amenity": "bench", "backrest": "yes", "material": "wood"}}, {"type": "node", "id": 11350133324, "lat": 40.7130007, "lon": -74.005337, "tags": {"amenity": "bench", "backrest": "yes", "material": "wood"}}, {"type": "node", "id": 11350133359, "lat": 40.7128662, "lon": -74.0053085, "tags": {"amenity": "bench", "backrest": "yes", "material": "wood"}}, {"type": "node", "id": 11350133360, "lat": 40.7128707, "lon": -74.0052753, "tags": {"amenity": "bench", "backrest": "yes", "material": "wood"}}, {"type": "node", "id": 11350133361, "lat": 40.7128721, "lon": -74.0052402, "tags": {"amenity": "bench", "backrest": "yes", "material": "wood"}}, {"type": "node", "id": 11350133362, "lat": 40.7128754, "lon": -74.0052096, "tags": {"amenity": "bench", "backrest": "yes", "material": "wood"}}, {"type": "node", "id": 11350133363, "lat": 40.7128701, "lon": -74.0051604, "tags": {"amenity": "bench", "backrest": "yes", "material": "wood"}}, {"type": "node", "id": 11350133364, "lat": 40.7128609, "lon": -74.0051327, "tags": {"amenity": "bench", "backrest": "yes", "material": "wood"}}, {"type": "node", "id": 11350133365, "lat": 40.7129549, "lon": -74.0052413, "tags": {"amenity": "bench", "backrest": "yes", "material": "wood"}}, {"type": "node", "id": 11350133366, "lat": 40.7129429, "lon": -74.0052177, "tags": {"amenity": "bench", "backrest": "yes", "material": "wood"}}, {"type": "node", "id": 11350133367, "lat": 40.7129309, "lon": -74.0051948, "tags": {"amenity": "bench", "backrest": "yes", "material": "wood"}}, {"type": "node", "id": 11350133384, "lat": 40.7128213, "lon": -74.0050552, "tags": {"amenity": "drinking_water"}}, {"type": "node", "id": 11350133511, "lat": 40.711206, "lon": -74.0063764, "tags": {"amenity": "post_box", "operator": "United States Postal Service", "operator:short": "USPS", "operator:type": "public", "operator:website": "https://www.usps.com", "operator:wikidata": "Q668687", "operator:wikipedia": "en:United States Postal Service"}}, {"type": "node", "id": 11350133527, "lat": 40.7113351, "lon": -74.0065099, "tags": {"amenity": "waste_basket"}}, {"type": "node", "id": 11374743729, "lat": 40.7112373, "lon": -74.0085451, "tags": {"amenity": "recycling", "recycling:beverage_cartons": "no", "recycling:glass_bottles": "yes", "recycling:plastic": "no", "recycling:plastic_bottles": "yes", "recycling:plastic_packaging": "no", "recycling_type": "container"}}, {"type": "node", "id": 11374743730, "lat": 40.7112279, "lon": -74.008528, "tags": {"amenity": "waste_basket"}}, {"type": "node", "id": 11380040076, "lat": 40.7131654, "lon": -74.0043244, "tags": {"amenity": "waste_basket"}}, {"type": "node", "id": 11380040077, "lat": 40.7131752, "lon": -74.0043352, "tags": {"amenity": "recycling", "recycling_type": "container"}}, {"type": "node", "id": 11380040081, "lat": 40.713299, "lon": -74.0040506, "tags": {"amenity": "bench", "backrest": "yes", "material": "metal", "seats": "3"}}, {"type": "node", "id": 11380040088, "lat": 40.7136125, "lon": -74.0037575, "tags": {"amenity": "waste_basket"}}, {"type": "node", "id": 11380040095, "lat": 40.7137893, "lon": -74.0037008, "tags": {"amenity": "recycling", "recycling_type": "container"}}, {"type": "node", "id": 11380040123, "lat": 40.7140987, "lon": -74.0035165, "tags": {"amenity": "waste_basket"}}, {"type": "node", "id": 11380040124, "lat": 40.7142681, "lon": -74.0034381, "tags": {"amenity": "waste_basket"}}, {"type": "node", "id": 11394594235, "lat": 40.7123524, "lon": -74.004714, "tags": {"amenity": "bench", "backrest": "yes", "material": "wood"}}, {"type": "node", "id": 11394594236, "lat": 40.7123283, "lon": -74.0046826, "tags": {"amenity": "bench", "backrest": "yes", "material": "wood"}}, {"type": "node", "id": 11394594237, "lat": 40.7122951, "lon": -74.004638, "tags": {"amenity": "bench", "backrest": "yes", "material": "wood"}}, {"type": "node", "id": 11394594238, "lat": 40.7122666, "lon": -74.0046031, "tags": {"amenity": "bench", "backrest": "yes", "material": "wood"}}, {"type": "node", "id": 11394594239, "lat": 40.7125457, "lon": -74.0046101, "tags": {"amenity": "bench", "backrest": "yes", "material": "wood"}}, {"type": "node", "id": 11394594240, "lat": 40.7125005, "lon": -74.0046667, "tags": {"amenity": "bench", "backrest": "yes", "material": "wood"}}, {"type": "node", "id": 11398604730, "lat": 40.7152651, "lon": -74.0036711, "tags": {"amenity": "waste_basket"}}, {"type": "node", "id": 11398604731, "lat": 40.7151551, "lon": -74.0036643, "tags": {"amenity": "bench", "backrest": "no", "material": "stone"}}, {"type": "node", "id": 11398604732, "lat": 40.7151561, "lon": -74.0035794, "tags": {"amenity": "bench", "backrest": "no", "material": "stone"}}, {"type": "node", "id": 11398604733, "lat": 40.7152059, "lon": -74.0036513, "tags": {"amenity": "bench", "backrest": "no", "material": "stone"}}, {"type": "node", "id": 11398604734, "lat": 40.7152475, "lon": -74.0036574, "tags": {"amenity": "bench", "backrest": "no", "material": "stone"}}, {"type": "node", "id": 11398604735, "lat": 40.7152739, "lon": -74.0034575, "tags": {"amenity": "bench", "backrest": "no", "material": "stone"}}, {"type": "node", "id": 11398604743, "lat": 40.7154898, "lon": -74.0035698, "tags": {"amenity": "bench", "backrest": "no", "material": "stone"}}, {"type": "node", "id": 11398604744, "lat": 40.7154473, "lon": -74.0036027, "tags": {"amenity": "bench", "backrest": "no", "material": "stone"}}, {"type": "node", "id": 11398604745, "lat": 40.7154343, "lon": -74.00355, "tags": {"amenity": "bench", "backrest": "no", "material": "stone"}}, {"type": "node", "id": 11398604746, "lat": 40.7154488, "lon": -74.0034993, "tags": {"amenity": "bench", "backrest": "no", "material": "stone"}}, {"type": "node", "id": 11398604749, "lat": 40.7150565, "lon": -74.0035814, "tags": {"amenity": "bench", "backrest": "no", "material": "stone"}}, {"type": "node", "id": 11398604750, "lat": 40.7150586, "lon": -74.0035383, "tags": {"amenity": "waste_basket"}}, {"type": "node", "id": 11398604770, "lat": 40.7152182, "lon": -74.0037678, "tags": {"amenity": "bench", "backrest": "no", "material": "stone"}}, {"type": "node", "id": 11398604771, "lat": 40.7152826, "lon": -74.0037734, "tags": {"amenity": "bench", "backrest": "no", "material": "stone"}}, {"type": "node", "id": 11398604772, "lat": 40.7156579, "lon": -74.003627, "tags": {"amenity": "bench", "backrest": "no", "material": "stone"}}, {"type": "node", "id": 11398604773, "lat": 40.7156082, "lon": -74.0036682, "tags": {"amenity": "bench", "backrest": "no", "material": "stone"}}, {"type": "node", "id": 11398604774, "lat": 40.7155595, "lon": -74.0037124, "tags": {"amenity": "bench", "backrest": "no", "material": "stone"}}, {"type": "node", "id": 11398604775, "lat": 40.715504, "lon": -74.0037584, "tags": {"amenity": "bench", "backrest": "no", "material": "stone"}}, {"type": "node", "id": 11398604776, "lat": 40.7154423, "lon": -74.003812, "tags": {"amenity": "bench", "backrest": "no", "material": "stone"}}, {"type": "node", "id": 11398604777, "lat": 40.7153845, "lon": -74.0038581, "tags": {"amenity": "bench", "backrest": "no", "material": "stone"}}, {"type": "node", "id": 11398604778, "lat": 40.7152492, "lon": -74.0039735, "tags": {"amenity": "bench", "backrest": "no", "material": "stone"}}, {"type": "node", "id": 11401559320, "lat": 40.7133091, "lon": -74.0042568, "tags": {"amenity": "waste_basket"}}, {"type": "node", "id": 11401559321, "lat": 40.7133335, "lon": -74.0042455}, {"type": "node", "id": 11401559323, "lat": 40.7132761, "lon": -74.0040936}, {"type": "node", "id": 11401559324, "lat": 40.7133952, "lon": -74.0043944, "tags": {"entrance": "yes"}}, {"type": "node", "id": 11401559326, "lat": 40.7135131, "lon": -74.0046939, "tags": {"amenity": "waste_basket"}}, {"type": "node", "id": 11401559327, "lat": 40.7134637, "lon": -74.0045305}, {"type": "node", "id": 11401559332, "lat": 40.7137009, "lon": -74.0045506}, {"type": "node", "id": 11401559333, "lat": 40.7137527, "lon": -74.0045099}, {"type": "node", "id": 11401559338, "lat": 40.7137267, "lon": -74.0045303, "tags": {"entrance": "yes"}}, {"type": "node", "id": 11401559345, "lat": 40.7136647, "lon": -74.0047455, "tags": {"barrier": "gate"}}, {"type": "node", "id": 11401559346, "lat": 40.7138904, "lon": -74.0045662, "tags": {"barrier": "gate"}}, {"type": "node", "id": 11401559361, "lat": 40.7137697, "lon": -74.0040872, "tags": {"entrance": "yes"}}, {"type": "node", "id": 11401559364, "lat": 40.7136276, "lon": -74.0038032}, {"type": "node", "id": 11401559386, "lat": 40.7139401, "lon": -74.0056257, "tags": {"access": "yes", "amenity": "bicycle_parking", "bicycle_parking": "stands", "capacity": "2"}}, {"type": "node", "id": 11401559391, "lat": 40.7142004, "lon": -74.0061856, "tags": {"amenity": "waste_basket"}}, {"type": "node", "id": 11401559392, "lat": 40.7144881, "lon": -74.0059541, "tags": {"amenity": "waste_basket"}}, {"type": "node", "id": 11401559489, "lat": 40.7146261, "lon": -74.0044314, "tags": {"amenity": "bench", "backrest": "no", "material": "granite", "seats": "10"}}, {"type": "node", "id": 11411546939, "lat": 40.7119142, "lon": -74.0083263, "tags": {"access": "yes", "amenity": "bicycle_parking", "bicycle_parking": "stands", "capacity": "2", "covered": "no"}}, {"type": "node", "id": 11411546941, "lat": 40.711973, "lon": -74.0082808, "tags": {"amenity": "waste_basket"}}, {"type": "node", "id": 11411546942, "lat": 40.7120327, "lon": -74.0083028, "tags": {"amenity": "post_box", "operator": "United States Postal Service", "operator:short": "USPS", "operator:type": "public", "operator:website": "https://www.usps.com", "operator:wikidata": "Q668687", "operator:wikipedia": "en:United States Postal Service"}}, {"type": "node", "id": 11411546948, "lat": 40.7125104, "lon": -74.0094576}, {"type": "node", "id": 11411576691, "lat": 40.7126027, "lon": -74.00962, "tags": {"amenity": "waste_basket"}}, {"type": "node", "id": 11411576692, "lat": 40.7125975, "lon": -74.0096263, "tags": {"amenity": "recycling", "recycling_type": "container"}}, {"type": "node", "id": 11411576696, "lat": 40.7120767, "lon": -74.0099682, "tags": {"amenity": "waste_basket"}}, {"type": "node", "id": 11411576697, "lat": 40.7120733, "lon": -74.0099565, "tags": {"amenity": "recycling", "recycling_type": "container"}}, {"type": "node", "id": 11411576717, "lat": 40.7124063, "lon": -74.0093538}, {"type": "node", "id": 11411576718, "lat": 40.7122899, "lon": -74.0098162}, {"type": "node", "id": 11411576727, "lat": 40.7124444, "lon": -74.0088117, "tags": {"access": "yes", "amenity": "parking_entrance", "parking": "underground"}}, {"type": "node", "id": 11411576751, "lat": 40.7125479, "lon": -74.0088993, "tags": {"amenity": "bench", "backrest": "yes"}}, {"type": "node", "id": 11411576752, "lat": 40.7126133, "lon": -74.0088553, "tags": {"amenity": "drinking_water"}}, {"type": "node", "id": 11411576762, "lat": 40.7126198, "lon": -74.0089134, "tags": {"amenity": "waste_basket"}}, {"type": "node", "id": 11411576773, "lat": 40.7126482, "lon": -74.00898, "tags": {"amenity": "waste_basket"}}, {"type": "node", "id": 11411576862, "lat": 40.7127748, "lon": -74.0087917, "tags": {"amenity": "waste_basket"}}, {"type": "node", "id": 11411576865, "lat": 40.7128031, "lon": -74.008856, "tags": {"amenity": "waste_basket"}}, {"type": "node", "id": 11411576890, "lat": 40.7127517, "lon": -74.0087392, "tags": {"amenity": "bench", "backrest": "yes"}}, {"type": "node", "id": 11411576891, "lat": 40.7128192, "lon": -74.0086858, "tags": {"amenity": "bench", "backrest": "yes"}}, {"type": "node", "id": 11411576892, "lat": 40.7127948, "lon": -74.0086846, "tags": {"amenity": "waste_basket"}}, {"type": "node", "id": 11411576906, "lat": 40.7127397, "lon": -74.0087126, "tags": {"amenity": "bench", "backrest": "yes"}}, {"type": "node", "id": 11411576907, "lat": 40.7127729, "lon": -74.0086861, "tags": {"amenity": "bench", "backrest": "yes"}}, {"type": "node", "id": 11411576908, "lat": 40.7128081, "lon": -74.0086583, "tags": {"amenity": "bench", "backrest": "yes"}}, {"type": "node", "id": 11445034900, "lat": 40.7151538, "lon": -74.0056897, "tags": {"addr:city": "New York", "addr:housenumber": "299", "addr:postcode": "10007", "addr:state": "NY", "addr:street": "Broadway", "amenity": "cafe", "bar": "no", "branch": "Broadway btwn Reade St & Duane St", "brand": "Matto Espresso", "brand:wikidata": "Q122209496", "check_date": "2023-12-22", "cuisine": "coffee_shop", "diet:gluten_free": "yes", "diet:halal": "no", "diet:kosher": "no", "diet:lactose_free": "yes", "diet:pescetarian": "no", "diet:vegan": "yes", "diet:vegetarian": "yes", "drive_through": "no", "highchair": "no", "level": "0", "name": "Matto Espresso", "opening_hours": "Mo-Fr 06:30-17:00; Sa-Su 07:00-16:00", "outdoor_seating": "no", "payment:app": "yes", "reservation": "no", "takeaway": "yes", "toilets": "no"}}, {"type": "node", "id": 11460901619, "lat": 40.7139081, "lon": -74.0104095, "tags": {"amenity": "waste_basket"}}, {"type": "node", "id": 11460901620, "lat": 40.7139189, "lon": -74.0104031, "tags": {"amenity": "recycling", "recycling_type": "container"}}, {"type": "node", "id": 11460901626, "lat": 40.7133926, "lon": -74.0096785, "tags": {"access": "yes", "amenity": "bicycle_parking", "bicycle_parking": "stands", "capacity": "4"}}, {"type": "node", "id": 11460901654, "lat": 40.7129631, "lon": -74.0096329, "tags": {"access": "yes", "amenity": "bicycle_parking", "bicycle_parking": "stands", "capacity": "2", "covered": "no"}}, {"type": "node", "id": 11460901655, "lat": 40.7128923, "lon": -74.009689, "tags": {"amenity": "waste_basket"}}, {"type": "node", "id": 11460901656, "lat": 40.7128834, "lon": -74.0096956, "tags": {"amenity": "recycling", "recycling_type": "container"}}, {"type": "node", "id": 11461036379, "lat": 40.7124737, "lon": -74.0078562, "tags": {"amenity": "recycling", "recycling_type": "container"}}, {"type": "node", "id": 11461036382, "lat": 40.7123061, "lon": -74.008603, "tags": {"access": "yes", "amenity": "bicycle_parking", "bicycle_parking": "stands", "capacity": "2", "covered": "no"}}, {"type": "node", "id": 11461036467, "lat": 40.7144979, "lon": -74.0105084, "tags": {"amenity": "bench", "backrest": "yes", "material": "metal", "seats": "3"}}, {"type": "node", "id": 11461036478, "lat": 40.7144591, "lon": -74.0104229, "tags": {"access": "yes", "amenity": "bicycle_parking", "bicycle_parking": "stands", "capacity": "2"}}, {"type": "node", "id": 11461036479, "lat": 40.714411, "lon": -74.0103109, "tags": {"amenity": "recycling", "recycling_type": "container"}}, {"type": "node", "id": 11461036480, "lat": 40.7144087, "lon": -74.0103019, "tags": {"amenity": "waste_basket"}}, {"type": "node", "id": 11461036495, "lat": 40.7141815, "lon": -74.0104613, "tags": {"access": "yes", "amenity": "parking_entrance", "parking": "underground"}}, {"type": "node", "id": 11461123807, "lat": 40.7139704, "lon": -74.0104342, "tags": {"access": "yes", "amenity": "bicycle_parking", "bicycle_parking": "stands", "capacity": "12"}}, {"type": "node", "id": 11461123837, "lat": 40.7144888, "lon": -74.0101902, "tags": {"amenity": "waste_basket"}}, {"type": "node", "id": 11461123852, "lat": 40.7137679, "lon": -74.0089995, "tags": {"amenity": "recycling", "recycling_type": "container"}}, {"type": "node", "id": 11461123853, "lat": 40.7137631, "lon": -74.0090041, "tags": {"amenity": "waste_basket"}}, {"type": "node", "id": 11461123867, "lat": 40.7133807, "lon": -74.009304, "tags": {"amenity": "recycling", "recycling_type": "container"}}, {"type": "node", "id": 11461123868, "lat": 40.7133897, "lon": -74.009299, "tags": {"amenity": "waste_basket"}}, {"type": "node", "id": 11461129525, "lat": 40.7132556, "lon": -74.0090468, "tags": {"amenity": "waste_basket"}}, {"type": "node", "id": 11461129526, "lat": 40.7132531, "lon": -74.0090386, "tags": {"amenity": "recycling", "recycling_type": "container"}}, {"type": "node", "id": 11461129527, "lat": 40.7132291, "lon": -74.0089822, "tags": {"amenity": "post_box", "operator": "United States Postal Service", "operator:short": "USPS", "operator:type": "public", "operator:website": "https://www.usps.com", "operator:wikidata": "Q668687", "operator:wikipedia": "en:United States Postal Service"}}, {"type": "node", "id": 11461129535, "lat": 40.7127296, "lon": -74.0078055, "tags": {"access": "yes", "amenity": "bicycle_parking", "bicycle_parking": "stands", "capacity": "5"}}, {"type": "node", "id": 11461129551, "lat": 40.7130907, "lon": -74.0074103, "tags": {"amenity": "waste_basket"}}, {"type": "node", "id": 11461129552, "lat": 40.7130888, "lon": -74.0074021, "tags": {"amenity": "recycling", "recycling_type": "container"}}, {"type": "node", "id": 11506490579, "lat": 40.7146277, "lon": -74.0035403}, {"type": "node", "id": 11506493454, "lat": 40.7153259, "lon": -74.004794, "tags": {"amenity": "parking_entrance"}}, {"type": "node", "id": 11506493486, "lat": 40.7146984, "lon": -74.0033599}, {"type": "node", "id": 11506537135, "lat": 40.7159654, "lon": -74.0063175, "tags": {"amenity": "parking", "fee": "yes", "layer": "-1", "parking": "underground"}}, {"type": "node", "id": 11506618597, "lat": 40.7159173, "lon": -74.0063907, "tags": {"amenity": "waste_basket"}}, {"type": "node", "id": 11506618608, "lat": 40.7158683, "lon": -74.0063977, "tags": {"amenity": "bench", "backrest": "yes"}}, {"type": "node", "id": 11506618609, "lat": 40.7158391, "lon": -74.0064458, "tags": {"amenity": "waste_basket"}}, {"type": "node", "id": 11506618624, "lat": 40.7158067, "lon": -74.0063784, "tags": {"amenity": "bench", "backrest": "yes"}}, {"type": "node", "id": 11506618696, "lat": 40.715737, "lon": -74.0062191, "tags": {"amenity": "bench", "backrest": "yes"}}, {"type": "node", "id": 11506618700, "lat": 40.7157692, "lon": -74.0063391, "tags": {"amenity": "waste_basket"}}, {"type": "node", "id": 11506618701, "lat": 40.7157427, "lon": -74.006278, "tags": {"amenity": "waste_basket"}}, {"type": "node", "id": 11506618762, "lat": 40.7158633, "lon": -74.0062889, "tags": {"amenity": "drinking_water"}}, {"type": "node", "id": 11506618773, "lat": 40.7158832, "lon": -74.0063185, "tags": {"amenity": "bench", "backrest": "yes"}}, {"type": "node", "id": 11506618774, "lat": 40.7158106, "lon": -74.0061602, "tags": {"amenity": "bench", "backrest": "yes"}}, {"type": "node", "id": 11506618775, "lat": 40.7158258, "lon": -74.0062031, "tags": {"access": "yes", "amenity": "bicycle_parking", "bicycle_parking": "stands", "capacity": "7", "covered": "no", "operator:type": "private"}}, {"type": "node", "id": 11506618850, "lat": 40.7157502, "lon": -74.0061366, "tags": {"amenity": "bench", "backrest": "yes"}}, {"type": "node", "id": 11506618853, "lat": 40.715698, "lon": -74.0061787, "tags": {"amenity": "waste_basket"}}, {"type": "node", "id": 11506618871, "lat": 40.7152305, "lon": -74.0055486, "tags": {"amenity": "waste_basket"}}, {"type": "node", "id": 11506618872, "lat": 40.7153301, "lon": -74.0054648, "tags": {"amenity": "waste_basket"}}, {"type": "node", "id": 11515468918, "lat": 40.7139343, "lon": -74.0088746, "tags": {"amenity": "waste_basket"}}, {"type": "node", "id": 11515468923, "lat": 40.7138267, "lon": -74.0086821, "tags": {"amenity": "waste_basket"}}, {"type": "node", "id": 11515468930, "lat": 40.7142401, "lon": -74.0083591, "tags": {"amenity": "waste_basket"}}, {"type": "node", "id": 11515468963, "lat": 40.7143646, "lon": -74.0085384, "tags": {"amenity": "waste_basket"}}, {"type": "node", "id": 11515469011, "lat": 40.7143939, "lon": -74.0082369, "tags": {"amenity": "waste_basket"}}, {"type": "node", "id": 11517225700, "lat": 40.7161561, "lon": -74.0092545, "tags": {"amenity": "waste_basket"}}, {"type": "node", "id": 11517225705, "lat": 40.7162333, "lon": -74.009101, "tags": {"amenity": "waste_basket"}}, {"type": "node", "id": 11517225706, "lat": 40.7161282, "lon": -74.0088608, "tags": {"amenity": "waste_basket"}}, {"type": "node", "id": 11517225775, "lat": 40.7155058, "lon": -74.0090582, "tags": {"amenity": "waste_basket"}}, {"type": "node", "id": 11517225776, "lat": 40.7154108, "lon": -74.0091274, "tags": {"amenity": "waste_basket"}}, {"type": "node", "id": 11517225781, "lat": 40.71549, "lon": -74.0093867, "tags": {"amenity": "waste_basket"}}, {"type": "node", "id": 11577695985, "lat": 40.7144353, "lon": -74.008852, "tags": {"amenity": "dentist", "healthcare": "dentist", "name": "Expert Dental"}}, {"type": "node", "id": 11747011682, "lat": 40.7126326, "lon": -74.0100064, "tags": {"addr:city": "New York", "addr:housename": "Federal Office Building", "addr:housenumber": "90", "addr:postcode": "10007", "addr:state": "NY", "addr:street": "Church Street", "amenity": "post_office", "branch": "Church Street", "name": "Church Street Station Post Office", "opening_hours": "Mo-Fr 08:00-20:00; Sa 08:15-15:45; Su off", "operator": "United States Postal Service", "operator:short": "USPS", "operator:type": "public", "operator:website": "https://www.usps.com", "operator:wikidata": "Q668687", "operator:wikipedia": "en:United States Postal Service", "phone": "+1-212-330-5001", "website": "https://tools.usps.com/find-location.htm?location=1433730"}}, {"type": "node", "id": 12007325581, "lat": 40.7145957, "lon": -74.0085001, "tags": {"addr:city": "New York", "addr:housenumber": "140", "addr:postcode": "10007", "addr:state": "NY", "addr:street": "Church Street", "amenity": "pharmacy", "brand": "CVS Pharmacy", "brand:website": "https://www.cvs.com/", "brand:wikidata": "Q2078880", "brand:wikipedia": "en:CVS Pharmacy", "healthcare": "pharmacy", "name": "CVS Pharmacy", "phone": "+1-212-587-1112", "short_name": "CVS"}}, {"type": "node", "id": 12381062844, "lat": 40.7117666, "lon": -74.0035714, "tags": {"amenity": "bench"}}, {"type": "way", "id": 75309465, "nodes": [889261987, 10290106685, 10290106707, 889261788, 10290135854, 2940356649, 10290135858, 10290135864, 2823452277, 2940367599, 10290135938, 10290135871, 10290135878, 10290135936, 10290135867, 889261960, 5035490093, 10290135905, 10290106674, 10290135903, 10290135937, 889261987], "tags": {"amenity": "grave_yard", "barrier": "fence", "height": "2", "name": "St. Paul's Churchyard", "name:el": "\u039a\u03bf\u03b9\u03bc\u03b7\u03c4\u03ae\u03c1\u03b9\u03bf \u0391\u03b3\u03af\u03bf\u03c5 \u03a0\u03b1\u03cd\u03bb\u03bf\u03c5", "religion": "christian"}}, {"type": "way", "id": 250269507, "nodes": [2567571539, 2567571550, 2567571569, 2567571562, 2567571549, 2567571539], "tags": {"addr:city": "New York", "addr:housenumber": "100", "addr:state": "NY", "addr:street": "Duane Street", "amenity": "fire_station", "building": "fire_station", "building:levels": "3", "height": "14.8", "name": "FDNY Engine 7/Ladder 1/Battalion 1", "nycdoitt:bin": "1001647", "operator": "New York City Fire Department", "operator:wikidata": "Q283207", "operator:wikipedia": "en:New York City Fire Department"}}, {"type": "way", "id": 250269529, "nodes": [2567571521, 2567571526, 2567571530, 2567571499, 2567571489, 3762820098, 3762820097, 2567571485, 11506493486, 2567571472, 11506490579, 2567571476, 2567571484, 2567571487, 2567571470, 5161079151, 2567571493, 2567571521], "tags": {"addr:city": "New York", "addr:housename": "James L. Watson Court of International Trade Building", "addr:housenumber": "1", "addr:postcode": "10007", "addr:state": "NY", "addr:street": "Federal Plaza", "amenity": "courthouse", "building": "government", "height": "33.2", "name": "James L. Watson U.S. Court of International Trade Building", "nycdoitt:bin": "1079223", "start_date": "1967", "wikidata": "Q7889681", "wikipedia": "en:United States Court of International Trade"}}, {"type": "way", "id": 277653273, "nodes": [1253070414, 2821338438, 11401559346, 11401559345, 2821338439, 1253070827, 1253070414], "tags": {"access": "private", "amenity": "parking", "parking": "surface", "surface": "asphalt"}}, {"type": "way", "id": 277890497, "nodes": [2823341443, 2823341444, 2823341454, 2823341453, 2823341450, 2823341443], "tags": {"addr:city": "New York", "addr:housenumber": "67", "addr:postcode": "10007", "addr:street": "Murray Street", "amenity": "restaurant", "building": "yes", "cuisine": "irish", "height": "25.5", "name": "Lilly O'Briens", "nycdoitt:bin": "1001419", "opening_hours": "Mo-Su 00:00-04:00,08:00-24:00", "phone": "+1 212 732-1592", "website": "https://www.lillyobriensbar.com/"}}, {"type": "way", "id": 277890498, "nodes": [2823341465, 2823341469, 2823341501, 2823341495, 2823341465], "tags": {"addr:city": "New York", "addr:housenumber": "73", "addr:postcode": "10007", "addr:street": "Warren Street", "amenity": "restaurant", "building": "yes", "cuisine": "american", "height": "22.1", "name": "Mulberry & Vine", "nycdoitt:bin": "1001432", "phone": "+1-212-791-6300", "website": "https://www.mulberryandvine.com/", "wheelchair": "yes"}}, {"type": "way", "id": 277890503, "nodes": [2823341570, 2823341574, 2823341600, 2823341603, 2823341588, 2823341586, 2823341575, 2823341573, 2823341570], "tags": {"addr:housenumber": "144", "addr:postcode": "10007", "addr:street": "Chambers Street", "amenity": "dentist", "building": "yes", "email": "info@tribecadentaldesign.com", "healthcare": "dentist", "height": "18.0", "name": "Tribeca Dental Design", "nycdoitt:bin": "1001498", "phone": "+1 212 227-9127", "website": "https://tribecadentaldesign.com/"}}, {"type": "way", "id": 277904749, "nodes": [2823452430, 2823452443, 11411546948, 2823452439, 11411576717, 2823452416, 2823452418, 2823452423, 11411576718, 2823452430], "tags": {"addr:city": "New York", "addr:housenumber": "22", "addr:postcode": "10007", "addr:state": "NY", "addr:street": "Barclay Street", "amenity": "place_of_worship", "building": "church", "denomination": "roman_catholic", "height": "17.8", "name": "Saint Peter's Church", "name:hr": "Crkva sv. Petra", "nycdoitt:bin": "1001238", "religion": "christian", "start_date": "1840", "wikidata": "Q3916688", "wikipedia": "en:St. Peter's Church (Manhattan)"}}, {"type": "way", "id": 277904752, "nodes": [2940356649, 10290135858, 10290135864, 2823452277, 2823452282, 2823452280, 2823452285, 2823452286, 2823452287, 10290135831, 2940356682, 8262936548, 2940356708, 10290135830, 2823452289, 2823452288, 2823452291, 2940356654, 2940356653, 10290135851, 2940356649], "tags": {"addr:city": "New York", "addr:housenumber": "209", "addr:postcode": "10007", "addr:state": "NY", "addr:street": "Broadway", "amenity": "place_of_worship", "building": "church", "building:architecture": "georgian", "building:part": "no", "denomination": "episcopal", "diocese": "Episcopal Diocese of New York", "heritage": "2", "heritage:operator": "nrhp", "heritage:website": "https://npgallery.nps.gov/AssetDetail/NRIS/66000551", "name": "Saint Paul's Chapel", "name:el": "\u0386\u03b3\u03b9\u03bf\u03c2 \u03a0\u03b1\u03cd\u03bb\u03bf\u03c2", "name:es": "Capilla de San Pablo", "nycdoitt:bin": "1001231", "religion": "christian", "start_date": "1766", "tourism": "attraction", "website": "https://www.trinitywallstreet.org/congregation/spc/", "wheelchair": "yes", "wikidata": "Q1325500", "wikipedia": "en:St. Paul's Chapel"}}, {"type": "way", "id": 278093221, "nodes": [2825233696, 2825233698, 11401559361, 2825233679, 2825233678, 11401559364, 2825233665, 2825233621, 11401559323, 2825233627, 11401559321, 2825233626, 11401559324, 2825233639, 11401559327, 2825233642, 2825233656, 11401559332, 11401559338, 11401559333, 2825233705, 2825233696]}, {"type": "way", "id": 369797925, "nodes": [889464923, 2823341488, 2823341458, 3735556933, 2823341461, 2823341457, 889464923], "tags": {"access": "customers", "amenity": "parking", "fee": "yes", "name": "Speedy Park", "parking": "surface", "surface": "asphalt", "wheelchair": "yes"}}, {"type": "way", "id": 410301964, "nodes": [4121328211, 4121328209, 4121328212, 4121328210, 4121328211]}, {"type": "way", "id": 575213526, "nodes": [3618700293, 5519996240, 9364517338, 5519996241, 9364517339, 5519996242, 9364517340, 9364517341, 5519996243, 9364517342, 5519996244, 9364517343, 5519996245, 5519996247, 5519996248, 9364517358, 9364517359, 5519996249, 9364517360, 5519996250, 9364517361, 9364517362, 5519996251, 9364517363, 5519996252, 9364517364, 5519996253, 5519996254, 5519996255, 9364517357, 9364517344, 9364517356, 5519996256, 9364517355, 5519996257, 9364517354, 5519996258, 9364517353, 9364517352, 5519996259, 9364517351, 5519996260, 5519996261, 5519996262, 9364517350, 5519996268, 9364517349, 5519996263, 9364517348, 5519996264, 9364517347, 5519996265, 9364517346, 5519996266, 9364517345, 5519996267, 3618700293], "tags": {"amenity": "fountain", "barrier": "retaining_wall", "drinking_water": "no", "fountain": "decorative", "height": "1", "lit": "yes", "name": "Jacob Wrey Mould Fountain", "natural": "water"}}, {"type": "way", "id": 575213527, "nodes": [5519996274, 5519996275, 5519996276, 5519996277, 5519996278, 5519996279, 9368527083, 5519996280, 2242624721, 5519996282, 5519996283, 5519996284, 5519996285, 5519996286, 5519996287, 9368823842, 5519996288, 5519996289, 5519996274], "tags": {"addr:city": "New York", "addr:housename": "New York City Hall", "addr:housenumber": "260", "addr:postcode": "10000", "addr:state": "NY", "addr:street": "Broadway", "amenity": "townhall", "architect": "Joseph Francois Mangin and John McComb, Jr.", "building": "public", "building:levels": "4", "building:part": "yes", "height": "36.6", "level": "2", "name": "New York City Hall", "name:el": "\u0394\u03b7\u03bc\u03b1\u03c1\u03c7\u03b5\u03af\u03bf \u039d\u03ad\u03b1\u03c2 \u03a5\u03cc\u03c1\u03ba\u03b7\u03c2", "name:hi": "\u0928\u094d\u092f\u0942\u092f\u0949\u0930\u094d\u0915 \u0938\u093f\u091f\u0940 \u0939\u0949\u0932", "name:hr": "Gradska vije\u0107nica New Yorka", "nycdoitt:bin": "1079147", "operator": "New York City Department of Citywide Administrative Services", "phone": "+1 212 639 9675", "smoking": "no", "start_date": "1812", "townhall:type": "city", "website": "https://www1.nyc.gov/site/dcas/business/dcasmanagedbuildings/city-hall.page", "wheelchair": "yes", "wikidata": "Q1065206", "wikipedia": "en:New York City Hall"}}, {"type": "way", "id": 891074473, "nodes": [6150654567, 8281922023, 8281922024, 8281922025, 8281922096, 11349528761, 6150654572, 11349509502, 11349509503, 11349509501, 11347850276, 8281893493, 8281893494, 11347777630, 8281893495, 8281893496, 11347777627, 8281893497, 8281893498, 8281893499, 11349528760, 8281893500, 8281893501, 4900466392, 11349528772, 11349528775, 11349528618, 11349528726, 11349528619, 8281893503, 8281893504, 8281893505, 4900466379, 8281893506, 8281893507, 8281893508, 8281922038, 4900466385, 11349528555, 11349528545, 8281893510, 11349528489, 8281893511, 6150654571, 9364519631, 11033251601, 11033251602, 11033251598, 9364519629, 9364519628, 6150654570, 8281922017, 6150654569, 8281922018, 6150654568, 9364517405, 10297381513, 8281922098, 6150654567], "tags": {"addr:city": "New York", "addr:housenumber": "1", "addr:postcode": "10038", "addr:state": "NY", "addr:street": "Pace Plaza", "amenity": "university", "name": "Pace University", "website": "https://www.pace.edu/", "wikidata": "Q556098", "wikipedia": "en:Pace University"}}, {"type": "way", "id": 1015670154, "nodes": [9368527036, 9368824112, 9368824113, 9368823990, 9368823991, 9368824105, 9368527069, 9368824114, 9368527070, 9374424913, 2821289715, 9369042307, 8262309192, 9368527073, 9368527064, 9368527036], "tags": {"access": "private", "amenity": "parking", "fee": "no", "parking": "surface", "supervised": "yes", "surface": "paved"}}, {"type": "way", "id": 1126100174, "nodes": [10297381514, 10297381515, 10297381516, 10297381517, 10297381514], "tags": {"amenity": "shelter", "building": "yes", "height": "3", "shelter_type": "public_transport"}}, {"type": "way", "id": 1126100190, "nodes": [10297381595, 10297381596, 10297381597, 10297381598, 10297381595], "tags": {"amenity": "shelter", "building": "yes", "height": "3", "shelter_type": "public_transport"}}, {"type": "way", "id": 1175790965, "nodes": [10925414979, 10925414980, 10925414981, 10925414982, 10925414979], "tags": {"amenity": "parking_space"}}, {"type": "way", "id": 1175790966, "nodes": [10925414983, 10925414984, 10925414985, 10925414986, 10925414983], "tags": {"amenity": "parking_space"}}, {"type": "way", "id": 1175790967, "nodes": [10925414987, 10925414988, 10925414989, 10925414990, 10925414987], "tags": {"amenity": "parking_space"}}, {"type": "way", "id": 1175790968, "nodes": [10925414991, 10925414992, 10925414993, 10925414994, 10925414991], "tags": {"amenity": "parking_space"}}, {"type": "way", "id": 1175790969, "nodes": [10925414995, 10925414996, 10925414997, 10925414998, 10925414995], "tags": {"amenity": "parking_space"}}, {"type": "way", "id": 1175790970, "nodes": [10925414999, 10925415000, 10925415001, 10925415002, 10925414999], "tags": {"amenity": "parking_space"}}, {"type": "way", "id": 1175790971, "nodes": [10925415003, 10925415004, 10925424105, 10925424106, 10925415003], "tags": {"amenity": "parking_space"}}, {"type": "way", "id": 1175790972, "nodes": [10925424107, 10925424108, 10925424109, 10925424110, 10925424107], "tags": {"amenity": "parking_space"}}, {"type": "way", "id": 1175790973, "nodes": [10925424111, 10925424112, 10925424113, 10925424114, 10925424111], "tags": {"amenity": "parking_space"}}, {"type": "way", "id": 1175790974, "nodes": [10925424115, 10925424116, 10925424117, 10925424118, 10925424115], "tags": {"amenity": "parking_space"}}, {"type": "way", "id": 1175790975, "nodes": [10925424119, 10925424120, 10925424121, 10925424122, 10925424119], "tags": {"amenity": "parking_space"}}, {"type": "way", "id": 1175790976, "nodes": [10925424123, 10925424124, 10925424125, 10925424126, 10925424123], "tags": {"amenity": "parking_space"}}, {"type": "way", "id": 1175790977, "nodes": [10925424127, 10925424128, 10925424129, 10925424130, 10925424127], "tags": {"amenity": "parking_space"}}, {"type": "way", "id": 1175790978, "nodes": [10925424131, 10925424132, 10925424133, 10925424134, 10925424131], "tags": {"amenity": "parking_space"}}, {"type": "way", "id": 1175790979, "nodes": [10925424135, 10925424136, 10925424137, 10925424138, 10925424135], "tags": {"amenity": "parking_space"}}, {"type": "way", "id": 1175790980, "nodes": [10925424139, 10925424140, 10925424141, 10925424142, 10925424139], "tags": {"amenity": "parking_space"}}, {"type": "way", "id": 1175790981, "nodes": [10925424143, 10925424144, 10925424145, 10925424146, 10925424143], "tags": {"amenity": "parking_space"}}, {"type": "way", "id": 1175790982, "nodes": [10925424147, 10925424148, 10925424149, 10925424150, 10925424147], "tags": {"amenity": "parking_space"}}, {"type": "way", "id": 1175790983, "nodes": [10925424151, 10925424152, 10925424153, 10925424154, 10925424151], "tags": {"amenity": "parking_space"}}, {"type": "way", "id": 1175790984, "nodes": [10925424155, 10925424156, 10925424157, 10925424158, 10925424155], "tags": {"amenity": "parking_space"}}, {"type": "way", "id": 1175790985, "nodes": [10925424159, 10925424160, 10925424161, 10925424162, 10925424159], "tags": {"amenity": "parking_space"}}, {"type": "way", "id": 1175790986, "nodes": [10925424163, 10925424164, 10925424165, 10925424166, 10925424163], "tags": {"amenity": "parking_space"}}, {"type": "way", "id": 1175790987, "nodes": [10925424167, 10925424168, 10925424169, 10925424170, 10925424167], "tags": {"amenity": "parking_space"}}, {"type": "way", "id": 1175790988, "nodes": [10925424171, 10925424172, 10925424173, 10925424174, 10925424171], "tags": {"amenity": "parking_space"}}, {"type": "way", "id": 1175790989, "nodes": [10925424175, 10925424176, 10925424177, 10925424178, 10925424175], "tags": {"amenity": "parking_space"}}, {"type": "way", "id": 1175790990, "nodes": [10925424179, 10925424181, 10925424182, 10925424183, 10925424184, 10925424185, 10925424186, 10925424187, 10925424179], "tags": {"access": "private", "amenity": "parking", "industrial": "storage", "parking": "surface"}}, {"type": "way", "id": 1223577701, "nodes": [11349528488, 11349528487, 2825233383, 2825233381, 11349528561, 11349528559, 11349528551, 8281893506, 8281893507, 8281893508, 8281922038, 4900466385, 11349528555, 11349528545, 11349528546, 11349528544, 9678386366, 11349528488], "tags": {"access": "private", "amenity": "parking", "parking": "surface", "surface": "asphalt"}}, {"type": "relation", "id": 6137836, "members": [{"type": "way", "ref": 278093221, "role": "outer"}, {"type": "way", "ref": 410301964, "role": "inner"}], "tags": {"addr:city": "New York", "addr:housenumber": "31", "addr:postcode": "10007", "addr:state": "NY", "addr:street": "Chambers Street", "alt_name": "Surrogate Courthouse", "amenity": "courthouse", "building": "government", "height": "47.8", "name": "Surrogate's Courthouse", "nycdoitt:bin": "1001670", "roof:shape": "mansard", "type": "multipolygon", "wikidata": "Q7646868", "wikipedia": "en:Surrogate's Courthouse"}}]}